waterbodyID,lakeName,lat,long,latD,latM1,latM2,longD,longM1,longM2,waterbodyID_OG,lakeName_a,lakeName_b,waterbodyAndLake,waterbodyAndLake_ok,waterbodyAndLake_pieces,waterbodyAndLake_remainder
17-6148-53211,Lac Dufay,48.03306,-79.45939,48,0,3,79,4,5,17-6148-53211,Lac,Dufay,17-6148-53211 Lac Dufay,TRUE,3,
16-6284-60018,Pine ,54.14733,-85.04051,54,1,4,85,0,4,16-6284-60018,Pine,,16-6284-60018 Pine ,TRUE,3,
16-5856-60025,Shamattawa ,54.18624,-85.68382,54,1,8,85,6,8,16-5856-60025,Shamattawa,,16-5856-60025 Shamattawa ,TRUE,3,
16-6292-60223,Spruce ,54.33456,-85.01359,54,3,3,85,0,1,16-6292-60223,Spruce,,16-6292-60223 Spruce ,TRUE,3,
16-5630-58465,McFaulds ,52.76829,-86.05713,52,7,6,86,0,5,16-5630-58465,McFaulds,,16-5630-58465 McFaulds ,TRUE,3,
16-5494-59810,NA,53.9739,-86.25172,53,9,7,86,2,5,16-5494-59810,"NA",NA,16-5494-59810 NA,FALSE,2,
17-3334-53694,Bittern ,48.45849,-83.25316,48,4,5,83,2,5,17-3334-53694,Bittern,,17-3334-53694 Bittern ,TRUE,3,
16-6991-54320,Cameron ,49.0175,-84.27477,49,0,1,84,2,7,16-6991-54320,Cameron,,16-6991-54320 Cameron ,TRUE,3,
17-3120-53099,Como ,47.91648,-83.5157,47,9,1,83,5,1,17-3120-53099,Como,,17-3120-53099 Como ,TRUE,3,
16-6447-54048,Dayohessarah ,48.78119,-85.02995,48,7,8,85,0,2,16-6447-54048,Dayohessarah,,16-6447-54048 Dayohessarah ,TRUE,3,
16-7139-53538,Dog ,48.30313,-84.11602,48,3,0,84,1,1,16-7139-53538,Dog,,16-7139-53538 Dog ,TRUE,3,
16-6192-53335,Ellen ,48.14412,-85.38996,48,1,4,85,3,8,16-6192-53335,Ellen,,16-6192-53335 Ellen ,TRUE,3,
17-3280-53321,Floranna ,48.1212,-83.31097,48,1,2,83,3,1,17-3280-53321,Floranna,,17-3280-53321 Floranna ,TRUE,3,
16-5921-55162,Flynne ,49.79314,-85.72027,49,7,9,85,7,2,16-5921-55162,Flynne,,16-5921-55162 Flynne ,TRUE,3,
16-7102-54270,Gull ,48.96202,-84.12881,48,9,6,84,1,2,16-7102-54270,Gull,,16-7102-54270 Gull ,TRUE,3,
16-6683-54413,Haken ,49.10397,-84.69439,49,1,0,84,6,9,16-6683-54413,Haken,,16-6683-54413 Haken ,TRUE,3,
16-6439-54864,Hiawatha ,49.51536,-85.0119,49,5,1,85,0,1,16-6439-54864,Hiawatha,,16-6439-54864 Hiawatha ,TRUE,3,
16-6052-53171,Jackfish ,47.99953,-85.58941,47,9,9,85,5,8,16-6052-53171,Jackfish,,16-6052-53171 Jackfish ,TRUE,3,
16-6893-54197,Kabinakagami ,48.90799,-84.40651,48,9,0,84,4,0,16-6893-54197,Kabinakagami,,16-6893-54197 Kabinakagami ,TRUE,3,
16-6863-54334,Kabinakagamisis ,49.02999,-84.45079,49,0,2,84,4,5,16-6863-54334,Kabinakagamisis,,16-6863-54334 Kabinakagamisis ,TRUE,3,
16-5412-54570,Kagiano ,49.28717,-86.43241,49,2,8,86,4,3,16-5412-54570,Kagiano,,16-5412-54570 Kagiano ,TRUE,3,
16-6239-53245,Katzenbach ,48.06369,-85.33663,48,0,6,85,3,3,16-6239-53245,Katzenbach,,16-6239-53245 Katzenbach ,TRUE,3,
16-6225-54072,Kwinkwaga ,48.80786,-85.33219,48,8,0,85,3,3,16-6225-54072,Kwinkwaga,,16-6225-54072 Kwinkwaga ,TRUE,3,
16-6727-53244,Lena ,48.05118,-84.683,48,0,5,84,6,8,16-6727-53244,Lena,,16-6727-53244 Lena ,TRUE,3,
16-6953-53376,Manitowik ,48.16368,-84.37354,48,1,6,84,3,7,16-6953-53376,Manitowik,,16-6953-53376 Manitowik ,TRUE,3,
16-6393-54219,Matthews ,48.93675,-85.09856,48,9,3,85,0,9,16-6393-54219,Matthews,,16-6393-54219 Matthews ,TRUE,3,
16-6222-53262,Mishi ,48.07953,-85.35913,48,0,7,85,3,5,16-6222-53262,Mishi,,16-6222-53262 Mishi ,TRUE,3,
17-3006-53592,Missinaibi ,48.35674,-83.69128,48,3,5,83,6,9,17-3006-53592,Missinaibi,,17-3006-53592 Missinaibi ,TRUE,3,
16-6420-54760,Nagagami ,49.42202,-85.0419,49,4,2,85,0,4,16-6420-54760,Nagagami,,16-6420-54760 Nagagami ,TRUE,3,
16-6697-54829,Nagagamisis ,49.47731,-84.65717,49,4,7,84,6,5,16-6697-54829,Nagagamisis,,16-6697-54829 Nagagamisis ,TRUE,3,
16-6678-54040,Nameigos ,48.78398,-84.70585,48,7,8,84,7,0,16-6678-54040,Nameigos,,16-6678-54040 Nameigos ,TRUE,3,
16-6683-54687,Newlands ,49.339,-84.6914,49,3,3,84,6,9,16-6683-54687,Newlands,,16-6683-54687 Newlands ,TRUE,3,
16-6121-53610,North McCrea ,48.39452,-85.48552,48,3,9,85,4,8,16-6121-53610,North,McCrea,16-6121-53610 North McCrea ,FALSE,4, 
16-6991-53906,Oba ,48.64543,-84.28872,48,6,4,84,2,8,16-6991-53906,Oba,,16-6991-53906 Oba ,TRUE,3,
16-6094-53522,Partridge ,48.31563,-85.5247,48,3,1,85,5,2,16-6094-53522,Partridge,,16-6094-53522 Partridge ,TRUE,3,
16-6583-54325,Placid,49.02703,-84.83384,49,0,2,84,8,3,16-6583-54325,Placid,NA,16-6583-54325 Placid,FALSE,2,
17-2830-53096,Prairie Bee ,47.9122,-83.90502,47,9,1,83,9,0,17-2830-53096,Prairie,Bee,17-2830-53096 Prairie Bee ,FALSE,4, 
16-6398-54390,Shekak ,49.09008,-85.08496,49,0,9,85,0,8,16-6398-54390,Shekak,,16-6398-54390 Shekak ,TRUE,3,
16-7128-53305,Shikwamkwa ,48.09424,-84.14241,48,0,9,84,1,4,16-7128-53305,Shikwamkwa,,16-7128-53305 Shikwamkwa ,TRUE,3,
17-2866-53707,South Greenhill ,48.45508,-83.88685,48,4,5,83,8,8,17-2866-53707,South,Greenhill,17-2866-53707 South Greenhill ,FALSE,4, 
16-6497-54012,Strickland ,48.74758,-84.96384,48,7,4,84,9,6,16-6497-54012,Strickland,,16-6497-54012 Strickland ,TRUE,3,
16-7122-53960,Tatnall ,48.67829,-84.11808,48,6,7,84,1,1,16-7122-53960,Tatnall,,16-7122-53960 Tatnall ,TRUE,3,
16-6348-54346,Tocheri ,49.05147,-85.15469,49,0,5,85,1,5,16-6348-54346,Tocheri,,16-6348-54346 Tocheri ,TRUE,3,
16-7050-53715,Wabatongushi ,48.46364,-84.23041,48,4,6,84,2,3,16-7050-53715,Wabatongushi,,16-7050-53715 Wabatongushi ,TRUE,3,
16-6699-53200,Wawa ,48.01285,-84.72161,48,0,1,84,7,2,16-6699-53200,Wawa,,16-6699-53200 Wawa ,TRUE,3,
16-6450-53469,West Kabenung ,48.2603,-85.04903,48,2,6,85,0,4,16-6450-53469,West,Kabenung,16-6450-53469 West Kabenung ,FALSE,4, 
16-6003-54025,White ,48.78835,-85.61725,48,7,8,85,6,1,16-6003-54025,White,,16-6003-54025 White ,TRUE,3,
16-6053-54810,White Otter ,49.4723,-85.54923,49,4,7,85,5,4,16-6053-54810,White,Otter,16-6053-54810 White Otter ,FALSE,4, 
16-6898-53236,Whitefish ,48.00938,-84.47039,48,0,0,84,4,7,16-6898-53236,Whitefish,,16-6898-53236 Whitefish ,TRUE,3,
17-2934-53143,Windermere ,47.94905,-83.77195,47,9,4,83,7,7,17-2934-53143,Windermere,,17-2934-53143 Windermere ,TRUE,3,
17-2837-53860,Woodosgoon ,48.5914,-83.9328,48,5,9,83,9,3,17-2837-53860,Woodosgoon,,17-2837-53860 Woodosgoon ,TRUE,3,
17-5694-55282,NA,49.90421,-80.03334,49,9,0,80,0,3,17-5694-55282,"NA",NA,17-5694-55282 NA,FALSE,2,
17-5851-53899,Abitibi,48.65805,-79.84475,48,6,5,79,8,4,17-5851-53899,Abitibi,NA,17-5851-53899 Abitibi,FALSE,2,
17-5396-53477,Arthur ,48.27894,-80.45989,48,2,7,80,4,5,17-5396-53477,Arthur,,17-5396-53477 Arthur ,TRUE,3,
17-4999-52930,Banner ,47.79376,-81.00072,47,7,9,81,0,0,17-4999-52930,Banner,,17-4999-52930 Banner ,TRUE,3,
17-5069-53845,Barbers Bay,48.61535,-80.90675,48,6,1,80,9,0,17-5069-53845,Barbers,Bay,17-5069-53845 Barbers Bay,TRUE,3,
17-3210-54534,Big Pike ,49.20875,-83.45615,49,2,0,83,4,5,17-3210-54534,Big,Pike,17-3210-54534 Big Pike ,FALSE,4, 
17-5532-55906,Bodell ,50.46041,-80.25484,50,4,6,80,2,5,17-5532-55906,Bodell,,17-5532-55906 Bodell ,TRUE,3,
17-3280-52990,Borden ,47.82327,-83.29694,47,8,2,83,2,9,17-3280-52990,Borden,,17-3280-52990 Borden ,TRUE,3,
17-4361-52919,Brady ,47.77998,-81.85182,47,7,7,81,8,5,17-4361-52919,Brady,,17-4361-52919 Brady ,TRUE,3,
17-3275-54280,Brunswick ,48.98722,-83.38942,48,9,8,83,3,8,17-3275-54280,Brunswick,,17-3275-54280 Brunswick ,TRUE,3,
17-5735-54944,Burntbush ,49.59998,-79.98141,49,5,9,79,9,8,17-5735-54944,Burntbush,,17-5735-54944 Burntbush ,TRUE,3,
17-4160-52704,Camp ,47.58799,-82.10443,47,5,8,82,1,0,17-4160-52704,Camp,,17-4160-52704 Camp ,TRUE,3,
17-3736-53361,Carty ,48.16538,-82.70049,48,1,6,82,7,0,17-3736-53361,Carty,,17-3736-53361 Carty ,TRUE,3,
17-5892-54928,Chabbie ,49.58721,-79.76654,49,5,8,79,7,6,17-5892-54928,Chabbie,,17-5892-54928 Chabbie ,TRUE,3,
17-3714-52934,Cree ,47.77507,-82.70472,47,7,7,82,7,0,17-3714-52934,Cree,,17-3714-52934 Cree ,TRUE,3,
17-3670-52999,Denyes ,47.84019,-82.78009,47,8,4,82,7,8,17-3670-52999,Denyes,,17-3670-52999 Denyes ,TRUE,3,
17-4935-53022,Dumbell ,47.87667,-81.08547,47,8,7,81,0,8,17-4935-53022,Dumbell,,17-4935-53022 Dumbell ,TRUE,3,
17-5026-52889,Duncan ,47.76275,-80.95455,47,7,6,80,9,5,17-5026-52889,Duncan,,17-5026-52889 Duncan ,TRUE,3,
17-5439-55794,Edgar ,50.35625,-80.37828,50,3,5,80,3,7,17-5439-55794,Edgar,,17-5439-55794 Edgar ,TRUE,3,
17-5975-55652,Favell ,50.21996,-79.6307,50,2,1,79,6,3,17-5975-55652,Favell,,17-5975-55652 Favell ,TRUE,3,
17-4339-53837,Fortune ,48.6048,-81.89708,48,6,0,81,8,9,17-4339-53837,Fortune,,17-4339-53837 Fortune ,TRUE,3,
17-5046-53895,Frederick House ,48.66063,-80.93786,48,6,6,80,9,3,17-5046-53895,Frederick,House,17-5046-53895 Frederick House ,FALSE,4, 
17-4126-52908,Genoa ,47.77029,-82.16715,47,7,7,82,1,6,17-4126-52908,Genoa,,17-4126-52908 Genoa ,TRUE,3,
17-4019-55121,Guilfoyle ,49.75797,-82.36108,49,7,5,82,3,6,17-4019-55121,Guilfoyle,,17-4019-55121 Guilfoyle ,TRUE,3,
17-3820-53229,Gullystone ,48.03903,-82.57618,48,0,3,82,5,7,17-3820-53229,Gullystone,,17-3820-53229 Gullystone ,TRUE,3,
17-4850-53031,Halliday ,47.87639,-81.20262,47,8,7,81,2,0,17-4850-53031,Halliday,,17-4850-53031 Halliday ,TRUE,3,
17-3804-53044,Hanson ,47.87806,-82.59691,47,8,7,82,5,9,17-3804-53044,Hanson,,17-3804-53044 Hanson ,TRUE,3,
17-4140-53137,Hardiman ,47.97112,-82.14951,47,9,7,82,1,4,17-4140-53137,Hardiman,,17-4140-53137 Hardiman ,TRUE,3,
17-5128-54930,Harris ,49.59089,-80.82037,49,5,9,80,8,2,17-5128-54930,Harris,,17-5128-54930 Harris ,TRUE,3,
17-5240-53148,Hawley ,47.98793,-80.67798,47,9,8,80,6,7,17-5240-53148,Hawley,,17-5240-53148 Hawley ,TRUE,3,
17-3644-55310,Hillmer ,49.91811,-82.88897,49,9,1,82,8,8,17-3644-55310,Hillmer,,17-3644-55310 Hillmer ,TRUE,3,
17-5372-53175,Holmes ,48.01432,-80.50166,48,0,1,80,5,0,17-5372-53175,Holmes,,17-5372-53175 Holmes ,TRUE,3,
17-4010-53144,Horwood ,47.96766,-82.32184,47,9,6,82,3,2,17-4010-53144,Horwood,,17-4010-53144 Horwood ,TRUE,3,
17-5202-54735,Humestone ,49.41618,-80.71877,49,4,1,80,7,1,17-5202-54735,Humestone,,17-5202-54735 Humestone ,TRUE,3,
17-4553-53202,Indian ,48.03561,-81.60093,48,0,3,81,6,0,17-4553-53202,Indian,,17-4553-53202 Indian ,TRUE,3,
17-3788-53266,Ivanhoe ,48.08286,-82.62678,48,0,8,82,6,2,17-3788-53266,Ivanhoe,,17-3788-53266 Ivanhoe ,TRUE,3,
17-4464-53580,Jowsey ,48.3748,-81.72373,48,3,7,81,7,2,17-4464-53580,Jowsey,,17-4464-53580 Jowsey ,TRUE,3,
17-4533-53793,Kamiskotia ,48.56979,-81.63192,48,5,6,81,6,3,17-4533-53793,Kamiskotia,,17-4533-53793 Kamiskotia ,TRUE,3,
17-4714-53134,Kapiskong ,47.97534,-81.3826,47,9,7,81,3,8,17-4714-53134,Kapiskong,,17-4714-53134 Kapiskong ,TRUE,3,
17-3563-53717,Kapuskasing ,48.4837,-82.94457,48,4,8,82,9,4,17-3563-53717,Kapuskasing,,17-3563-53717 Kapuskasing ,TRUE,3,
17-4271-53064,Katagi ,47.90867,-81.96916,47,9,0,81,9,6,17-4271-53064,Katagi,,17-4271-53064 Katagi ,TRUE,3,
17-4591-53367,Kenogamissi ,48.24057,-81.52985,48,2,4,81,5,2,17-4591-53367,Kenogamissi,,17-4591-53367 Kenogamissi ,TRUE,3,
17-5547-55801,Kesagami ,50.32589,-80.24009,50,3,2,80,2,4,17-5547-55801,Kesagami,,17-5547-55801 Kesagami ,TRUE,3,
17-4322-53002,Ketchini ,47.85039,-81.90726,47,8,5,81,9,0,17-4322-53002,Ketchini,,17-4322-53002 Ketchini ,TRUE,3,
17-4972-55128,NA,49.77105,-81.03836,49,7,7,81,0,3,17-4972-55128,"NA",NA,17-4972-55128 NA,FALSE,2,
17-6102-53431,Labyrinth ,48.22945,-79.52172,48,2,2,79,5,2,17-6102-53431,Labyrinth,,17-6102-53431 Labyrinth ,TRUE,3,
17-6010-53265,Larder ,48.08541,-79.64223,48,0,8,79,6,4,17-6010-53265,Larder,,17-6010-53265 Larder ,TRUE,3,
17-5662-55201,Lawagamau ,49.83328,-80.07989,49,8,3,80,0,7,17-5662-55201,Lawagamau,,17-5662-55201 Lawagamau ,TRUE,3,
17-3638-52899,Lee ,47.75028,-82.82397,47,7,5,82,8,2,17-3638-52899,Lee,,17-3638-52899 Lee ,TRUE,3,
17-4572-54649,NA,49.33749,-81.58852,49,3,3,81,5,8,17-4572-54649,"NA",NA,17-4572-54649 NA,FALSE,2,
17-5331-54730,Little Abitibi ,49.4068,-80.54886,49,4,0,80,5,4,17-5331-54730,Little,Abitibi,17-5331-54730 Little Abitibi ,FALSE,4, 
17-5521-55108,Little Kesagami ,49.74674,-80.27486,49,7,4,80,2,7,17-5521-55108,Little,Kesagami,17-5521-55108 Little Kesagami ,FALSE,4, 
17-3730-53082,Little Ridley ,47.90407,-82.69446,47,9,0,82,6,9,17-3730-53082,Little,Ridley,17-3730-53082 Little Ridley ,FALSE,4, 
17-5004-53007,Lloyd ,47.85644,-81.0022,47,8,5,81,0,0,17-5004-53007,Lloyd,,17-5004-53007 Lloyd ,TRUE,3,
17-2953-54198,Lower Minnipuka ,48.8965,-83.79523,48,8,9,83,7,9,17-2953-54198,Lower,Minnipuka,17-2953-54198 Lower Minnipuka ,FALSE,4, 
17-3735-54954,Lyons ,49.60063,-82.7381,49,6,0,82,7,3,17-3735-54954,Lyons,,17-3735-54954 Lyons ,TRUE,3,
17-4372-52874,Makami ,47.73095,-81.84357,47,7,3,81,8,4,17-4372-52874,Makami,,17-4372-52874 Makami ,TRUE,3,
17-5271-54228,Maloney ,48.9598,-80.6298,48,9,5,80,6,2,17-5271-54228,Maloney,,17-5271-54228 Maloney ,TRUE,3,
17-4580-52980,Mattagami ,47.82548,-81.54069,47,8,2,81,5,4,17-4580-52980,Mattagami,,17-4580-52980 Mattagami ,TRUE,3,
17-3342-52966,McNaught ,47.80341,-83.21843,47,8,0,83,2,1,17-3342-52966,McNaught,,17-3342-52966 McNaught ,TRUE,3,
17-4340-52773,Mesomikenda ,47.64812,-81.87872,47,6,4,81,8,7,17-4340-52773,Mesomikenda,,17-4340-52773 Mesomikenda ,TRUE,3,
17-5234-53429,Michie ,48.24121,-80.68504,48,2,4,80,6,8,17-5234-53429,Michie,,17-5234-53429 Michie ,TRUE,3,
17-5208-52783,Miller ,47.66053,-80.72389,47,6,6,80,7,2,17-5208-52783,Miller,,17-5208-52783 Miller ,TRUE,3,
17-5196-53085,Mistinikon ,47.96607,-80.73921,47,9,6,80,7,3,17-5196-53085,Mistinikon,,17-5196-53085 Mistinikon ,TRUE,3,
17-5149-54886,Montreuil ,49.55267,-80.79031,49,5,5,80,7,9,17-5149-54886,Montreuil,,17-5149-54886 Montreuil ,TRUE,3,
17-4135-55308,Mowbray ,49.92544,-82.20465,49,9,2,82,2,0,17-4135-55308,Mowbray,,17-4135-55308 Mowbray ,TRUE,3,
17-4773-53267,Muskasenda ,48.09035,-81.30665,48,0,9,81,3,0,17-4773-53267,Muskasenda,,17-4773-53267 Muskasenda ,TRUE,3,
17-5325-55608,Natogami ,50.20248,-80.54211,50,2,0,80,5,4,17-5325-55608,Natogami,,17-5325-55608 Natogami ,TRUE,3,
17-3426-53189,Nemegosenda ,48.0062,-83.11013,48,0,0,83,1,1,17-3426-53189,Nemegosenda,,17-3426-53189 Nemegosenda ,TRUE,3,
17-5018-53686,Night Hawk ,48.45682,-80.98027,48,4,5,80,9,8,17-5018-53686,Night,Hawk,17-5018-53686 Night Hawk ,FALSE,4, 
17-4697-53049,Nursey ,47.89868,-81.40566,47,8,9,81,4,0,17-4697-53049,Nursey,,17-4697-53049 Nursey ,TRUE,3,
17-4357-54206,Oke ,48.9373,-81.87845,48,9,3,81,8,7,17-4357-54206,Oke,,17-4357-54206 Oke ,TRUE,3,
17-3441-54377,Opasatika ,49.06794,-83.13713,49,0,6,83,1,3,17-3441-54377,Opasatika,,17-3441-54377 Opasatika ,TRUE,3,
17-4061-52742,Opeepeesway ,47.62743,-82.23317,47,6,2,82,2,3,17-4061-52742,Opeepeesway,,17-4061-52742 Opeepeesway ,TRUE,3,
17-5952-55578,Parson ,50.17544,-79.67496,50,1,7,79,6,7,17-5952-55578,Parson,,17-5952-55578 Parson ,TRUE,3,
17-5604-55832,Patawagamau ,50.39524,-80.14937,50,3,9,80,1,4,17-5604-55832,Patawagamau,,17-5604-55832 Patawagamau ,TRUE,3,
17-4025-55006,Pearce ,49.65181,-82.35069,49,6,5,82,3,5,17-4025-55006,Pearce,,17-4025-55006 Pearce ,TRUE,3,
17-4217-52855,Pebonishewi ,47.7183,-82.04392,47,7,1,82,0,4,17-4217-52855,Pebonishewi,,17-4217-52855 Pebonishewi ,TRUE,3,
17-4967-54108,Pickerel ,48.8523,-81.04454,48,8,5,81,0,4,17-4967-54108,Pickerel,,17-4967-54108 Pickerel ,TRUE,3,
17-5206-54832,Pierre ,49.50777,-80.71202,49,5,0,80,7,1,17-5206-54832,Pierre,,17-5206-54832 Pierre ,TRUE,3,
17-5416-55645,Piyagoskogau ,50.23921,-80.41161,50,2,3,80,4,1,17-5416-55645,Piyagoskogau,,17-5416-55645 Piyagoskogau ,TRUE,3,
17-5000-54254,Pool ,48.98506,-80.9908,48,9,8,80,9,9,17-5000-54254,Pool,,17-5000-54254 Pool ,TRUE,3,
17-6036-54931,Poulos ,49.57521,-79.57016,49,5,7,79,5,7,17-6036-54931,Poulos,,17-6036-54931 Poulos ,TRUE,3,
17-5180-53389,Radisson ,48.21258,-80.75526,48,2,1,80,7,5,17-5180-53389,Radisson,,17-5180-53389 Radisson ,TRUE,3,
17-6079-53230,Raven ,48.05196,-79.55023,48,0,5,79,5,5,17-6079-53230,Raven,,17-6079-53230 Raven ,TRUE,3,
17-4164-54756,Remi ,49.42346,-82.17586,49,4,2,82,1,7,17-4164-54756,Remi,,17-4164-54756 Remi ,TRUE,3,
17-4239-52944,Resound ,47.789,-82.01482,47,7,8,82,0,1,17-4239-52944,Resound,,17-4239-52944 Resound ,TRUE,3,
17-4430-54264,Return ,48.98952,-81.77873,48,9,8,81,7,7,17-4430-54264,Return,,17-4430-54264 Return ,TRUE,3,
17-4148-52820,Rice ,47.70129,-82.1231,47,7,0,82,1,2,17-4148-52820,Rice,,17-4148-52820 Rice ,TRUE,3,
17-3767-53044,Rollo ,47.88286,-82.64873,47,8,8,82,6,4,17-3767-53044,Rollo,,17-3767-53044 Rollo ,TRUE,3,
17-5717-53183,Round ,48.01448,-80.0419,48,0,1,80,0,4,17-5717-53183,Round,,17-5717-53183 Round ,TRUE,3,
17-4104-52936,Rush ,47.79333,-82.19307,47,7,9,82,1,9,17-4104-52936,Rush,,17-4104-52936 Rush ,TRUE,3,
17-3846-54330,Saganash ,49.05064,-82.58198,49,0,5,82,5,8,17-3846-54330,Saganash,,17-3846-54330 Saganash ,TRUE,3,
17-5208-55103,NA,49.74688,-80.71109,49,7,4,80,7,1,17-5208-55103,"NA",NA,17-5208-55103 NA,FALSE,2,
17-4776-53163,Semple ,48.00111,-81.29998,48,0,0,81,2,9,17-4776-53163,Semple,,17-4776-53163 Semple ,TRUE,3,
17-3789-53526,Shawmere ,48.30137,-82.64391,48,3,0,82,6,4,17-3789-53526,Shawmere,,17-3789-53526 Shawmere ,TRUE,3,
17-5265-52901,Shillington ,47.76767,-80.64678,47,7,6,80,6,4,17-5265-52901,Shillington,,17-5265-52901 Shillington ,TRUE,3,
17-5247-53013,Sisseney ,47.86371,-80.66658,47,8,6,80,6,6,17-5247-53013,Sisseney,,17-5247-53013 Sisseney ,TRUE,3,
17-5646-54725,Snare ,49.40549,-80.10818,49,4,0,80,1,0,17-5646-54725,Snare,,17-5646-54725 Snare ,TRUE,3,
17-5962-53128,St. Anthony ,47.96541,-79.71119,47,9,6,79,7,1,17-5962-53128,St.,Anthony,17-5962-53128 St. Anthony ,FALSE,4, 
17-4558-52975,Stetham ,47.83174,-81.58983,47,8,3,81,5,8,17-4558-52975,Stetham,,17-4558-52975 Stetham ,TRUE,3,
17-5088-55586,Stringer ,50.18024,-80.87746,50,1,8,80,8,7,17-5088-55586,Stringer,,17-5088-55586 Stringer ,TRUE,3,
17-3844-53694,NA,48.46914,-82.56376,48,4,6,82,5,6,17-3844-53694,"NA",NA,17-3844-53694 NA,FALSE,2,
17-4323-52646,Three Duck s,47.54316,-81.90604,47,5,4,81,9,0,17-4323-52646,Three,Duck,17-4323-52646 Three Duck s,FALSE,4, s
17-3609-52882,NA,47.73454,-82.85545,47,7,3,82,8,5,17-3609-52882,"NA",NA,17-3609-52882 NA,FALSE,2,
17-5829-53372,Victoria ,48.18883,-79.88236,48,1,8,79,8,8,17-5829-53372,Victoria,,17-5829-53372 Victoria ,TRUE,3,
17-5590-54756,Wasicho ,49.43254,-80.1837,49,4,3,80,1,8,17-5590-54756,Wasicho,,17-5590-54756 Wasicho ,TRUE,3,
17-5314-53425,Watabeag ,48.24705,-80.55577,48,2,4,80,5,5,17-5314-53425,Watabeag,,17-5314-53425 Watabeag ,TRUE,3,
17-4169-55743,Wawa s,50.31715,-82.14715,50,3,1,82,1,4,17-4169-55743,Wawa,s,17-4169-55743 Wawa s,TRUE,3,
17-3790-55066,Zadi ,49.70011,-82.6798,49,7,0,82,6,7,17-3790-55066,Zadi,,17-3790-55066 Zadi ,TRUE,3,
16-7134-51997,Achigan ,46.91679,-84.19601,46,9,1,84,1,9,16-7134-51997,Achigan,,16-7134-51997 Achigan ,TRUE,3,
16-7046-52151,Adelaide ,47.05965,-84.31112,47,0,5,84,3,1,16-7046-52151,Adelaide,,16-7046-52151 Adelaide ,TRUE,3,
17-4414-51336,Agnew ,46.36526,-81.75464,46,3,6,81,7,5,17-4414-51336,Agnew,,17-4414-51336 Agnew ,TRUE,3,
17-3812-51598,Alexander ,46.58727,-82.54121,46,5,8,82,5,4,17-3812-51598,Alexander,,17-3812-51598 Alexander ,TRUE,3,
16-6809-53004,Anjigami ,47.851,-84.58297,47,8,5,84,5,8,16-6809-53004,Anjigami,,16-6809-53004 Anjigami ,TRUE,3,
17-3094-52159,Anvil ,47.07089,-83.51018,47,0,7,83,5,1,17-3094-52159,Anvil,,17-3094-52159 Anvil ,TRUE,3,
17-4396-51182,Apsey ,46.21762,-81.76881,46,2,1,81,7,6,17-4396-51182,Apsey,,17-4396-51182 Apsey ,TRUE,3,
17-3582-51582,Astonish ,46.56531,-82.85482,46,5,6,82,8,5,17-3582-51582,Astonish,,17-3582-51582 Astonish ,TRUE,3,
17-3340-51953,Aubrey ,46.90546,-83.18616,46,9,0,83,1,8,17-3340-51953,Aubrey,,17-3340-51953 Aubrey ,TRUE,3,
17-4823-52210,Avery ,47.14395,-81.23287,47,1,4,81,2,3,17-4823-52210,Avery,,17-4823-52210 Avery ,TRUE,3,
17-3874-51976,Bark ,46.91066,-82.46795,46,9,1,82,4,6,17-3874-51976,Bark,,17-3874-51976 Bark ,TRUE,3,
17-4263-50813,Bass ,45.89079,-81.94665,45,8,9,81,9,4,17-4263-50813,Bass,,17-4263-50813 Bass ,TRUE,3,
17-3164-51328,Basswood ,46.33314,-83.39658,46,3,3,83,3,9,17-3164-51328,Basswood,,17-3164-51328 Basswood ,TRUE,3,
17-3525-51431,Bay ,46.42728,-82.9196,46,4,2,82,9,1,17-3525-51431,Bay,,17-3525-51431 Bay ,TRUE,3,
17-3370-52303,Beak ,47.21363,-83.14591,47,2,1,83,1,4,17-3370-52303,Beak,,17-3370-52303 Beak ,TRUE,3,
17-4652-51149,Bear ,46.18806,-81.44897,46,1,8,81,4,4,17-4652-51149,Bear,,17-4652-51149 Bear ,TRUE,3,
16-6975-52452,NA,47.33267,-84.38602,47,3,3,84,3,8,16-6975-52452,"NA",NA,16-6975-52452 NA,FALSE,2,
17-4157-50648,Big ,45.73669,-82.08832,45,7,3,82,0,8,17-4157-50648,Big,,17-4157-50648 Big ,TRUE,3,
17-3557-51418,Big Moon ,46.41782,-82.87769,46,4,1,82,8,7,17-3557-51418,Big,Moon,17-3557-51418 Big Moon ,FALSE,4, 
17-4936-51883,Bigwood ,46.84458,-81.09413,46,8,4,81,0,9,17-4936-51883,Bigwood,,17-4936-51883 Bigwood ,TRUE,3,
17-4182-52388,Biscotasi ,47.29951,-82.08179,47,2,9,82,0,8,17-4182-52388,Biscotasi,,17-4182-52388 Biscotasi ,TRUE,3,
16-7223-51585,Boss ,46.54506,-84.10111,46,5,4,84,1,0,16-7223-51585,Boss,,16-7223-51585 Boss ,TRUE,3,
17-3914-51928,Boumage ,46.87978,-82.42729,46,8,7,82,4,2,17-3914-51928,Boumage,,17-3914-51928 Boumage ,TRUE,3,
17-3228-51260,Bright ,46.26885,-83.30474,46,2,6,83,3,0,17-3228-51260,Bright,,17-3228-51260 Bright ,TRUE,3,
17-5038-51346,Brodill ,46.37408,-80.94251,46,3,7,80,9,4,17-5038-51346,Brodill,,17-5038-51346 Brodill ,TRUE,3,
17-2807-52072,Buck ,46.98422,-83.8841,46,9,8,83,8,8,17-2807-52072,Buck,,17-2807-52072 Buck ,TRUE,3,
16-6572-52693,Buckshot ,47.55979,-84.91051,47,5,5,84,9,1,16-6572-52693,Buckshot,,16-6572-52693 Buckshot ,TRUE,3,
17-2822-52479,Caesar ,47.35505,-83.8853,47,3,5,83,8,8,17-2822-52479,Caesar,,17-2822-52479 Caesar ,TRUE,3,
16-6867-52661,Callahan ,47.5234,-84.51967,47,5,2,84,5,1,16-6867-52661,Callahan,,16-6867-52661 Callahan ,TRUE,3,
17-5312-52592,Carmen ,47.48696,-80.58688,47,4,8,80,5,8,17-5312-52592,Carmen,,17-5312-52592 Carmen ,TRUE,3,
17-3323-51600,Castra ,46.57422,-83.18879,46,5,7,83,1,8,17-3323-51600,Castra,,17-3323-51600 Castra ,TRUE,3,
17-5229-51902,Caswell ,46.86244,-80.70741,46,8,6,80,7,0,17-5229-51902,Caswell,,17-5229-51902 Caswell ,TRUE,3,
17-3457-51246,Cataract ,46.25956,-83.00214,46,2,5,83,0,0,17-3457-51246,Cataract,,17-3457-51246 Cataract ,TRUE,3,
17-3423-51340,Chiblow ,46.3472,-83.05073,46,3,4,83,0,5,17-3423-51340,Chiblow,,17-3423-51340 Chiblow ,TRUE,3,
17-5240-51985,Chiniguchi ,46.93198,-80.68185,46,9,3,80,6,8,17-5240-51985,Chiniguchi,,17-5240-51985 Chiniguchi ,TRUE,3,
17-4919-52573,Chrysler ,47.47118,-81.10758,47,4,7,81,1,0,17-4919-52573,Chrysler,,17-4919-52573 Chrysler ,TRUE,3,
17-3172-51540,Chub ,46.51091,-83.38389,46,5,1,83,3,8,17-3172-51540,Chub,,17-3172-51540 Chub ,TRUE,3,
17-3627-51660,Cobre ,46.63533,-82.79405,46,6,3,82,7,9,17-3627-51660,Cobre,,17-3627-51660 Cobre ,TRUE,3,
17-3290-51439,Constance ,46.42866,-83.22546,46,4,2,83,2,2,17-3290-51439,Constance,,17-3290-51439 Constance ,TRUE,3,
16-7208-51720,Crooked s,46.6696,-84.11358,46,6,6,84,1,1,16-7208-51720,Crooked,s,16-7208-51720 Crooked s,TRUE,3,
17-3191-51490,Cumming's ,46.472,-83.35656,46,4,7,83,3,5,17-3191-51490,Cumming's,,17-3191-51490 Cumming's ,TRUE,3,
17-3101-51746,Curve ,46.70765,-83.48311,46,7,0,83,4,8,17-3101-51746,Curve,,17-3101-51746 Curve ,TRUE,3,
17-3979-51651,Dave ,46.64081,-82.34239,46,6,4,82,3,4,17-3979-51651,Dave,,17-3979-51651 Dave ,TRUE,3,
17-4313-51958,Dennie ,46.91451,-81.90151,46,9,1,81,9,0,17-4313-51958,Dennie,,17-4313-51958 Dennie ,TRUE,3,
17-3903-51589,Deschamp ,46.57699,-82.43105,46,5,7,82,4,3,17-3903-51589,Deschamp,,17-3903-51589 Deschamp ,TRUE,3,
17-2752-51845,Devil's ,46.77811,-83.94464,46,7,7,83,9,4,17-2752-51845,Devil's,,17-2752-51845 Devil's ,TRUE,3,
16-7004-52204,Dick ,47.10866,-84.358,47,1,0,84,3,5,16-7004-52204,Dick,,16-7004-52204 Dick ,TRUE,3,
17-3450-51565,Dobie ,46.54588,-83.02212,46,5,4,83,0,2,17-3450-51565,Dobie,,17-3450-51565 Dobie ,TRUE,3,
17-3453-51907,NA,46.85428,-83.03,46,8,5,83,0,3,17-3453-51907,"NA",NA,17-3453-51907 NA,FALSE,2,
17-5370-51830,Donald ,46.79829,-80.51028,46,7,9,80,5,1,17-5370-51830,Donald,,17-5370-51830 Donald ,TRUE,3,
17-3053-52211,Dunkerley ,47.11642,-83.56414,47,1,1,83,5,6,17-3053-52211,Dunkerley,,17-3053-52211 Dunkerley ,TRUE,3,
17-3432-51760,Duval ,46.72117,-83.05211,46,7,2,83,0,5,17-3432-51760,Duval,,17-3432-51760 Duval ,TRUE,3,
16-6735-52992,Ear ,47.82228,-84.68512,47,8,2,84,6,8,16-6735-52992,Ear,,16-6735-52992 Ear ,TRUE,3,
17-4598-51271,Ella ,46.29967,-81.52069,46,2,9,81,5,2,17-4598-51271,Ella,,17-4598-51271 Ella ,TRUE,3,
17-3445-51613,Endikai ,46.59111,-83.03067,46,5,9,83,0,3,17-3445-51613,Endikai,,17-3445-51613 Endikai ,TRUE,3,
17-4672-51457,Fairbank ,46.46577,-81.42763,46,4,6,81,4,2,17-4672-51457,Fairbank,,17-4672-51457 Fairbank ,TRUE,3,
17-3634-51607,Flack ,46.58755,-82.78238,46,5,8,82,7,8,17-3634-51607,Flack,,17-3634-51607 Flack ,TRUE,3,
17-3354-52393,Flame ,47.28889,-83.17746,47,2,8,83,1,7,17-3354-52393,Flame,,17-3354-52393 Flame ,TRUE,3,
17-2792-52332,Galloway ,47.21974,-83.91641,47,2,1,83,9,1,17-2792-52332,Galloway,,17-2792-52332 Galloway ,TRUE,3,
16-6678-52804,Gamitagama ,47.65757,-84.76551,47,6,5,84,7,6,16-6678-52804,Gamitagama,,16-6678-52804 Gamitagama ,TRUE,3,
17-2933-51822,Garden ,46.76463,-83.70654,46,7,6,83,7,0,17-2933-51822,Garden,,17-2933-51822 Garden ,TRUE,3,
16-7267-52208,Gavor ,47.10214,-84.01306,47,1,0,84,0,1,16-7267-52208,Gavor,,16-7267-52208 Gavor ,TRUE,3,
17-3860-51538,Geiger ,46.53217,-82.4864,46,5,3,82,4,8,17-3860-51538,Geiger,,17-3860-51538 Geiger ,TRUE,3,
17-3074-52158,Gong ,47.07006,-83.53602,47,0,7,83,5,3,17-3074-52158,Gong,,17-3074-52158 Gong ,TRUE,3,
17-4246-51279,Birch ,46.30414,-81.97448,46,3,0,81,9,7,17-4246-51279,Birch,,17-4246-51279 Birch ,TRUE,3,
17-2975-52266,Goulais ,47.16373,-83.67077,47,1,6,83,6,7,17-2975-52266,Goulais,,17-2975-52266 Goulais ,TRUE,3,
17-2862-52249,Graham ,47.1448,-83.81865,47,1,4,83,8,1,17-2862-52249,Graham,,17-2862-52249 Graham ,TRUE,3,
17-3856-51190,Grassy ,46.21392,-82.48552,46,2,1,82,4,8,17-3856-51190,Grassy,,17-3856-51190 Grassy ,TRUE,3,
17-4723-51114,Great Mountain ,46.158,-81.35883,46,1,5,81,3,5,17-4723-51114,Great,Mountain,17-4723-51114 Great Mountain ,FALSE,4, 
17-4614-51736,Green ,46.71921,-81.50584,46,7,1,81,5,0,17-4614-51736,Green,,17-4614-51736 Green ,TRUE,3,
16-6971-52177,Griffin ,47.08604,-84.40354,47,0,8,84,4,0,16-6971-52177,Griffin,,16-6971-52177 Griffin ,TRUE,3,
17-3006-52333,Gull ,47.22479,-83.63434,47,2,2,83,6,3,17-3006-52333,Gull,,17-3006-52333 Gull ,TRUE,3,
17-2809-52215,Hanes ,47.11457,-83.88482,47,1,1,83,8,8,17-2809-52215,Hanes,,17-2809-52215 Hanes ,TRUE,3,
17-4925-52070,Helen ,47.01777,-81.0952,47,0,1,81,0,9,17-4925-52070,Helen,,17-4925-52070 Helen ,TRUE,3,
17-3927-50818,Ice ,45.88138,-82.3895,45,8,8,82,3,8,17-3927-50818,Ice,,17-3927-50818 Ice ,TRUE,3,
17-4145-52197,Indian ,47.12966,-82.1271,47,1,2,82,1,2,17-4145-52197,Indian,,17-4145-52197 Indian ,TRUE,3,
17-2748-51543,Iron ,46.50559,-83.93295,46,5,0,83,9,3,17-2748-51543,Iron,,17-2748-51543 Iron ,TRUE,3,
17-5310-52621,Island ,47.51388,-80.5893,47,5,1,80,5,8,17-5310-52621,Island,,17-5310-52621 Island ,TRUE,3,
17-4991-51755,Joe ,46.73708,-81.01196,46,7,3,81,0,1,17-4991-51755,Joe,,17-4991-51755 Joe ,TRUE,3,
17-3986-50757,Kagawong,45.82922,-82.30542,45,8,2,82,3,0,17-3986-50757,Kagawong,NA,17-3986-50757 Kagawong,FALSE,2,
17-4702-52245,Kalaco ,47.17792,-81.39287,47,1,7,81,3,9,17-4702-52245,Kalaco,,17-4702-52245 Kalaco ,TRUE,3,
17-3400-51692,Kirkpatrick ,46.65714,-83.09401,46,6,5,83,0,9,17-3400-51692,Kirkpatrick,,17-3400-51692 Kirkpatrick ,TRUE,3,
17-4157-51611,Klondyke s,46.59388,-82.09527,46,5,9,82,0,9,17-4157-51611,Klondyke,s,17-4157-51611 Klondyke s,TRUE,3,
17-5344-51754,Kukagami ,46.73335,-80.55126,46,7,3,80,5,5,17-5344-51754,Kukagami,,17-5344-51754 Kukagami ,TRUE,3,
16-6823-52566,Kwagama ,47.44016,-84.58345,47,4,4,84,5,8,16-6823-52566,Kwagama,,16-6823-52566 Kwagama ,TRUE,3,
17-4169-51104,La Cloche ,46.135,-82.04774,46,1,3,82,0,4,17-4169-51104,La,Cloche,17-4169-51104 La Cloche ,FALSE,4, 
17-3228-51724,Lafoe ,46.69006,-83.31918,46,6,9,83,3,1,17-3228-51724,Lafoe,,17-3228-51724 Lafoe ,TRUE,3,
17-4485-51124,Lang ,46.16152,-81.66548,46,1,6,81,6,6,17-4485-51124,Lang,,17-4485-51124 Lang ,TRUE,3,
17-3592-51192,Lauzon ,46.21199,-82.82266,46,2,1,82,8,2,17-3592-51192,Lauzon,,17-3592-51192 Lauzon ,TRUE,3,
17-2739-51772,Leishman ,46.71227,-83.95743,46,7,1,83,9,5,17-2739-51772,Leishman,,17-2739-51772 Leishman ,TRUE,3,
17-4930-52197,Little Burwash ,47.13256,-81.09204,47,1,3,81,0,9,17-4930-52197,Little,Burwash,17-4930-52197 Little Burwash ,FALSE,4, 
17-3360-51357,Little Chiblow ,46.357,-83.13157,46,3,5,83,1,3,17-3360-51357,Little,Chiblow,17-3360-51357 Little Chiblow ,FALSE,4, 
16-6714-52922,Little Dossier ,47.76202,-84.71272,47,7,6,84,7,1,16-6714-52922,Little,Dossier,16-6714-52922 Little Dossier ,FALSE,4, 
17-4840-51983,NA,46.94007,-81.21003,46,9,4,81,2,1,17-4840-51983,"NA",NA,17-4840-51983 NA,FALSE,2,
17-2884-53030,Little Wawa ,47.84731,-83.82821,47,8,4,83,8,2,17-2884-53030,Little,Wawa,17-2884-53030 Little Wawa ,FALSE,4, 
16-7260-52296,Logan ,47.19047,-84.00983,47,1,9,84,0,0,16-7260-52296,Logan,,16-7260-52296 Logan ,TRUE,3,
17-3422-50829,Loon ,45.88295,-83.0372,45,8,8,83,0,3,17-3422-50829,Loon,,17-3422-50829 Loon ,TRUE,3,
17-5393-51873,Lower Matagamasi ,46.83882,-80.48435,46,8,3,80,4,8,17-5393-51873,Lower,Matagamasi,17-5393-51873 Lower Matagamasi ,FALSE,4, 
17-4529-52150,Lower Muldrew ,47.08843,-81.61974,47,0,8,81,6,1,17-4529-52150,Lower,Muldrew,17-4529-52150 Lower Muldrew ,FALSE,4, 
17-5184-52500,Lulu ,47.40481,-80.75706,47,4,0,80,7,5,17-5184-52500,Lulu,,17-5184-52500 Lulu ,TRUE,3,
16-6811-52113,Mamainse ,47.03048,-84.61844,47,0,3,84,6,1,16-6811-52113,Mamainse,,16-6811-52113 Mamainse ,TRUE,3,
17-4235-50696,Manitou,45.77755,-81.98346,45,7,7,81,9,8,17-4235-50696,Manitou,NA,17-4235-50696 Manitou,FALSE,2,
17-3525-51387,Matinenda ,46.37703,-82.95394,46,3,7,82,9,5,17-3525-51387,Matinenda,,17-3525-51387 Matinenda ,TRUE,3,
16-7153-52806,McEwen ,47.64612,-84.13189,47,6,4,84,1,3,16-7153-52806,McEwen,,16-7153-52806 McEwen ,TRUE,3,
17-3678-51289,McGiverin ,46.30329,-82.73474,46,3,0,82,7,3,17-3678-51289,McGiverin,,17-3678-51289 McGiverin ,TRUE,3,
17-3202-52877,McLennan ,47.72341,-83.39714,47,7,2,83,3,9,17-3202-52877,McLennan,,17-3202-52877 McLennan ,TRUE,3,
17-2851-51570,McMahon ,46.53421,-83.8027,46,5,3,83,8,0,17-2851-51570,McMahon,,17-2851-51570 McMahon ,TRUE,3,
17-3090-52347,Megisan ,47.24629,-83.52106,47,2,4,83,5,2,17-3090-52347,Megisan,,17-3090-52347 Megisan ,TRUE,3,
16-6718-52845,Mijinemungshing ,47.69125,-84.70487,47,6,9,84,7,0,16-6718-52845,Mijinemungshing,,16-6718-52845 Mijinemungshing ,TRUE,3,
17-4239-51999,Mile ,46.94294,-82.00621,46,9,4,82,0,0,17-4239-51999,Mile,,17-4239-51999 Mile ,TRUE,3,
17-4064-50680,Mindemoya ,45.76145,-82.20196,45,7,6,82,2,0,17-4064-50680,Mindemoya,,17-4064-50680 Mindemoya ,TRUE,3,
17-4564-51563,Ministic ,46.56112,-81.56769,46,5,6,81,5,6,17-4564-51563,Ministic,,17-4564-51563 Ministic ,TRUE,3,
17-4175-51987,Mozhabong ,46.95159,-82.08518,46,9,5,82,0,8,17-4175-51987,Mozhabong,,17-4175-51987 Mozhabong ,TRUE,3,
17-4928-51746,Nelson ,46.72762,-81.09533,46,7,2,81,0,9,17-4928-51746,Nelson,,17-4928-51746 Nelson ,TRUE,3,
17-3097-52494,Ninegee ,47.37231,-83.52071,47,3,7,83,5,2,17-3097-52494,Ninegee,,17-3097-52494 Ninegee ,TRUE,3,
17-4352-52392,Ninth ,47.30503,-81.85852,47,3,0,81,8,5,17-4352-52392,Ninth,,17-4352-52392 Ninth ,TRUE,3,
17-5179-52567,Okiniada ,47.46489,-80.76159,47,4,6,80,7,6,17-5179-52567,Okiniada,,17-5179-52567 Okiniada ,TRUE,3,
16-6710-52766,Old Woman ,47.62155,-84.72187,47,6,2,84,7,2,16-6710-52766,Old,Woman,16-6710-52766 Old Woman ,FALSE,4, 
17-4620-52125,Onaping ,47.13886,-81.52075,47,1,3,81,5,2,17-4620-52125,Onaping,,17-4620-52125 Onaping ,TRUE,3,
17-4728-52266,Oshawong ,47.19487,-81.36096,47,1,9,81,3,6,17-4728-52266,Oshawong,,17-4728-52266 Oshawong ,TRUE,3,
17-4743-51217,Panache,46.23782,-81.35711,46,2,3,81,3,5,17-4743-51217,Panache,NA,17-4743-51217 Panache,FALSE,2,
16-6663-52870,Peller ,47.71776,-84.77588,47,7,1,84,7,7,16-6663-52870,Peller,,16-6663-52870 Peller ,TRUE,3,
17-3091-51898,Penelope ,46.83672,-83.50296,46,8,3,83,5,0,17-3091-51898,Penelope,,17-3091-51898 Penelope ,TRUE,3,
17-4237-50795,Pike ,45.87456,-81.98559,45,8,7,81,9,8,17-4237-50795,Pike,,17-4237-50795 Pike ,TRUE,3,
17-4364-52017,Pogamasing ,46.96784,-81.83568,46,9,6,81,8,3,17-4364-52017,Pogamasing,,17-4364-52017 Pogamasing ,TRUE,3,
17-2857-52221,Point ,47.11663,-83.82459,47,1,1,83,8,2,17-2857-52221,Point,,17-2857-52221 Point ,TRUE,3,
17-3813-51443,Popeye ,46.44422,-82.54487,46,4,4,82,5,4,17-3813-51443,Popeye,,17-3813-51443 Popeye ,TRUE,3,
17-4902-52259,Prune ,47.18868,-81.12899,47,1,8,81,1,2,17-4902-52259,Prune,,17-4902-52259 Prune ,TRUE,3,
16-6806-52259,Queminico ,47.16395,-84.61718,47,1,6,84,6,1,16-6806-52259,Queminico,,16-6806-52259 Queminico ,TRUE,3,
17-2800-52265,Quinn ,47.16053,-83.89663,47,1,6,83,8,9,17-2800-52265,Quinn,,17-2800-52265 Quinn ,TRUE,3,
16-7098-52235,Quintet s,47.12774,-84.22743,47,1,2,84,2,2,16-7098-52235,Quintet,s,16-7098-52235 Quintet s,TRUE,3,
17-3810-51468,Quirke ,46.48519,-82.55613,46,4,8,82,5,5,17-3810-51468,Quirke,,17-3810-51468 Quirke ,TRUE,3,
16-6829-52763,Radium ,47.61506,-84.57498,47,6,1,84,5,7,16-6829-52763,Radium,,16-6829-52763 Radium ,TRUE,3,
17-3053-51969,Ranger ,46.90502,-83.56707,46,9,0,83,5,6,17-3053-51969,Ranger,,17-3053-51969 Ranger ,TRUE,3,
17-3764-51679,Rawhide ,46.65506,-82.61487,46,6,5,82,6,1,17-3764-51679,Rawhide,,17-3764-51679 Rawhide ,TRUE,3,
17-5330-51961,Rawson ,46.92006,-80.56675,46,9,2,80,5,6,17-5330-51961,Rawson,,17-5330-51961 Rawson ,TRUE,3,
17-2870-51459,Rock ,46.43338,-83.77218,46,4,3,83,7,7,17-2870-51459,Rock,,17-2870-51459 Rock ,TRUE,3,
17-3119-51894,Rock ,46.83794,-83.47612,46,8,3,83,4,7,17-3119-51894,Rock,,17-3119-51894 Rock ,TRUE,3,
17-4759-52050,Rome ,46.99809,-81.30837,46,9,9,81,3,0,17-4759-52050,Rome,,17-4759-52050 Rome ,TRUE,3,
17-3930-52114,Rose ,47.0495,-82.40792,47,0,4,82,4,0,17-3930-52114,Rose,,17-3930-52114 Rose ,TRUE,3,
17-3631-51330,Rossmere ,46.33895,-82.77877,46,3,3,82,7,7,17-3631-51330,Rossmere,,17-3631-51330 Rossmere ,TRUE,3,
17-4302-51759,Rushbrook ,46.73787,-81.91669,46,7,3,81,9,1,17-4302-51759,Rushbrook,,17-4302-51759 Rushbrook ,TRUE,3,
17-4329-51689,S ,46.67256,-81.87708,46,6,7,81,8,7,17-4329-51689,S,,17-4329-51689 S ,TRUE,3,
17-2880-52035,Saddle ,46.95281,-83.78813,46,9,5,83,7,8,17-2880-52035,Saddle,,17-2880-52035 Saddle ,TRUE,3,
16-6855-52885,Sand ,47.72534,-84.52605,47,7,2,84,5,2,16-6855-52885,Sand,,16-6855-52885 Sand ,TRUE,3,
17-3086-52062,Saymo ,46.98215,-83.51746,46,9,8,83,5,1,17-3086-52062,Saymo,,17-3086-52062 Saymo ,TRUE,3,
17-4713-52126,Scotia ,47.07183,-81.37676,47,0,7,81,3,7,17-4713-52126,Scotia,,17-4713-52126 Scotia ,TRUE,3,
17-5289-52606,Shack ,47.50515,-80.61946,47,5,0,80,6,1,17-5289-52606,Shack,,17-5289-52606 Shack ,TRUE,3,
17-3014-51622,Shelden ,46.58666,-83.59021,46,5,8,83,5,9,17-3014-51622,Shelden,,17-3014-51622 Shelden ,TRUE,3,
16-7100-51834,Sill ,46.77338,-84.24994,46,7,7,84,2,4,16-7100-51834,Sill,,16-7100-51834 Sill ,TRUE,3,
17-3532-50820,Silver ,45.87756,-82.89127,45,8,7,82,8,9,17-3532-50820,Silver,,17-3532-50820 Silver ,TRUE,3,
17-2881-51642,Smith ,46.59883,-83.76745,46,5,9,83,7,6,17-2881-51642,Smith,,17-2881-51642 Smith ,TRUE,3,
17-5182-52469,Smith ,47.37764,-80.75967,47,3,7,80,7,5,17-5182-52469,Smith,,17-5182-52469 Smith ,TRUE,3,
17-2976-52164,South Branch ,47.06961,-83.67101,47,0,6,83,6,7,17-2976-52164,South,Branch,17-2976-52164 South Branch ,FALSE,4, 
17-5338-52629,Southbear ,47.5213,-80.55067,47,5,2,80,5,5,17-5338-52629,Southbear,,17-5338-52629 Southbear ,TRUE,3,
17-3943-51700,Spinweb ,46.67548,-82.38285,46,6,7,82,3,8,17-3943-51700,Spinweb,,17-3943-51700 Spinweb ,TRUE,3,
17-4481-51168,Stratton ,46.2045,-81.67262,46,2,0,81,6,7,17-4481-51168,Stratton,,17-4481-51168 Stratton ,TRUE,3,
17-3849-51482,Teasdale ,46.4795,-82.49876,46,4,7,82,4,9,17-3849-51482,Teasdale,,17-3849-51482 Teasdale ,TRUE,3,
17-3629-51531,Ten Mile ,46.51978,-82.78766,46,5,1,82,7,8,17-3629-51531,Ten,Mile,17-3629-51531 Ten Mile ,FALSE,4, 
17-3874-50782,Tobacco ,45.85575,-82.44543,45,8,5,82,4,4,17-3874-50782,Tobacco,,17-3874-50782 Tobacco ,TRUE,3,
17-3716-51254,Turtle ,46.27189,-82.66444,46,2,7,82,6,6,17-3716-51254,Turtle,,17-3716-51254 Turtle ,TRUE,3,
16-6806-52194,Upper Pancake ,47.10561,-84.61995,47,1,0,84,6,1,16-6806-52194,Upper,Pancake,16-6806-52194 Upper Pancake ,FALSE,4, 
17-4810-51976,Venetian ,46.93902,-81.25157,46,9,3,81,2,5,17-4810-51976,Venetian,,17-4810-51976 Venetian ,TRUE,3,
17-4700-51520,Vermilion ,46.51845,-81.4009,46,5,1,81,4,0,17-4700-51520,Vermilion,,17-4700-51520 Vermilion ,TRUE,3,
16-6845-52653,Vesi ,47.52308,-84.55705,47,5,2,84,5,5,16-6845-52653,Vesi,,16-6845-52653 Vesi ,TRUE,3,
17-4549-51263,Wabagishik ,46.29283,-81.58644,46,2,9,81,5,8,17-4549-51263,Wabagishik,,17-4549-51263 Wabagishik ,TRUE,3,
16-6746-52826,Wabigoon ,47.67774,-84.67689,47,6,7,84,6,7,16-6746-52826,Wabigoon,,16-6746-52826 Wabigoon ,TRUE,3,
17-3606-52610,Wakami ,47.48206,-82.84313,47,4,8,82,8,4,17-3606-52610,Wakami,,17-3606-52610 Wakami ,TRUE,3,
17-3191-51595,Wakomata ,46.57189,-83.36057,46,5,7,83,3,6,17-3191-51595,Wakomata,,17-3191-51595 Wakomata ,TRUE,3,
17-4608-51161,Walker ,46.1992,-81.50973,46,1,9,81,5,0,17-4608-51161,Walker,,17-4608-51161 Walker ,TRUE,3,
17-5191-51772,Wanapitei ,46.71176,-80.7164,46,7,1,80,7,1,17-5191-51772,Wanapitei,,17-5191-51772 Wanapitei ,TRUE,3,
17-2880-52069,Ward ,46.98394,-83.78715,46,9,8,83,7,8,17-2880-52069,Ward,,17-2880-52069 Ward ,TRUE,3,
17-3563-52382,Wasasinka ,47.28823,-82.88849,47,2,8,82,8,8,17-3563-52382,Wasasinka,,17-3563-52382 Wasasinka ,TRUE,3,
17-2762-52221,Watson ,47.12079,-83.95753,47,1,2,83,9,5,17-2762-52221,Watson,,17-2762-52221 Watson ,TRUE,3,
16-7186-51904,Weckstrom ,46.82679,-84.15028,46,8,2,84,1,5,16-7186-51904,Weckstrom,,16-7186-51904 Weckstrom ,TRUE,3,
17-3416-52510,Wenebegon ,47.38611,-83.09145,47,3,8,83,0,9,17-3416-52510,Wenebegon,,17-3416-52510 Wenebegon ,TRUE,3,
17-3974-51436,Whiskey ,46.43411,-82.34418,46,4,3,82,3,4,17-3974-51436,Whiskey,,17-3974-51436 Whiskey ,TRUE,3,
17-5128-52363,White Pine ,47.28201,-80.83063,47,2,8,80,8,3,17-5128-52363,White,Pine,17-5128-52363 White Pine ,FALSE,4, 
17-4891-51531,Whitewater ,46.53339,-81.14176,46,5,3,81,1,4,17-4891-51531,Whitewater,,17-4891-51531 Whitewater ,TRUE,3,
17-4170-50611,Windfall ,45.7052,-82.06761,45,7,0,82,0,6,17-4170-50611,Windfall,,17-4170-50611 Windfall ,TRUE,3,
17-4664-51605,Windy ,46.59835,-81.44559,46,5,9,81,4,4,17-4664-51605,Windy,,17-4664-51605 Windy ,TRUE,3,
17-3816-50753,Wolsey,45.82284,-82.52459,45,8,2,82,5,2,17-3816-50753,Wolsey,NA,17-3816-50753 Wolsey,FALSE,2,
17-5748-51919,Aileen ,46.87867,-80.01783,46,8,7,80,0,1,17-5748-51919,Aileen,,17-5748-51919 Aileen ,TRUE,3,
17-5827-52344,Anima Nipissing ,47.25951,-79.90616,47,2,5,79,9,0,17-5827-52344,Anima,Nipissing,17-5827-52344 Anima Nipissing ,FALSE,4, 
17-5552-52523,Anvil ,47.42262,-80.26691,47,4,2,80,2,6,17-5552-52523,Anvil,,17-5552-52523 Anvil ,TRUE,3,
17-5758-51468,Bain ,46.47284,-80.01199,46,4,7,80,0,1,17-5758-51468,Bain,,17-5758-51468 Bain ,TRUE,3,
17-5664-50851,Balsam ,45.9177,-80.14503,45,9,1,80,1,4,17-5664-50851,Balsam,,17-5664-50851 Balsam ,TRUE,3,
17-5880-52436,Bay ,47.34738,-79.83923,47,3,4,79,8,3,17-5880-52436,Bay,,17-5880-52436 Bay ,TRUE,3,
17-5577-51311,Bear ,46.3314,-80.25596,46,3,3,80,2,5,17-5577-51311,Bear,,17-5577-51311 Bear ,TRUE,3,
17-5879-50852,Cadden ,45.9228,-79.86579,45,9,2,79,8,6,17-5879-50852,Cadden,,17-5879-50852 Cadden ,TRUE,3,
17-5970-52137,Cassels ,47.06939,-79.71594,47,0,6,79,7,1,17-5970-52137,Cassels,,17-5970-52137 Cassels ,TRUE,3,
17-6713-51311,Chant Plain ,46.31366,-78.773,46,3,1,78,7,7,17-6713-51311,Chant,Plain,17-6713-51311 Chant Plain ,FALSE,4, 
17-5942-51055,Clear ,46.09839,-79.78115,46,0,9,79,7,8,17-5942-51055,Clear,,17-5942-51055 Clear ,TRUE,3,
17-5788-51912,Cross ,46.8721,-79.96696,46,8,7,79,9,6,17-5788-51912,Cross,,17-5788-51912 Cross ,TRUE,3,
17-5601-51477,Deer ,46.48181,-80.21786,46,4,8,80,2,1,17-5601-51477,Deer,,17-5601-51477 Deer ,TRUE,3,
17-5580-52276,Diamond ,47.20455,-80.24759,47,2,0,80,2,4,17-5580-52276,Diamond,,17-5580-52276 Diamond ,TRUE,3,
17-5852-52035,Driftwood ,46.98242,-79.87887,46,9,8,79,8,7,17-5852-52035,Driftwood,,17-5852-52035 Driftwood ,TRUE,3,
17-5515-51958,Emerald ,46.9159,-80.32312,46,9,1,80,3,2,17-5515-51958,Emerald,,17-5515-51958 Emerald ,TRUE,3,
17-5335-52315,Florence ,47.2431,-80.55819,47,2,4,80,5,5,17-5335-52315,Florence,,17-5335-52315 Florence ,TRUE,3,
17-5618-51964,Gull ,46.92203,-80.18504,46,9,2,80,1,8,17-5618-51964,Gull,,17-5618-51964 Gull ,TRUE,3,
17-5845-51854,Hangstone ,46.81988,-79.88986,46,8,1,79,8,8,17-5845-51854,Hangstone,,17-5845-51854 Hangstone ,TRUE,3,
17-5893-52037,Herridge ,46.98257,-79.82505,46,9,8,79,8,2,17-5893-52037,Herridge,,17-5893-52037 Herridge ,TRUE,3,
17-5932-51960,Ingall ,46.91053,-79.77762,46,9,1,79,7,7,17-5932-51960,Ingall,,17-5932-51960 Ingall ,TRUE,3,
17-5933-51926,Jumping Cariboo ,46.88285,-79.78186,46,8,8,79,7,8,17-5933-51926,Jumping,Cariboo,17-5933-51926 Jumping Cariboo ,FALSE,4, 
17-5787-52433,Kittson ,47.33973,-79.95931,47,3,3,79,9,5,17-5787-52433,Kittson,,17-5787-52433 Kittson ,TRUE,3,
17-5733-52151,Kokoko ,47.08895,-80.03639,47,0,8,80,0,3,17-5733-52151,Kokoko,,17-5733-52151 Kokoko ,TRUE,3,
17-5608-52396,Lady Evelyn ,47.35053,-80.14644,47,3,5,80,1,4,17-5608-52396,Lady,Evelyn,17-5608-52396 Lady Evelyn ,FALSE,4, 
17-5430-52549,Makobe ,47.4477,-80.43034,47,4,4,80,4,3,17-5430-52549,Makobe,,17-5430-52549 Makobe ,TRUE,3,
17-5953-51723,Marten ,46.70317,-79.73057,46,7,0,79,7,3,17-5953-51723,Marten,,17-5953-51723 Marten ,TRUE,3,
17-6268-51774,McConnell ,46.73979,-79.33974,46,7,3,79,3,3,17-6268-51774,McConnell,,17-6268-51774 McConnell ,TRUE,3,
17-5778-52271,McLean ,47.19445,-79.97194,47,1,9,79,9,7,17-5778-52271,McLean,,17-5778-52271 McLean ,TRUE,3,
17-5565-51124,Mercer ,46.16368,-80.24789,46,1,6,80,2,4,17-5565-51124,Mercer,,17-5565-51124 Mercer ,TRUE,3,
17-5885-52314,Mountain ,47.23078,-79.83215,47,2,3,79,8,3,17-5885-52314,Mountain,,17-5885-52314 Mountain ,TRUE,3,
17-5732-51489,Muskosung ,46.49128,-80.04488,46,4,9,80,0,4,17-5732-51489,Muskosung,,17-5732-51489 Muskosung ,TRUE,3,
17-5909-52183,Net ,47.11604,-79.78758,47,1,1,79,7,8,17-5909-52183,Net,,17-5909-52183 Net ,TRUE,3,
17-5770-51258,Nipissing,46.26473,-79.7733,46,2,6,79,7,7,17-5770-51258,Nipissing,NA,17-5770-51258 Nipissing,FALSE,2,
17-6382-51179,Nosbonsing,46.20715,-79.21294,46,2,0,79,2,1,17-6382-51179,Nosbonsing,NA,17-6382-51179 Nosbonsing,FALSE,2,
17-5566-52101,Obabika ,47.04318,-80.26229,47,0,4,80,2,6,17-5566-52101,Obabika,,17-5566-52101 Obabika ,TRUE,3,
17-6031-52053,Rabbit ,46.9898,-79.6473,46,9,8,79,6,4,17-6031-52053,Rabbit,,17-6031-52053 Rabbit ,TRUE,3,
17-5812-51735,Red Cedar ,46.71781,-79.94034,46,7,1,79,9,4,17-5812-51735,Red,Cedar,17-5812-51735 Red Cedar ,FALSE,4, 
17-5740-52232,Red Squirrel ,47.16035,-80.02394,47,1,6,80,0,2,17-5740-52232,Red,Squirrel,17-5740-52232 Red Squirrel ,FALSE,4, 
17-5950-51006,Restoule ,46.05187,-79.78066,46,0,5,79,7,8,17-5950-51006,Restoule,,17-5950-51006 Restoule ,TRUE,3,
17-5972-52300,Rib ,47.21484,-79.71615,47,2,1,79,7,1,17-5972-52300,Rib,,17-5972-52300 Rib ,TRUE,3,
17-5274-52242,Rodd ,47.17311,-80.63868,47,1,7,80,6,3,17-5274-52242,Rodd,,17-5274-52242 Rodd ,TRUE,3,
17-5243-52488,Smoothwater ,47.39379,-80.6852,47,3,9,80,6,8,17-5243-52488,Smoothwater,,17-5243-52488 Smoothwater ,TRUE,3,
17-5947-51034,Stormy ,46.07978,-79.77476,46,0,7,79,7,7,17-5947-51034,Stormy,,17-5947-51034 Stormy ,TRUE,3,
17-5700-52061,Temagami,46.98896,-80.07046,46,9,8,80,0,7,17-5700-52061,Temagami,NA,17-5700-52061 Temagami,FALSE,2,
17-5889-52256,Thieving Bear ,47.17876,-79.82724,47,1,7,79,8,2,17-5889-52256,Thieving,Bear,17-5889-52256 Thieving Bear ,FALSE,4, 
17-5904-51531,Tomiko ,46.53029,-79.82432,46,5,3,79,8,2,17-5904-51531,Tomiko,,17-5904-51531 Tomiko ,TRUE,3,
17-6290-51301,Trout ,46.3193,-79.33669,46,3,1,79,3,3,17-6290-51301,Trout,,17-6290-51301 Trout ,TRUE,3,
17-5842-51980,Wasaksina ,46.935,-79.89212,46,9,3,79,8,9,17-5842-51980,Wasaksina,,17-5842-51980 Wasaksina ,TRUE,3,
17-6371-51109,Wasi ,46.13849,-79.22591,46,1,3,79,2,2,17-6371-51109,Wasi,,17-6371-51109 Wasi ,TRUE,3,
17-5476-52058,Wawiagama ,47.00583,-80.37028,47,0,0,80,3,7,17-5476-52058,Wawiagama,,17-5476-52058 Wawiagama ,TRUE,3,
17-6007-51793,Wicksteed ,46.76948,-79.67865,46,7,6,79,6,7,17-6007-51793,Wicksteed,,17-6007-51793 Wicksteed ,TRUE,3,
17-5555-52349,Willow Island ,47.27197,-80.26768,47,2,7,80,2,6,17-5555-52349,Willow,Island,17-5555-52349 Willow Island ,FALSE,4, 
17-6140-50979,Wolfe ,46.027,-79.5267,46,0,2,79,5,2,17-6140-50979,Wolfe,,17-6140-50979 Wolfe ,TRUE,3,
17-6731-51370,Lac la Cave,46.49279,-78.92977,46,4,9,78,9,2,17-6731-51370,Lac,la,17-6731-51370 Lac la Cave,FALSE,4, Cave
17-6178-52207,Timiskaming,47.32309,-79.50748,47,3,2,79,5,0,17-6178-52207,Timiskaming,NA,17-6178-52207 Timiskaming,FALSE,2,
17-4127-58673,Attawapiskat River,52.77776,-84.81436,52,7,7,84,8,1,17-4127-58673,Attawapiskat,River,17-4127-58673 Attawapiskat River,TRUE,3,
15-6978-59597,Big Trout ,53.78346,-90.00721,53,7,8,90,0,0,15-6978-59597,Big,Trout,15-6978-59597 Big Trout ,FALSE,4, 
15-3634-56451,Bulging ,50.94425,-94.94722,50,9,4,94,9,4,15-3634-56451,Bulging,,15-3634-56451 Bulging ,TRUE,3,
15-3974-57298,Keechewahshaykahmeeshek/Cairns ,51.70516,-94.49693,51,7,0,94,4,9,15-3974-57298,Keechewahshaykahmeeshek/Cairns,,15-3974-57298 Keechewahshaykahmeeshek/Cairns ,TRUE,3,
15-4198-58335,Deer ,52.63469,-94.20479,52,6,3,94,2,0,15-4198-58335,Deer,,15-4198-58335 Deer ,TRUE,3,
15-5492-60415,Echoing ,54.52068,-92.24003,54,5,2,92,2,4,15-5492-60415,Echoing,,15-5492-60415 Echoing ,TRUE,3,
16-3040-55939,Granite ,50.46972,-89.76793,50,4,6,89,7,6,16-3040-55939,Granite,,16-3040-55939 Granite ,TRUE,3,
15-3615-56383,Haggart ,50.88794,-94.98566,50,8,8,94,9,8,15-3615-56383,Haggart,,15-3615-56383 Haggart ,TRUE,3,
15-6863-55732,Heathcote ,50.28283,-90.38144,50,2,8,90,3,8,15-6863-55732,Heathcote,,15-6863-55732 Heathcote ,TRUE,3,
16-4324-56660,NA,51.14351,-87.96643,51,1,4,87,9,6,16-4324-56660,"NA",NA,16-4324-56660 NA,FALSE,2,
16-3721-56638,Kilbarry ,51.11995,-88.82077,51,1,1,88,8,2,16-3721-56638,Kilbarry,,16-3721-56638 Kilbarry ,TRUE,3,
15-5089-59670,Lingman ,53.85483,-92.85197,53,8,5,92,8,5,15-5089-59670,Lingman,,15-5089-59670 Lingman ,TRUE,3,
15-5751-58597,Nikip ,52.89722,-91.89389,52,8,9,91,8,9,15-5751-58597,Nikip,,15-5751-58597 Nikip ,TRUE,3,
16-4137-58866,NA,53.13145,-88.30604,53,1,3,88,3,0,16-4137-58866,"NA",NA,16-4137-58866 NA,FALSE,2,
15-5061-58179,North Spirit ,52.5156,-92.91514,52,5,1,92,9,1,15-5061-58179,North,Spirit,15-5061-58179 North Spirit ,FALSE,4, 
16-3751-58057,Peeagwon ,52.39063,-88.83429,52,3,9,88,8,3,16-3751-58057,Peeagwon,,16-3751-58057 Peeagwon ,TRUE,3,
16-2890-55711,Redhead ,50.25964,-89.95835,50,2,5,89,9,5,16-2890-55711,Redhead,,16-2890-55711 Redhead ,TRUE,3,
15-5000-58758,Sandy ,53.01908,-93.03714,53,0,1,93,0,3,15-5000-58758,Sandy,,15-5000-58758 Sandy ,TRUE,3,
15-6959-55928,Sassenach ,50.45836,-90.23117,50,4,5,90,2,3,15-6959-55928,Sassenach,,15-6959-55928 Sassenach ,TRUE,3,
16-3601-56788,Shabuskwia ,51.25607,-88.99587,51,2,5,88,9,9,16-3601-56788,Shabuskwia,,16-3601-56788 Shabuskwia ,TRUE,3,
16-3492-57692,Totogan ,52.06298,-89.1905,52,0,6,89,1,9,16-3492-57692,Totogan,,16-3492-57692 Totogan ,TRUE,3,
15-5365-57696,Tutu ,52.07642,-92.46707,52,0,7,92,4,6,15-5365-57696,Tutu,,15-5365-57696 Tutu ,TRUE,3,
16-3020-56135,Wabakimi ,50.64342,-89.78198,50,6,4,89,7,8,16-3020-56135,Wabakimi,,16-3020-56135 Wabakimi ,TRUE,3,
16-3068-56476,Webster ,50.92925,-89.78041,50,9,2,89,7,8,16-3068-56476,Webster,,16-3068-56476 Webster ,TRUE,3,
16-3864-56799,Weese ,51.26148,-88.62762,51,2,6,88,6,2,16-3864-56799,Weese,,16-3864-56799 Weese ,TRUE,3,
16-3769-56381,Whiteclay ,50.91328,-88.71851,50,9,1,88,7,1,16-3769-56381,Whiteclay,,16-3769-56381 Whiteclay ,TRUE,3,
15-5988-58262,Windigo ,52.58151,-91.53567,52,5,8,91,5,3,15-5988-58262,Windigo,,15-5988-58262 Windigo ,TRUE,3,
16-4753-58628,Winisk ,52.94125,-87.39311,52,9,4,87,3,9,16-4753-58628,Winisk,,16-4753-58628 Winisk ,TRUE,3,
15-5765-55453,Abram ,50.05909,-91.92916,50,0,5,91,9,2,15-5765-55453,Abram,,15-5765-55453 Abram ,TRUE,3,
15-5782-55201,Amik ,49.83026,-91.91356,49,8,3,91,9,1,15-5782-55201,Amik,,15-5782-55201 Amik ,TRUE,3,
15-4674-55871,Anishinabi ,50.43988,-93.44327,50,4,3,93,4,4,15-4674-55871,Anishinabi,,15-4674-55871 Anishinabi ,TRUE,3,
15-6471-56202,Arc ,50.71702,-90.90662,50,7,1,90,9,0,15-6471-56202,Arc,,15-6471-56202 Arc ,TRUE,3,
15-5837-55088,Arethusa ,49.71847,-91.86176,49,7,1,91,8,6,15-5837-55088,Arethusa,,15-5837-55088 Arethusa ,TRUE,3,
15-3545-55924,Bain ,50.47745,-95.05374,50,4,7,95,0,5,15-3545-55924,Bain,,15-3545-55924 Bain ,TRUE,3,
15-6065-55009,Barrel ,49.65928,-91.53454,49,6,5,91,5,3,15-6065-55009,Barrel,,15-6065-55009 Barrel ,TRUE,3,
15-6011-55383,Bawden ,49.99869,-91.58399,49,9,9,91,5,8,15-6011-55383,Bawden,,15-6011-55383 Bawden ,TRUE,3,
15-5646-55610,Bee ,50.2001,-92.09297,50,2,0,92,0,9,15-5646-55610,Bee,,15-5646-55610 Bee ,TRUE,3,
15-3553-56171,Bee ,50.69288,-95.06074,50,6,9,95,0,6,15-3553-56171,Bee,,15-3553-56171 Bee ,TRUE,3,
15-6500-55194,Bell ,49.80966,-90.93897,49,8,0,90,9,3,15-6500-55194,Bell,,15-6500-55194 Bell ,TRUE,3,
15-4525-57350,Peekwatahmaewee Sahkaheekahn/Berens ,51.75814,-93.71456,51,7,5,93,7,1,15-4525-57350,Peekwatahmaewee,Sahkaheekahn/Berens,15-4525-57350 Peekwatahmaewee Sahkaheekahn/Berens ,FALSE,4, 
15-6617-56410,Bertaud ,50.89944,-90.69978,50,8,9,90,6,9,15-6617-56410,Bertaud,,15-6617-56410 Bertaud ,TRUE,3,
15-5552-56587,NA,51.07751,-92.21266,51,0,7,92,2,1,15-5552-56587,"NA",NA,15-5552-56587 NA,FALSE,2,
15-4455-55462,Big Canon ,50.06847,-93.75888,50,0,6,93,7,5,15-4455-55462,Big,Canon,15-4455-55462 Big Canon ,FALSE,4, 
15-4131-55595,Big Fox ,50.17355,-94.19317,50,1,7,94,1,9,15-4131-55595,Big,Fox,15-4131-55595 Big Fox ,FALSE,4, 
15-5463-55189,Big Sandy ,49.82359,-92.36295,49,8,2,92,3,6,15-5463-55189,Big,Sandy,15-5463-55189 Big Sandy ,FALSE,4, 
15-5556-55428,Big Vermilion ,50.04484,-92.20826,50,0,4,92,2,0,15-5556-55428,Big,Vermilion,15-5556-55428 Big Vermilion ,FALSE,4, 
15-5452-56951,Birch ,51.39338,-92.37217,51,3,9,92,3,7,15-5452-56951,Birch,,15-5452-56951 Birch ,TRUE,3,
15-3762-55083,Birch ,49.72237,-94.71634,49,7,2,94,7,1,15-3762-55083,Birch,,15-3762-55083 Birch ,TRUE,3,
15-5413-55979,Birmingham ,50.52717,-92.41983,50,5,2,92,4,1,15-5413-55979,Birmingham,,15-5413-55979 Birmingham ,TRUE,3,
15-4919-56922,Blair ,51.37386,-93.11465,51,3,7,93,1,1,15-4919-56922,Blair,,15-4919-56922 Blair ,TRUE,3,
15-5035-56302,Bluffy ,50.81613,-92.96312,50,8,1,92,9,6,15-5035-56302,Bluffy,,15-5035-56302 Bluffy ,TRUE,3,
15-4670-55751,Bornite ,50.32556,-93.46277,50,3,2,93,4,6,15-4670-55751,Bornite,,15-4670-55751 Bornite ,TRUE,3,
15-5970-55554,Botsford ,50.13856,-91.6591,50,1,3,91,6,5,15-5970-55554,Botsford,,15-5970-55554 Botsford ,TRUE,3,
15-4559-55694,Bridge ,50.27807,-93.62387,50,2,7,93,6,2,15-4559-55694,Bridge,,15-4559-55694 Bridge ,TRUE,3,
15-5244-55839,Broadcast ,50.40992,-92.65663,50,4,0,92,6,5,15-5244-55839,Broadcast,,15-5244-55839 Broadcast ,TRUE,3,
15-4765-56293,Bruce ,50.81787,-93.31983,50,8,1,93,3,1,15-4765-56293,Bruce,,15-4765-56293 Bruce ,TRUE,3,
15-4747-56248,NA,50.77244,-93.35925,50,7,7,93,3,5,15-4747-56248,"NA",NA,15-4747-56248 NA,FALSE,2,
15-6143-55885,Bury ,50.43634,-91.3911,50,4,3,91,3,9,15-6143-55885,Bury,,15-6143-55885 Bury ,TRUE,3,
15-4705-56052,Camping ,50.61791,-93.40606,50,6,1,93,4,0,15-4705-56052,Camping,,15-4705-56052 Camping ,TRUE,3,
15-4470-55367,Canyon ,49.9888,-93.68699,49,9,8,93,6,8,15-4470-55367,Canyon,,15-4470-55367 Canyon ,TRUE,3,
15-6217-56090,Carling ,50.6223,-91.28022,50,6,2,91,2,8,15-6217-56090,Carling,,15-6217-56090 Carling ,TRUE,3,
15-6164-54885,Cecil ,49.54021,-91.40065,49,5,4,91,4,0,15-6164-54885,Cecil,,15-6164-54885 Cecil ,TRUE,3,
15-6286-56283,Churchill ,50.79425,-91.17578,50,7,9,91,1,7,15-6286-56283,Churchill,,15-6286-56283 Churchill ,TRUE,3,
15-4653-55440,Clay ,50.04611,-93.48572,50,0,4,93,4,8,15-4653-55440,Clay,,15-4653-55440 Clay ,TRUE,3,
15-4785-55574,Cliff ,50.16879,-93.29998,50,1,6,93,2,9,15-4785-55574,Cliff,,15-4785-55574 Cliff ,TRUE,3,
15-4103-55299,Cliff ,49.9079,-94.23708,49,9,0,94,2,3,15-4103-55299,Cliff,,15-4103-55299 Cliff ,TRUE,3,
15-4589-56848,Coli ,51.31536,-93.59007,51,3,1,93,5,9,15-4589-56848,Coli,,15-4589-56848 Coli ,TRUE,3,
15-5210-56629,Confederation ,51.11521,-92.67556,51,1,1,92,6,7,15-5210-56629,Confederation,,15-5210-56629 Confederation ,TRUE,3,
15-4187-56135,Confusion ,50.65108,-94.17888,50,6,5,94,1,7,15-4187-56135,Confusion,,15-4187-56135 Confusion ,TRUE,3,
15-4270-56011,Conifer ,50.5674,-94.03211,50,5,6,94,0,3,15-4270-56011,Conifer,,15-4270-56011 Conifer ,TRUE,3,
15-4965-56181,Cramp ,50.7135,-93.05651,50,7,1,93,0,5,15-4965-56181,Cramp,,15-4965-56181 Cramp ,TRUE,3,
15-6321-55100,Crystal ,49.72882,-91.1675,49,7,2,91,1,6,15-6321-55100,Crystal,,15-6321-55100 Crystal ,TRUE,3,
15-6444-55569,Davies ,50.14869,-90.97855,50,1,4,90,9,7,15-6444-55569,Davies,,15-6444-55569 Davies ,TRUE,3,
15-6620-56188,De Lesseps ,50.70008,-90.70631,50,7,0,90,7,0,15-6620-56188,De,Lesseps,15-6620-56188 De Lesseps ,FALSE,4, 
15-4250-55493,Delaney ,50.09299,-94.048,50,0,9,94,0,4,15-4250-55493,Delaney,,15-4250-55493 Delaney ,TRUE,3,
15-3786-56088,Dowswell ,50.62006,-94.71704,50,6,2,94,7,1,15-3786-56088,Dowswell,,15-3786-56088 Dowswell ,TRUE,3,
15-5866-55770,Expanse ,50.34437,-91.77352,50,3,4,91,7,7,15-5866-55770,Expanse,,15-5866-55770 Expanse ,TRUE,3,
15-4642-55404,Eye ,50.01584,-93.50594,50,0,1,93,5,0,15-4642-55404,Eye,,15-4642-55404 Eye ,TRUE,3,
15-6742-56100,Fitchie ,50.61813,-90.53714,50,6,1,90,5,3,15-6742-56100,Fitchie,,15-6742-56100 Fitchie ,TRUE,3,
15-3925-55861,Fletcher ,50.42908,-94.48032,50,4,2,94,4,8,15-3925-55861,Fletcher,,15-3925-55861 Fletcher ,TRUE,3,
15-6038-55223,Flying Loon ,49.84431,-91.57267,49,8,4,91,5,7,15-6038-55223,Flying,Loon,15-6038-55223 Flying Loon ,FALSE,4, 
15-5787-56519,NA,51.01365,-91.87832,51,0,1,91,8,7,15-5787-56519,"NA",NA,15-5787-56519 NA,FALSE,2,
15-5703-56992,NA,51.43954,-91.98849,51,4,3,91,9,8,15-5703-56992,"NA",NA,15-5703-56992 NA,FALSE,2,
15-6832-55663,Fog ,50.22294,-90.43085,50,2,2,90,4,3,15-6832-55663,Fog,,15-6832-55663 Fog ,TRUE,3,
16-2934-56630,Frain ,51.07903,-89.9514,51,0,7,89,9,5,16-2934-56630,Frain,,16-2934-56630 Frain ,TRUE,3,
15-5060-55643,NA,50.23158,-92.91464,50,2,3,92,9,1,15-5060-55643,"NA",NA,15-5060-55643 NA,FALSE,2,
15-6378-55460,Gibraltar ,50.0521,-91.07599,50,0,5,91,0,7,15-6378-55460,Gibraltar,,15-6378-55460 Gibraltar ,TRUE,3,
15-6046-55042,Gooch ,49.69139,-91.55158,49,6,9,91,5,5,15-6046-55042,Gooch,,15-6046-55042 Gooch ,TRUE,3,
15-5349-56812,Grace ,51.2872,-92.49861,51,2,8,92,4,9,15-5349-56812,Grace,,15-5349-56812 Grace ,TRUE,3,
15-7043-56488,Greenbush ,50.95093,-90.10466,50,9,5,90,1,0,15-7043-56488,Greenbush,,15-7043-56488 Greenbush ,TRUE,3,
15-4567-56470,Gullrock ,50.96114,-93.64489,50,9,6,93,6,4,15-4567-56470,Gullrock,,15-4567-56470 Gullrock ,TRUE,3,
15-5826-54970,Gustauson ,49.62257,-91.85843,49,6,2,91,8,5,15-5826-54970,Gustauson,,15-5826-54970 Gustauson ,TRUE,3,
15-5606-56722,Hailstone ,51.20038,-92.1061,51,2,0,92,1,0,15-5606-56722,Hailstone,,15-5606-56722 Hailstone ,TRUE,3,
15-6795-56370,Hamilton ,50.86908,-90.43634,50,8,6,90,4,3,15-6795-56370,Hamilton,,15-6795-56370 Hamilton ,TRUE,3,
15-4269-56605,Hammell ,51.09368,-94.0448,51,0,9,94,0,4,15-4269-56605,Hammell,,15-4269-56605 Hammell ,TRUE,3,
15-5396-55107,Hartman ,49.74941,-92.45084,49,7,4,92,4,5,15-5396-55107,Hartman,,15-5396-55107 Hartman ,TRUE,3,
15-5948-55051,Heathwalt ,49.69835,-91.695,49,6,9,91,6,9,15-5948-55051,Heathwalt,,15-5948-55051 Heathwalt ,TRUE,3,
15-6060-55787,Hik ,50.35053,-91.51247,50,3,5,91,5,1,15-6060-55787,Hik,,15-6060-55787 Hik ,TRUE,3,
15-5965-54891,Indian ,49.54834,-91.66632,49,5,4,91,6,6,15-5965-54891,Indian,,15-5965-54891 Indian ,TRUE,3,
15-4623-55297,Indian ,49.91552,-93.53218,49,9,1,93,5,3,15-4623-55297,Indian,,15-4623-55297 Indian ,TRUE,3,
15-5605-56599,Jeanette ,51.0898,-92.13638,51,0,8,92,1,3,15-5605-56599,Jeanette,,15-5605-56599 Jeanette ,TRUE,3,
15-4977-56626,Joyce ,51.1321,-93.01422,51,1,3,93,0,1,15-4977-56626,Joyce,,15-4977-56626 Joyce ,TRUE,3,
15-5433-56498,Jubilee ,51.01066,-92.39986,51,0,1,92,3,9,15-5433-56498,Jubilee,,15-5433-56498 Jubilee ,TRUE,3,
15-6603-55876,Kashaweogama ,50.42091,-90.74437,50,4,2,90,7,4,15-6603-55876,Kashaweogama,,15-6603-55876 Kashaweogama ,TRUE,3,
15-4520-56490,Keg ,50.99542,-93.68541,50,9,9,93,6,8,15-4520-56490,Keg,,15-4520-56490 Keg ,TRUE,3,
15-4356-57093,Wahshaykahmeesheeng/Kirkness ,51.5321,-93.92675,51,5,3,93,9,2,15-4356-57093,Wahshaykahmeesheeng/Kirkness,,15-4356-57093 Wahshaykahmeesheeng/Kirkness ,TRUE,3,
15-5946-55139,Kukukus ,49.7724,-91.68396,49,7,7,91,6,8,15-5946-55139,Kukukus,,15-5946-55139 Kukukus ,TRUE,3,
15-6207-55385,of Bays,49.98409,-91.28781,49,9,8,91,2,8,15-6207-55385,of,Bays,15-6207-55385 of Bays,TRUE,3,
15-6059-54782,Little Sandbar ,49.45098,-91.54113,49,4,5,91,5,4,15-6059-54782,Little,Sandbar,15-6059-54782 Little Sandbar ,FALSE,4, 
15-4414-56807,Little Vermilion ,51.26224,-93.83115,51,2,6,93,8,3,15-4414-56807,Little,Vermilion,15-4414-56807 Little Vermilion ,FALSE,4, 
15-5581-55389,Little Vermilion ,50.00179,-92.15509,50,0,0,92,1,5,15-5581-55389,Little,Vermilion,15-5581-55389 Little Vermilion ,FALSE,4, 
15-4172-56262,Longlegged ,50.78395,-94.17453,50,7,8,94,1,7,15-4172-56262,Longlegged,,15-4172-56262 Longlegged ,TRUE,3,
15-5584-55517,Lost ,50.1364,-92.21195,50,1,3,92,2,1,15-5584-55517,Lost,,15-5584-55517 Lost ,TRUE,3,
15-4066-55579,Lount ,50.17089,-94.30746,50,1,7,94,3,0,15-4066-55579,Lount,,15-4066-55579 Lount ,TRUE,3,
15-5036-57231,Mamakwash ,51.66266,-92.93466,51,6,6,92,9,3,15-5036-57231,Mamakwash,,15-5036-57231 Mamakwash ,TRUE,3,
15-5853-54894,Mameigwess ,49.55072,-91.82545,49,5,5,91,8,2,15-5853-54894,Mameigwess,,15-5853-54894 Mameigwess ,TRUE,3,
15-6137-55606,Marchington ,50.19345,-91.38973,50,1,9,91,3,8,15-6137-55606,Marchington,,15-6137-55606 Marchington ,TRUE,3,
15-5858-55502,Marchington River,50.20452,-91.52145,50,2,0,91,5,2,15-5858-55502,Marchington,River,15-5858-55502 Marchington River,TRUE,3,
15-6457-55062,Mattawa ,49.69831,-90.97644,49,6,9,90,9,7,15-6457-55062,Mattawa,,15-6457-55062 Mattawa ,TRUE,3,
15-6908-56374,McCrea ,50.85869,-90.28963,50,8,5,90,2,8,15-6908-56374,McCrea,,15-6908-56374 McCrea ,TRUE,3,
15-6720-56440,Medcalf ,50.92614,-90.55398,50,9,2,90,5,5,15-6720-56440,Medcalf,,15-6720-56440 Medcalf ,TRUE,3,
15-5535-55111,Mickle ,49.75393,-92.2553,49,7,5,92,2,5,15-5535-55111,Mickle,,15-5535-55111 Mickle ,TRUE,3,
15-6733-56270,Minchin ,50.76686,-90.54351,50,7,6,90,5,4,15-6733-56270,Minchin,,15-6733-56270 Minchin ,TRUE,3,
15-6523-56318,Miniss ,50.82132,-90.87326,50,8,2,90,8,7,15-6523-56318,Miniss,,15-6523-56318 Miniss ,TRUE,3,
15-5735-55360,Minnitaki ,49.97183,-91.95802,49,9,7,91,9,5,15-5735-55360,Minnitaki,,15-5735-55360 Minnitaki ,TRUE,3,
15-5282-55495,Mold ,50.09953,-92.6059,50,0,9,92,6,0,15-5282-55495,Mold,,15-5282-55495 Mold ,TRUE,3,
15-5802-54916,Mud ,49.57403,-91.89103,49,5,7,91,8,9,15-5802-54916,Mud,,15-5802-54916 Mud ,TRUE,3,
15-5001-56935,NA,51.39459,-92.99692,51,3,9,92,9,9,15-5001-56935,"NA",NA,15-5001-56935 NA,FALSE,2,
15-4613-57020,Ooshkahtahkahwee Sahkaheekahn/Nungesser ,51.47248,-93.53952,51,4,7,93,5,3,15-4613-57020,Ooshkahtahkahwee,Sahkaheekahn/Nungesser,15-4613-57020 Ooshkahtahkahwee Sahkaheekahn/Nungesser ,FALSE,4, 
15-4450-55883,Oak ,50.43811,-93.78729,50,4,3,93,7,8,15-4450-55883,Oak,,15-4450-55883 Oak ,TRUE,3,
15-4109-56434,Onnie ,50.93757,-94.26786,50,9,3,94,2,6,15-4109-56434,Onnie,,15-4109-56434 Onnie ,TRUE,3,
15-5808-56326,Otatakan ,50.85048,-91.85134,50,8,5,91,8,5,15-5808-56326,Otatakan,,15-5808-56326 Otatakan ,TRUE,3,
15-6056-54920,Paguchi ,49.56217,-91.52956,49,5,6,91,5,2,15-6056-54920,Paguchi,,15-6056-54920 Paguchi ,TRUE,3,
15-4660-56220,Pakwash ,50.74727,-93.50609,50,7,4,93,5,0,15-4660-56220,Pakwash,,15-4660-56220 Pakwash ,TRUE,3,
15-6895-56512,Pashkokogan ,50.98287,-90.30102,50,9,8,90,3,0,15-6895-56512,Pashkokogan,,15-6895-56512 Pashkokogan ,TRUE,3,
15-4526-57073,Pedlar ,51.51053,-93.69557,51,5,1,93,6,9,15-4526-57073,Pedlar,,15-4526-57073 Pedlar ,TRUE,3,
15-5737-55520,Pelican ,50.1115,-91.96123,50,1,1,91,9,6,15-5737-55520,Pelican,,15-5737-55520 Pelican ,TRUE,3,
15-6300-55346,Penassi ,49.95125,-91.19549,49,9,5,91,1,9,15-6300-55346,Penassi,,15-6300-55346 Penassi ,TRUE,3,
15-4900-55708,Perrault ,50.29084,-93.13068,50,2,9,93,1,3,15-4900-55708,Perrault,,15-4900-55708 Perrault ,TRUE,3,
15-4304-57399,Peekahchekahmeewee Sahkaheekahn/Pikangikum ,51.80217,-93.99622,51,8,0,93,9,9,15-4304-57399,Peekahchekahmeewee,Sahkaheekahn/Pikangikum,15-4304-57399 Peekahchekahmeewee Sahkaheekahn/Pikangikum ,FALSE,4, 
15-5213-56724,Premier ,51.20424,-92.69474,51,2,0,92,6,9,15-5213-56724,Premier,,15-5213-56724 Premier ,TRUE,3,
15-6090-55164,Press ,49.79986,-91.50461,49,7,9,91,5,0,15-6090-55164,Press,,15-6090-55164 Press ,TRUE,3,
15-4596-56570,Ranger ,51.06628,-93.57263,51,0,6,93,5,7,15-4596-56570,Ranger,,15-4596-56570 Ranger ,TRUE,3,
15-4335-56548,Red ,51.06421,-93.95704,51,0,6,93,9,5,15-4335-56548,Red,,15-4335-56548 Red ,TRUE,3,
15-5670-55575,Richardson ,50.16956,-92.06356,50,1,6,92,0,6,15-5670-55575,Richardson,,15-5670-55575 Richardson ,TRUE,3,
15-6931-55274,Rude ,49.87008,-90.31323,49,8,7,90,3,1,15-6931-55274,Rude,,15-6931-55274 Rude ,TRUE,3,
15-6825-55952,Savant ,50.4823,-90.42741,50,4,8,90,4,2,15-6825-55952,Savant,,15-6825-55952 Savant ,TRUE,3,
15-6448-54598,Savoy ,49.27585,-91.01053,49,2,7,91,0,1,15-6448-54598,Savoy,,15-6448-54598 Savoy ,TRUE,3,
15-6908-55246,Scruffy ,49.84777,-90.35099,49,8,4,90,3,5,15-6908-55246,Scruffy,,15-6908-55246 Scruffy ,TRUE,3,
15-6531-54804,Selwyn ,49.45958,-90.89168,49,4,5,90,8,9,15-6531-54804,Selwyn,,15-6531-54804 Selwyn ,TRUE,3,
15-6890-55500,Seseganaga ,50.06571,-90.35308,50,0,6,90,3,5,15-6890-55500,Seseganaga,,15-6890-55500 Seseganaga ,TRUE,3,
15-5365-55747,Lac Seul,50.40282,-92.47874,50,4,0,92,4,7,15-5365-55747,Lac,Seul,15-5365-55747 Lac Seul,TRUE,3,
15-5045-56849,Shabu ,51.31424,-92.93967,51,3,1,92,9,3,15-5045-56849,Shabu,,15-5045-56849 Shabu ,TRUE,3,
15-5267-56886,Shabumeni ,51.34593,-92.63534,51,3,4,92,6,3,15-5267-56886,Shabumeni,,15-5267-56886 Shabumeni ,TRUE,3,
15-4741-57335,Pahkayyahkahmahk/Silcox ,51.75362,-93.37461,51,7,5,93,3,7,15-4741-57335,Pahkayyahkahmahk/Silcox,,15-4741-57335 Pahkayyahkahmahk/Silcox ,TRUE,3,
15-6881-55875,Silver ,50.41174,-90.35324,50,4,1,90,3,5,15-6881-55875,Silver,,15-6881-55875 Silver ,TRUE,3,
15-6244-55581,Singapore ,50.16413,-91.26503,50,1,6,91,2,6,15-6244-55581,Singapore,,15-6244-55581 Singapore ,TRUE,3,
15-6889-55829,Smye ,50.3698,-90.34435,50,3,6,90,3,4,15-6889-55829,Smye,,15-6889-55829 Smye ,TRUE,3,
15-6304-54898,Sowden ,49.54735,-91.20672,49,5,4,91,2,0,15-6304-54898,Sowden,,15-6304-54898 Sowden ,TRUE,3,
15-5394-55901,Spruce ,50.46512,-92.44463,50,4,6,92,4,4,15-5394-55901,Spruce,,15-5394-55901 Spruce ,TRUE,3,
15-6146-55661,Stanzhikimi ,50.24067,-91.3921,50,2,4,91,3,9,15-6146-55661,Stanzhikimi,,15-6146-55661 Stanzhikimi ,TRUE,3,
15-6600-55380,Sturgeon ,49.92729,-90.89686,49,9,2,90,8,9,15-6600-55380,Sturgeon,,15-6600-55380 Sturgeon ,TRUE,3,
15-6319-61411,Sturgeon ,55.39228,-90.89618,55,3,9,90,8,9,15-6319-61411,Sturgeon,,15-6319-61411 Sturgeon ,TRUE,3,
15-4602-55724,Sup ,50.30519,-93.55796,50,3,0,93,5,5,15-4602-55724,Sup,,15-4602-55724 Sup ,TRUE,3,
15-5430-56831,Superstition ,51.31177,-92.40367,51,3,1,92,4,0,15-5430-56831,Superstition,,15-5430-56831 Superstition ,TRUE,3,
15-5085-55575,Thaddeus ,50.17463,-92.89251,50,1,7,92,8,9,15-5085-55575,Thaddeus,,15-5085-55575 Thaddeus ,TRUE,3,
15-4305-55763,Tide ,50.33775,-93.98355,50,3,3,93,9,8,15-4305-55763,Tide,,15-4305-55763 Tide ,TRUE,3,
15-4238-55430,Tom ,50.03637,-94.06278,50,0,3,94,0,6,15-4238-55430,Tom,,15-4238-55430 Tom ,TRUE,3,
15-6233-55269,Towers ,49.88748,-91.2871,49,8,8,91,2,8,15-6233-55269,Towers,,15-6233-55269 Towers ,TRUE,3,
15-4784-56717,Trout ,51.19868,-93.30949,51,1,9,93,3,0,15-4784-56717,Trout,,15-4784-56717 Trout ,TRUE,3,
15-4591-56414,Two Island ,50.92636,-93.58091,50,9,2,93,5,8,15-4591-56414,Two,Island,15-4591-56414 Two Island ,FALSE,4, 
15-5290-56555,Uchi ,51.05258,-92.58668,51,0,5,92,5,8,15-5290-56555,Uchi,,15-5290-56555 Uchi ,TRUE,3,
15-3754-55732,Umfreville ,50.32297,-94.83832,50,3,2,94,8,3,15-3754-55732,Umfreville,,15-3754-55732 Umfreville ,TRUE,3,
15-5752-55022,NA,49.66803,-91.95766,49,6,6,91,9,5,15-5752-55022,"NA",NA,15-5752-55022 NA,FALSE,2,
15-4255-56385,Upper Medicine Stone ,50.89562,-94.05979,50,8,9,94,0,5,15-4255-56385,Upper,Medicine,15-4255-56385 Upper Medicine Stone ,FALSE,5, Stone 
15-5331-56487,Upper Slate ,50.99063,-92.52834,50,9,9,92,5,2,15-5331-56487,Upper,Slate,15-5331-56487 Upper Slate ,FALSE,4, 
15-4205-55446,NA,50.04994,-94.11017,50,0,4,94,1,1,15-4205-55446,"NA",NA,15-4205-55446 NA,FALSE,2,
16-3275-56692,Vallas ,51.15044,-89.47299,51,1,5,89,4,7,16-3275-56692,Vallas,,16-3275-56692 Vallas ,TRUE,3,
15-6048-54975,Victoria ,49.62381,-91.54686,49,6,2,91,5,4,15-6048-54975,Victoria,,15-6048-54975 Victoria ,TRUE,3,
15-4880-55820,Wabaskang ,50.38864,-93.22539,50,3,8,93,2,2,15-4880-55820,Wabaskang,,15-4880-55820 Wabaskang ,TRUE,3,
15-5545-58965,Wapesi ,53.21668,-92.18729,53,2,1,92,1,8,15-5545-58965,Wapesi,,15-5545-58965 Wapesi ,TRUE,3,
15-5464-56006,Wapesi ,50.54216,-92.33631,50,5,4,92,3,3,15-5464-56006,Wapesi,,15-5464-56006 Wapesi ,TRUE,3,
15-5209-57140,Wavell ,51.5779,-92.69876,51,5,7,92,6,9,15-5209-57140,Wavell,,15-5209-57140 Wavell ,TRUE,3,
15-6775-54775,Wawang ,49.42645,-90.55214,49,4,2,90,5,5,15-6775-54775,Wawang,,15-6775-54775 Wawang ,TRUE,3,
15-4590-56024,Wegg ,50.57368,-93.57949,50,5,7,93,5,7,15-4590-56024,Wegg,,15-4590-56024 Wegg ,TRUE,3,
15-4894-56194,Wenasaga ,50.72869,-93.15031,50,7,2,93,1,5,15-4894-56194,Wenasaga,,15-4894-56194 Wenasaga ,TRUE,3,
15-5192-56320,Whitemud ,50.8448,-92.73259,50,8,4,92,7,3,15-5192-56320,Whitemud,,15-5192-56320 Whitemud ,TRUE,3,
15-6259-55257,Whiterock ,49.86702,-91.24927,49,8,6,91,2,4,15-6259-55257,Whiterock,,15-6259-55257 Whiterock ,TRUE,3,
15-5276-57442,Willis ,51.85683,-92.60418,51,8,5,92,6,0,15-5276-57442,Willis,,15-5276-57442 Willis ,TRUE,3,
15-3805-55872,NA,50.42502,-94.68222,50,4,2,94,6,8,15-3805-55872,"NA",NA,15-3805-55872 NA,FALSE,2,
15-3543-56122,Wingiskus ,50.64506,-95.06149,50,6,4,95,0,6,15-3543-56122,Wingiskus,,15-3543-56122 Wingiskus ,TRUE,3,
15-6217-55096,Wintering ,49.72761,-91.31415,49,7,2,91,3,1,15-6217-55096,Wintering,,15-6217-55096 Wintering ,TRUE,3,
15-4383-55582,Wolf ,50.17513,-93.86438,50,1,7,93,8,6,15-4383-55582,Wolf,,15-4383-55582 Wolf ,TRUE,3,
15-5179-56721,Woman ,51.20095,-92.75446,51,2,0,92,7,5,15-5179-56721,Woman,,15-5179-56721 Woman ,TRUE,3,
15-3895-55970,Wyder ,50.51618,-94.55925,50,5,1,94,5,5,15-3895-55970,Wyder,,15-3895-55970 Wyder ,TRUE,3,
15-4562-55905,Zizania Creek,50.47581,-93.61485,50,4,7,93,6,1,15-4562-55905,Zizania,Creek,15-4562-55905 Zizania Creek,TRUE,3,
15-4634-55960,Zizania ,50.52395,-93.50597,50,5,2,93,5,0,15-4634-55960,Zizania,,15-4634-55960 Zizania ,TRUE,3,
17-4242-51534,24 Mile ,46.53173,-81.98763,46,5,3,81,9,8,17-4242-51534,24,Mile,17-4242-51534 24 Mile ,FALSE,4, 
15-4640-55200,Aaron ,49.83128,-93.50248,49,8,3,93,5,0,15-4640-55200,Aaron,,15-4640-55200 Aaron ,TRUE,3,
15-5970-53925,Abbess ,48.67977,-91.68384,48,6,7,91,6,8,15-5970-53925,Abbess,,15-5970-53925 Abbess ,TRUE,3,
15-6228-53450,Agnes ,48.22804,-91.35112,48,2,2,91,3,5,15-6228-53450,Agnes,,15-6228-53450 Agnes ,TRUE,3,
15-4216-54977,Andy ,49.62961,-94.08984,49,6,2,94,0,8,15-4216-54977,Andy,,15-4216-54977 Andy ,TRUE,3,
15-5968-54021,Apungsisagen ,48.76147,-91.68993,48,7,6,91,6,8,15-5968-54021,Apungsisagen,,15-5968-54021 Apungsisagen ,TRUE,3,
15-5888-53453,Argo ,48.25397,-91.80679,48,2,5,91,8,0,15-5888-53453,Argo,,15-5888-53453 Argo ,TRUE,3,
15-4602-54790,Atikwa ,49.49768,-93.53348,49,4,9,93,5,3,15-4602-54790,Atikwa,,15-4602-54790 Atikwa ,TRUE,3,
15-4487-55234,Augite ,49.8623,-93.71668,49,8,6,93,7,1,15-4487-55234,Augite,,15-4487-55234 Augite ,TRUE,3,
15-5236-53978,Bad Vermilion ,48.72571,-92.68243,48,7,2,92,6,8,15-5236-53978,Bad,Vermilion,15-5236-53978 Bad Vermilion ,FALSE,4, 
15-4185-55186,Base ,49.81946,-94.12351,49,8,1,94,1,2,15-4185-55186,Base,,15-4185-55186 Base ,TRUE,3,
15-5662-53769,Beaverhouse ,48.54596,-92.10223,48,5,4,92,1,0,15-5662-53769,Beaverhouse,,15-5662-53769 Beaverhouse ,TRUE,3,
15-5627-54632,Bending ,49.32637,-92.15291,49,3,2,92,1,5,15-5627-54632,Bending,,15-5627-54632 Bending ,TRUE,3,
15-4302-54803,Berry ,49.47183,-93.96128,49,4,7,93,9,6,15-4302-54803,Berry,,15-4302-54803 Berry ,TRUE,3,
15-6049-54231,Bethune ,48.95168,-91.57173,48,9,5,91,5,7,15-6049-54231,Bethune,,15-6049-54231 Bethune ,TRUE,3,
15-4298-55335,Big Island ,49.95155,-93.97876,49,9,5,93,9,7,15-4298-55335,Big,Island,15-4298-55335 Big Island ,FALSE,4, 
15-4218-54877,Black ,49.54106,-94.07975,49,5,4,94,0,7,15-4218-54877,Black,,15-4218-54877 Black ,TRUE,3,
15-3982-55227,Black Sturgeon s,49.84838,-94.36373,49,8,4,94,3,6,15-3982-55227,Black,Sturgeon,15-3982-55227 Black Sturgeon s,FALSE,4, s
15-6386-53456,Blackstone ,48.24321,-91.14132,48,2,4,91,1,4,15-6386-53456,Blackstone,,15-6386-53456 Blackstone ,TRUE,3,
15-4100-55022,Blindfold ,49.67003,-94.25758,49,6,7,94,2,5,15-4100-55022,Blindfold,,15-4100-55022 Blindfold ,TRUE,3,
15-3755-55568,Blueberry ,50.15109,-94.74174,50,1,5,94,7,4,15-3755-55568,Blueberry,,15-3755-55568 Blueberry ,TRUE,3,
15-4725-54467,Bluffpoint ,49.1767,-93.37447,49,1,7,93,3,7,15-4725-54467,Bluffpoint,,15-4725-54467 Bluffpoint ,TRUE,3,
15-4430-54221,Burditt ,48.96059,-93.77003,48,9,6,93,7,7,15-4430-54221,Burditt,,15-4430-54221 Burditt ,TRUE,3,
15-6075-53504,Burt ,48.29252,-91.56278,48,2,9,91,5,6,15-6075-53504,Burt,,15-6075-53504 Burt ,TRUE,3,
15-5246-55025,Butler ,49.67307,-92.6663,49,6,7,92,6,6,15-5246-55025,Butler,,15-5246-55025 Butler ,TRUE,3,
15-4610-54218,Calder ,48.94489,-93.5328,48,9,4,93,5,3,15-4610-54218,Calder,,15-4610-54218 Calder ,TRUE,3,
15-5676-54025,Calm ,48.78402,-92.08944,48,7,8,92,0,8,15-5676-54025,Calm,,15-5676-54025 Calm ,TRUE,3,
15-6098-53616,Camel ,48.40578,-91.51269,48,4,0,91,5,1,15-6098-53616,Camel,,15-6098-53616 Camel ,TRUE,3,
15-5503-53695,Captain Tom ,48.47819,-92.31846,48,4,7,92,3,1,15-5503-53695,Captain,Tom,15-5503-53695 Captain Tom ,FALSE,4, 
15-4431-54685,Caviar ,49.37469,-93.77506,49,3,7,93,7,7,15-4431-54685,Caviar,,15-4431-54685 Caviar ,TRUE,3,
15-4375-54620,Cedartree ,49.30386,-93.86676,49,3,0,93,8,6,15-4375-54620,Cedartree,,15-4375-54620 Cedartree ,TRUE,3,
15-5747-53824,Cirrus ,48.62465,-91.91309,48,6,2,91,9,1,15-5747-53824,Cirrus,,15-5747-53824 Cirrus ,TRUE,3,
15-3738-55065,Clearwater Bay,49.70637,-94.75372,49,7,0,94,7,5,15-3738-55065,Clearwater,Bay,15-3738-55065 Clearwater Bay,TRUE,3,
15-5755-54281,Clearwater West ,49.00747,-91.98602,49,0,0,91,9,8,15-5755-54281,Clearwater,West,15-5755-54281 Clearwater West ,FALSE,4, 
15-4552-55258,Cobble ,49.89458,-93.61903,49,8,9,93,6,1,15-4552-55258,Cobble,,15-4552-55258 Cobble ,TRUE,3,
15-6013-53540,Conmee ,48.33273,-91.64059,48,3,3,91,6,4,15-6013-53540,Conmee,,15-6013-53540 Conmee ,TRUE,3,
15-5634-54343,Crook ,49.05957,-92.13549,49,0,5,92,1,3,15-5634-54343,Crook,,15-5634-54343 Crook ,TRUE,3,
15-6401-54050,Crooked Pine ,48.7846,-91.09824,48,7,8,91,0,9,15-6401-54050,Crooked,Pine,15-6401-54050 Crooked Pine ,FALSE,4, 
15-4115-55351,Cross ,49.96489,-94.23609,49,9,6,94,2,3,15-4115-55351,Cross,,15-4115-55351 Cross ,TRUE,3,
15-5858-54247,Crowrock ,48.97243,-91.79738,48,9,7,91,7,9,15-5858-54247,Crowrock,,15-5858-54247 Crowrock ,TRUE,3,
15-6263-53964,Crystal ,48.7076,-91.27802,48,7,0,91,2,7,15-6263-53964,Crystal,,15-6263-53964 Crystal ,TRUE,3,
15-3653-55394,Cygnet ,49.99142,-94.88562,49,9,9,94,8,8,15-3653-55394,Cygnet,,15-3653-55394 Cygnet ,TRUE,3,
15-4399-55286,Daniels ,49.92424,-93.85166,49,9,2,93,8,5,15-4399-55286,Daniels,,15-4399-55286 Daniels ,TRUE,3,
15-5704-54495,Dibble ,49.19884,-92.02659,49,1,9,92,0,2,15-5704-54495,Dibble,,15-5704-54495 Dibble ,TRUE,3,
15-5320-54970,Dinorwic ,49.62051,-92.56305,49,6,2,92,5,6,15-5320-54970,Dinorwic,,15-5320-54970 Dinorwic ,TRUE,3,
15-4342-54693,Dogpaw ,49.36962,-93.90523,49,3,6,93,9,0,15-4342-54693,Dogpaw,,15-4342-54693 Dogpaw ,TRUE,3,
15-4148-55077,Dogtooth ,49.69869,-94.15775,49,6,9,94,1,5,15-4148-55077,Dogtooth,,15-4148-55077 Dogtooth ,TRUE,3,
15-5124-54968,Dor ,49.61582,-92.83074,49,6,1,92,8,3,15-5124-54968,Dor,,15-5124-54968 Dor ,TRUE,3,
15-5704-54143,Dovetail ,48.87992,-92.0409,48,8,7,92,0,4,15-5704-54143,Dovetail,,15-5704-54143 Dovetail ,TRUE,3,
15-4395-54864,Dryberry ,49.54722,-93.85008,49,5,4,93,8,5,15-4395-54864,Dryberry,,15-4395-54864 Dryberry ,TRUE,3,
15-4950-55030,Eagle ,49.66881,-93.27879,49,6,6,93,2,7,15-4950-55030,Eagle,,15-4950-55030 Eagle ,TRUE,3,
15-4606-55329,Edward ,49.9464,-93.55602,49,9,4,93,5,5,15-4606-55329,Edward,,15-4606-55329 Edward ,TRUE,3,
15-5429-54280,Eltrut ,49.00154,-92.41658,49,0,0,92,4,1,15-5429-54280,Eltrut,,15-5429-54280 Eltrut ,TRUE,3,
15-5231-54423,Entwine ,49.13684,-92.68273,49,1,3,92,6,8,15-5231-54423,Entwine,,15-5231-54423 Entwine ,TRUE,3,
15-6340-53970,Eva ,48.71744,-91.15971,48,7,1,91,1,5,15-6340-53970,Eva,,15-6340-53970 Eva ,TRUE,3,
15-5688-53944,Factor ,48.70208,-92.0698,48,7,0,92,0,6,15-5688-53944,Factor,,15-5688-53944 Factor ,TRUE,3,
15-6317-54251,Farley ,48.96092,-91.20674,48,9,6,91,2,0,15-6317-54251,Farley,,15-6317-54251 Farley ,TRUE,3,
15-6034-54181,Finlayson ,48.9101,-91.58889,48,9,1,91,5,8,15-6034-54181,Finlayson,,15-6034-54181 Finlayson ,TRUE,3,
15-5172-54948,Godson ,49.60903,-92.76425,49,6,0,92,7,6,15-5172-54948,Godson,,15-5172-54948 Godson ,TRUE,3,
15-4490-55266,Gordon ,49.89387,-93.70945,49,8,9,93,7,0,15-4490-55266,Gordon,,15-4490-55266 Gordon ,TRUE,3,
15-5670-54304,Grey Trout ,49.0294,-92.07951,49,0,2,92,0,7,15-5670-54304,Grey,Trout,15-5670-54304 Grey Trout ,FALSE,4, 
15-4951-54235,Grimshaw ,48.96977,-93.07532,48,9,6,93,0,7,15-4951-54235,Grimshaw,,15-4951-54235 Grimshaw ,TRUE,3,
15-5293-55287,Gullwing ,49.91183,-92.60645,49,9,1,92,6,0,15-5293-55287,Gullwing,,15-5293-55287 Gullwing ,TRUE,3,
15-4279-55138,Hawk ,49.76759,-93.99944,49,7,6,93,9,9,15-4279-55138,Hawk,,15-4279-55138 Hawk ,TRUE,3,
15-5242-54196,Heron ,48.93116,-92.67054,48,9,3,92,6,7,15-5242-54196,Heron,,15-5242-54196 Heron ,TRUE,3,
15-5833-54665,Horseshoe ,49.34622,-91.84931,49,3,4,91,8,4,15-5833-54665,Horseshoe,,15-5833-54665 Horseshoe ,TRUE,3,
15-6015-54420,Irene ,49.1255,-91.60496,49,1,2,91,6,0,15-6015-54420,Irene,,15-6015-54420 Irene ,TRUE,3,
15-5849-54406,Jackfish ,49.11265,-91.83538,49,1,1,91,8,3,15-5849-54406,Jackfish,,15-5849-54406 Jackfish ,TRUE,3,
15-4953-54441,James ,49.15209,-93.06429,49,1,5,93,0,6,15-4953-54441,James,,15-4953-54441 James ,TRUE,3,
15-5958-53772,Jean ,48.53435,-91.7363,48,5,3,91,7,3,15-5958-53772,Jean,,15-5958-53772 Jean ,TRUE,3,
15-6126-53450,Kahshahpiwi ,48.2466,-91.47747,48,2,4,91,4,7,15-6126-53450,Kahshahpiwi,,15-6126-53450 Kahshahpiwi ,TRUE,3,
15-4710-54335,Kaiashkons ,49.05496,-93.39573,49,0,5,93,3,9,15-4710-54335,Kaiashkons,,15-4710-54335 Kaiashkons ,TRUE,3,
15-4390-54514,Kakagi ,49.24073,-93.83253,49,2,4,93,8,3,15-4390-54514,Kakagi,,15-4390-54514 Kakagi ,TRUE,3,
15-4479-54411,Katimiagamak ,49.12173,-93.7193,49,1,2,93,7,1,15-4479-54411,Katimiagamak,,15-4479-54411 Katimiagamak ,TRUE,3,
15-6315-54021,Kawene ,48.7611,-91.20623,48,7,6,91,2,0,15-6315-54021,Kawene,,15-6315-54021 Kawene ,TRUE,3,
15-6111-54547,Kay ,49.23546,-91.47242,49,2,3,91,4,7,15-6111-54547,Kay,,15-6111-54547 Kay ,TRUE,3,
15-6183-53673,Keats ,48.44918,-91.39669,48,4,4,91,3,9,15-6183-53673,Keats,,15-6183-53673 Keats ,TRUE,3,
15-5630-53553,Lac la Croix,48.34301,-92.11241,48,3,4,92,1,1,15-5630-53553,Lac,la,15-5630-53553 Lac la Croix,FALSE,4, Croix
15-5276-54985,Larson ,49.63867,-92.61703,49,6,3,92,6,1,15-5276-54985,Larson,,15-5276-54985 Larson ,TRUE,3,
15-4729-54570,Lawrence ,49.27504,-93.36566,49,2,7,93,3,6,15-4729-54570,Lawrence,,15-4729-54570 Lawrence ,TRUE,3,
15-5464-53494,Lilac ,48.29901,-92.37509,48,2,9,92,3,7,15-5464-53494,Lilac,,15-5464-53494 Lilac ,TRUE,3,
15-4452-55268,Little Gordon ,49.89284,-93.76337,49,8,9,93,7,6,15-4452-55268,Little,Gordon,15-4452-55268 Little Gordon ,FALSE,4, 
15-4403-54276,Little Kishkutena ,48.99737,-93.80884,48,9,9,93,8,0,15-4403-54276,Little,Kishkutena,15-4403-54276 Little Kishkutena ,FALSE,4, 
15-5221-54041,Little Turtle ,48.78047,-92.68563,48,7,8,92,6,8,15-5221-54041,Little,Turtle,15-5221-54041 Little Turtle ,FALSE,4, 
15-5477-54774,Long ,49.44607,-92.32731,49,4,4,92,3,2,15-5477-54774,Long,,15-5477-54774 Long ,TRUE,3,
15-4058-55081,Longbow ,49.71891,-94.29528,49,7,1,94,2,9,15-4058-55081,Longbow,,15-4058-55081 Longbow ,TRUE,3,
15-4632-54287,Loonhaunt ,49.002,-93.50355,49,0,0,93,5,0,15-4632-54287,Loonhaunt,,15-4632-54287 Loonhaunt ,TRUE,3,
15-6250-53348,Louisa ,48.1557,-91.32066,48,1,5,91,3,2,15-6250-53348,Louisa,,15-6250-53348 Louisa ,TRUE,3,
15-5023-54567,Lower Manitou ,49.27811,-92.94807,49,2,7,92,9,4,15-5023-54567,Lower,Manitou,15-5023-54567 Lower Manitou ,FALSE,4, 
15-4454-55169,Lower Stewart ,49.80052,-93.75978,49,8,0,93,7,5,15-4454-55169,Lower,Stewart,15-4454-55169 Lower Stewart ,FALSE,4, 
15-5159-54211,Lowry ,48.94751,-92.77819,48,9,4,92,7,7,15-5159-54211,Lowry,,15-5159-54211 Lowry ,TRUE,3,
15-6480-53625,Mack ,48.39067,-90.99822,48,3,9,90,9,9,15-6480-53625,Mack,,15-6480-53625 Mack ,TRUE,3,
15-3559-55281,Malachi ,49.89658,-95.00767,49,8,9,95,0,0,15-3559-55281,Malachi,,15-3559-55281 Malachi ,TRUE,3,
15-5502-54176,Manion ,48.90942,-92.31834,48,9,0,92,3,1,15-5502-54176,Manion,,15-5502-54176 Manion ,TRUE,3,
15-6065-54144,Marmion ,48.89674,-91.51896,48,8,9,91,5,1,15-6065-54144,Marmion,,15-6065-54144 Marmion ,TRUE,3,
15-5787-53500,McAree ,48.28734,-91.92461,48,2,8,91,9,2,15-5787-53500,McAree,,15-5787-53500 McAree ,TRUE,3,
15-5752-53953,McCaulay ,48.70827,-91.97711,48,7,0,91,9,7,15-5752-53953,McCaulay,,15-5752-53953 McCaulay ,TRUE,3,
15-6348-53492,McEwen ,48.2938,-91.17707,48,2,9,91,1,7,15-6348-53492,McEwen,,15-6348-53492 McEwen ,TRUE,3,
15-6383-54085,Mercutio ,48.80983,-91.09871,48,8,0,91,0,9,15-6383-54085,Mercutio,,15-6383-54085 Mercutio ,TRUE,3,
15-5159-55030,Mile ,49.68059,-92.78352,49,6,8,92,7,8,15-5159-55030,Mile,,15-5159-55030 Mile ,TRUE,3,
15-5812-53550,Minn ,48.34411,-91.89999,48,3,4,91,8,9,15-5812-53550,Minn,,15-5812-53550 Minn ,TRUE,3,
15-5257-54855,Minnehaha ,49.52331,-92.64373,49,5,2,92,6,4,15-5257-54855,Minnehaha,,15-5257-54855 Minnehaha ,TRUE,3,
15-5600-54290,Mount ,49.01314,-92.18708,49,0,1,92,1,8,15-5600-54290,Mount,,15-5600-54290 Mount ,TRUE,3,
15-5085-54773,Mountain ,49.45028,-92.87849,49,4,5,92,8,7,15-5085-54773,Mountain,,15-5085-54773 Mountain ,TRUE,3,
15-5308-53662,Namakan ,48.45662,-92.58506,48,4,5,92,5,8,15-5308-53662,Namakan,,15-5308-53662 Namakan ,TRUE,3,
15-5842-54507,Nora ,49.19934,-91.85993,49,1,9,91,8,5,15-5842-54507,Nora,,15-5842-54507 Nora ,TRUE,3,
15-6136-53934,Nym ,48.68333,-91.42721,48,6,8,91,4,2,15-6136-53934,Nym,,15-6136-53934 Nym ,TRUE,3,
15-3726-54565,of the Woods,49.32857,-94.50117,49,3,2,94,5,0,15-3726-54565,of,the,15-3726-54565 of the Woods,FALSE,4, Woods
15-4396-54165,Off ,48.90206,-93.83011,48,9,0,93,8,3,15-4396-54165,Off,,15-4396-54165 Off ,TRUE,3,
15-4124-55428,Old Man ,50.03672,-94.22218,50,0,3,94,2,2,15-4124-55428,Old,Man,15-4124-55428 Old Man ,FALSE,4, 
15-6144-53765,Olifaunt ,48.5358,-91.43887,48,5,3,91,4,3,15-6144-53765,Olifaunt,,15-6144-53765 Olifaunt ,TRUE,3,
15-5268-54999,Olsen ,49.65495,-92.62777,49,6,5,92,6,2,15-5268-54999,Olsen,,15-5268-54999 Olsen ,TRUE,3,
15-6375-53394,Other Man ,48.19347,-91.14873,48,1,9,91,1,4,15-6375-53394,Other,Man,15-6375-53394 Other Man ,FALSE,4, 
15-5100-54230,Otukamamoan ,48.96084,-92.89431,48,9,6,92,8,9,15-5100-54230,Otukamamoan,,15-5100-54230 Otukamamoan ,TRUE,3,
15-3662-55240,Pelicanpouch ,49.85536,-94.87014,49,8,5,94,8,7,15-3662-55240,Pelicanpouch,,15-3662-55240 Pelicanpouch ,TRUE,3,
15-5849-53998,Perch ,48.74848,-91.83244,48,7,4,91,8,3,15-5849-53998,Perch,,15-5849-53998 Perch ,TRUE,3,
15-5537-54222,Pettit ,48.94535,-92.26647,48,9,4,92,2,6,15-5537-54222,Pettit,,15-5537-54222 Pettit ,TRUE,3,
15-6146-53867,Pickerel ,48.63384,-91.37177,48,6,3,91,3,7,15-6146-53867,Pickerel,,15-6146-53867 Pickerel ,TRUE,3,
15-3654-55172,Pickerel ,49.79767,-94.8772,49,7,9,94,8,7,15-3654-55172,Pickerel,,15-3654-55172 Pickerel ,TRUE,3,
15-4595-54375,Pipestone ,49.09952,-93.54379,49,0,9,93,5,4,15-4595-54375,Pipestone,,15-4595-54375 Pipestone ,TRUE,3,
15-4127-55299,Plum ,49.90988,-94.21523,49,9,0,94,2,1,15-4127-55299,Plum,,15-4127-55299 Plum ,TRUE,3,
15-5975-53595,Poohbah ,48.38032,-91.6971,48,3,8,91,6,9,15-5975-53595,Poohbah,,15-5975-53595 Poohbah ,TRUE,3,
15-4557-54838,Populus ,49.50585,-93.59764,49,5,0,93,5,9,15-4557-54838,Populus,,15-4557-54838 Populus ,TRUE,3,
15-4390-55083,Porcus ,49.72464,-93.84386,49,7,2,93,8,4,15-4390-55083,Porcus,,15-4390-55083 Porcus ,TRUE,3,
15-4745-54662,Priam ,49.34673,-93.35655,49,3,4,93,3,5,15-4745-54662,Priam,,15-4745-54662 Priam ,TRUE,3,
15-6483-54441,Pyramid ,49.12366,-90.96809,49,1,2,90,9,6,15-6483-54441,Pyramid,,15-6483-54441 Pyramid ,TRUE,3,
15-4877-53939,Rainy ,48.72662,-93.13074,48,7,2,93,1,3,15-4877-53939,Rainy,,15-4877-53939 Rainy ,TRUE,3,
15-3765-54101,Rainy River,48.84651,-94.68436,48,8,4,94,6,8,15-3765-54101,Rainy,River,15-3765-54101 Rainy River,TRUE,3,
15-6076-54043,Rawn Reservoir,48.78507,-91.53701,48,7,8,91,5,3,15-6076-54043,Rawn,Reservoir,15-6076-54043 Rawn Reservoir,TRUE,3,
15-5291-54878,Rock ,49.54187,-92.59614,49,5,4,92,5,9,15-5291-54878,Rock,,15-5291-54878 Rock ,TRUE,3,
15-4593-54629,Rowan ,49.31937,-93.55764,49,3,1,93,5,5,15-4593-54629,Rowan,,15-4593-54629 Rowan ,TRUE,3,
15-5026-55337,Rugby ,49.95675,-92.95825,49,9,5,92,9,5,15-5026-55337,Rugby,,15-5026-55337 Rugby ,TRUE,3,
15-5581-54358,Rutter ,49.07359,-92.20036,49,0,7,92,2,0,15-5581-54358,Rutter,,15-5581-54358 Rutter ,TRUE,3,
15-4161-54445,Sabaskong Bay,49.14518,-94.17126,49,1,4,94,1,7,15-4161-54445,Sabaskong,Bay,15-4161-54445 Sabaskong Bay,TRUE,3,
15-6508-53496,Saganagons ,48.29466,-90.97617,48,2,9,90,9,7,15-6508-53496,Saganagons,,15-6508-53496 Saganagons ,TRUE,3,
15-5586-54227,Sandbeach ,48.95915,-92.20128,48,9,5,92,2,0,15-5586-54227,Sandbeach,,15-5586-54227 Sandbeach ,TRUE,3,
15-5955-54404,Sandford ,49.10844,-91.68457,49,1,0,91,6,8,15-5955-54404,Sandford,,15-5955-54404 Sandford ,TRUE,3,
15-6052-53411,Sarah ,48.20644,-91.58065,48,2,0,91,5,8,15-6052-53411,Sarah,,15-6052-53411 Sarah ,TRUE,3,
15-6135-54228,Sawbill Bay,48.96026,-91.44366,48,9,6,91,4,4,15-6135-54228,Sawbill,Bay,15-6135-54228 Sawbill Bay,TRUE,3,
15-5206-54600,Scattergood ,49.29686,-92.71694,49,2,9,92,7,1,15-5206-54600,Scattergood,,15-5206-54600 Scattergood ,TRUE,3,
15-4562-54445,Schistose ,49.15469,-93.60163,49,1,5,93,6,0,15-4562-54445,Schistose,,15-4562-54445 Schistose ,TRUE,3,
15-6345-54482,Scotch ,49.15786,-91.17121,49,1,5,91,1,7,15-6345-54482,Scotch,,15-6345-54482 Scotch ,TRUE,3,
15-5627-54364,Secret ,49.07877,-92.14008,49,0,7,92,1,4,15-5627-54364,Secret,,15-5627-54364 Secret ,TRUE,3,
15-6253-53286,Sheridan ,48.10453,-91.32542,48,1,0,91,3,2,15-6253-53286,Sheridan,,15-6253-53286 Sheridan ,TRUE,3,
15-3541-54903,Shoal ,49.54735,-94.94029,49,5,4,94,9,4,15-3541-54903,Shoal,,15-3541-54903 Shoal ,TRUE,3,
15-4351-55357,Shrub ,49.97099,-93.89782,49,9,7,93,8,9,15-4351-55357,Shrub,,15-4351-55357 Shrub ,TRUE,3,
15-4153-55253,Silver ,49.87618,-94.17702,49,8,7,94,1,7,15-4153-55253,Silver,,15-4153-55253 Silver ,TRUE,3,
15-3795-55615,Snook ,50.1919,-94.70272,50,1,9,94,7,0,15-3795-55615,Snook,,15-3795-55615 Snook ,TRUE,3,
15-5634-54332,NA,49.04998,-92.1326,49,0,4,92,1,3,15-5634-54332,"NA",NA,15-5634-54332 NA,FALSE,2,
15-3523-55336,South Scot ,49.93666,-95.05632,49,9,3,95,0,5,15-3523-55336,South,Scot,15-3523-55336 South Scot ,FALSE,4, 
15-5449-54565,South Wapageisi ,49.26695,-92.38208,49,2,6,92,3,8,15-5449-54565,South,Wapageisi,15-5449-54565 South Wapageisi ,FALSE,4, 
15-5979-54059,Steep Rock ,48.79669,-91.6697,48,7,9,91,6,6,15-5979-54059,Steep,Rock,15-5979-54059 Steep Rock ,FALSE,4, 
15-5503-54708,Stormy ,49.39447,-92.34669,49,3,9,92,3,4,15-5503-54708,Stormy,,15-5503-54708 Stormy ,TRUE,3,
15-4785-54790,Tadpole ,49.47038,-93.29066,49,4,7,93,2,9,15-4785-54790,Tadpole,,15-4785-54790 Tadpole ,TRUE,3,
15-3751-54564,The Little Traverse,49.25922,-94.71662,49,2,5,94,7,1,15-3751-54564,The,Little,15-3751-54564 The Little Traverse,FALSE,4, Traverse
15-6332-53357,This Man ,48.16447,-91.2036,48,1,6,91,2,0,15-6332-53357,This,Man,15-6332-53357 This Man ,FALSE,4, 
15-5527-53591,Thompson ,48.38777,-92.27777,48,3,8,92,2,7,15-5527-53591,Thompson,,15-5527-53591 Thompson ,TRUE,3,
15-5241-55137,Thunder ,49.77882,-92.66332,49,7,7,92,6,6,15-5241-55137,Thunder,,15-5241-55137 Thunder ,TRUE,3,
15-5153-55007,Trap ,49.66182,-92.78292,49,6,6,92,7,8,15-5153-55007,Trap,,15-5153-55007 Trap ,TRUE,3,
15-5770-54220,Turtle ,48.95315,-91.94003,48,9,5,91,9,4,15-5770-54220,Turtle,,15-5770-54220 Turtle ,TRUE,3,
15-6493-54089,Union ,48.82795,-90.97053,48,8,2,90,9,7,15-6493-54089,Union,,15-6493-54089 Union ,TRUE,3,
15-4356-54806,NA,49.47489,-93.8864,49,4,7,93,8,8,15-4356-54806,"NA",NA,15-4356-54806 NA,FALSE,2,
15-5149-54725,Upper Manitou ,49.40161,-92.77724,49,4,0,92,7,7,15-5149-54725,Upper,Manitou,15-5149-54725 Upper Manitou ,FALSE,4, 
15-4943-54343,Vista ,49.06245,-93.08016,49,0,6,93,0,8,15-4943-54343,Vista,,15-4943-54343 Vista ,TRUE,3,
15-5203-55093,Wabigoon ,49.73222,-92.72928,49,7,3,92,7,2,15-5203-55093,Wabigoon,,15-5203-55093 Wabigoon ,TRUE,3,
15-5472-54633,Wapageisi ,49.32443,-92.35219,49,3,2,92,3,5,15-5472-54633,Wapageisi,,15-5472-54633 Wapageisi ,TRUE,3,
15-4579-53993,Wasaw ,48.7446,-93.57514,48,7,4,93,5,7,15-4579-53993,Wasaw,,15-4579-53993 Wasaw ,TRUE,3,
15-5684-54631,NA,49.31937,-92.05985,49,3,1,92,0,5,15-5684-54631,"NA",NA,15-5684-54631 NA,FALSE,2,
15-4512-54200,West Jackfish ,48.93632,-93.66605,48,9,3,93,6,6,15-4512-54200,West,Jackfish,15-4512-54200 West Jackfish ,FALSE,4, 
15-5816-54402,White Otter ,49.09057,-91.86311,49,0,9,91,8,6,15-5816-54402,White,Otter,15-5816-54402 White Otter ,FALSE,4, 
15-4174-54694,Whitefish Bay,49.37366,-94.13811,49,3,7,94,1,3,15-4174-54694,Whitefish,Bay,15-4174-54694 Whitefish Bay,TRUE,3,
15-3532-55170,Whitefish ,49.78718,-95.03457,49,7,8,95,0,3,15-3532-55170,Whitefish,,15-3532-55170 Whitefish ,TRUE,3,
15-5275-54864,Whitewater ,49.53029,-92.62148,49,5,3,92,6,2,15-5275-54864,Whitewater,,15-5275-54864 Whitewater ,TRUE,3,
15-4417-55173,Windermere ,49.80534,-93.80573,49,8,0,93,8,0,15-4417-55173,Windermere,,15-4417-55173 Windermere ,TRUE,3,
15-4495-55118,Winnange ,49.75528,-93.70447,49,7,5,93,7,0,15-4495-55118,Winnange,,15-4495-55118 Winnange ,TRUE,3,
15-5678-53647,Wolseley ,48.43632,-92.08719,48,4,3,92,0,8,15-5678-53647,Wolseley,,15-5678-53647 Wolseley ,TRUE,3,
15-5813-53685,Your ,48.47117,-91.88797,48,4,7,91,8,8,15-5813-53685,Your,,15-5813-53685 Your ,TRUE,3,
15-5510-54322,NA,49.0399,-92.30277,49,0,3,92,3,0,15-5510-54322,"NA",NA,15-5510-54322 NA,FALSE,2,
16-3670-54288,Abigogami ,48.99719,-88.82025,48,9,9,88,8,2,16-3670-54288,Abigogami,,16-3670-54288 Abigogami ,TRUE,3,
15-6910-53378,Addie ,48.16665,-90.42954,48,1,6,90,4,2,15-6910-53378,Addie,,15-6910-53378 Addie ,TRUE,3,
16-3577-54402,Arnott ,49.09594,-88.95538,49,0,9,88,9,5,16-3577-54402,Arnott,,16-3577-54402 Arnott ,TRUE,3,
15-7025-53379,Arrow ,48.15855,-90.26498,48,1,5,90,2,6,15-7025-53379,Arrow,,15-7025-53379 Arrow ,TRUE,3,
16-3431-54406,Arrowroot ,49.10807,-89.15595,49,1,0,89,1,5,16-3431-54406,Arrowroot,,16-3431-54406 Arrowroot ,TRUE,3,
15-7050-54058,Athelstane ,48.77457,-90.20796,48,7,7,90,2,0,15-7050-54058,Athelstane,,15-7050-54058 Athelstane ,TRUE,3,
15-7097-53434,Atik ,48.21094,-90.17813,48,2,1,90,1,7,15-7097-53434,Atik,,15-7097-53434 Atik ,TRUE,3,
16-2858-55459,NA,50.02724,-89.98958,50,0,2,89,9,8,16-2858-55459,"NA",NA,16-2858-55459 NA,FALSE,2,
15-6650-54018,Baril ,48.75029,-90.75708,48,7,5,90,7,5,15-6650-54018,Baril,,15-6650-54018 Baril ,TRUE,3,
15-7091-53688,Batwing ,48.44209,-90.17355,48,4,4,90,1,7,15-7091-53688,Batwing,,15-7091-53688 Batwing ,TRUE,3,
16-4566-55070,Beatty ,49.71792,-87.60467,49,7,1,87,6,0,16-4566-55070,Beatty,,16-4566-55070 Beatty ,TRUE,3,
15-5145-54588,Beck ,49.28111,-92.81491,49,2,8,92,8,1,15-5145-54588,Beck,,15-5145-54588 Beck ,TRUE,3,
16-3582-53944,NA,48.68681,-88.92751,48,6,8,88,9,2,16-3582-53944,"NA",NA,16-3582-53944 NA,FALSE,2,
15-6578-54141,Bedivere ,48.86818,-90.84937,48,8,6,90,8,4,15-6578-54141,Bedivere,,15-6578-54141 Bedivere ,TRUE,3,
16-3738-53990,Bigger ,48.73271,-88.7152,48,7,3,88,7,1,16-3738-53990,Bigger,,16-3738-53990 Bigger ,TRUE,3,
16-3706-53956,Bisect ,48.70281,-88.75896,48,7,0,88,7,5,16-3706-53956,Bisect,,16-3706-53956 Bisect ,TRUE,3,
16-3634-54687,Black Sturgeon ,49.35824,-88.87211,49,3,5,88,8,7,16-3634-54687,Black,Sturgeon,16-3634-54687 Black Sturgeon ,FALSE,4, 
15-7020-53669,Blunder ,48.42444,-90.26943,48,4,2,90,2,6,15-7020-53669,Blunder,,15-7020-53669 Blunder ,TRUE,3,
15-6869-55111,Brightsand ,49.72309,-90.40666,49,7,2,90,4,0,15-6869-55111,Brightsand,,15-6869-55111 Brightsand ,TRUE,3,
16-3411-55531,Bukemiga ,50.11444,-89.2204,50,1,1,89,2,2,16-3411-55531,Bukemiga,,16-3411-55531 Bukemiga ,TRUE,3,
15-6747-53842,Burchell ,48.58834,-90.62706,48,5,8,90,6,2,15-6747-53842,Burchell,,15-6747-53842 Burchell ,TRUE,3,
15-6584-54061,Burnt Island ,48.79053,-90.841309999999993,48,7,9,90,8,4,15-6584-54061,Burnt,Island,15-6584-54061 Burnt Island ,FALSE,4, 
16-3637-55505,Camel Read ,50.09411,-88.90322,50,0,9,88,9,0,16-3637-55505,Camel,Read,16-3637-55505 Camel Read ,FALSE,4, 
15-7164-53390,Cameron ,48.16948,-90.0888,48,1,6,90,0,8,15-7164-53390,Cameron,,15-7164-53390 Cameron ,TRUE,3,
15-6896-54026,Camp ,48.74852,-90.42086,48,7,4,90,4,2,15-6896-54026,Camp,,15-6896-54026 Camp ,TRUE,3,
15-7176-53418,Castle ,48.19412,-90.07267,48,1,9,90,0,7,15-7176-53418,Castle,,15-7176-53418 Castle ,TRUE,3,
16-3663-55543,Castle ,50.1269,-88.87219,50,1,2,88,8,7,16-3663-55543,Castle,,16-3663-55543 Castle ,TRUE,3,
16-3778-54100,Cavern ,48.8321,-88.66491,48,8,3,88,6,6,16-3778-54100,Cavern,,16-3778-54100 Cavern ,TRUE,3,
15-6795-53776,Church ,48.52654,-90.56936,48,5,2,90,5,6,15-6795-53776,Church,,15-6795-53776 Church ,TRUE,3,
16-3534-54692,Circle ,49.35977,-89.01858,49,3,5,89,0,1,16-3534-54692,Circle,,16-3534-54692 Circle ,TRUE,3,
16-3718-54003,Clegge ,48.74428,-88.7448,48,7,4,88,7,4,16-3718-54003,Clegge,,16-3718-54003 Clegge ,TRUE,3,
16-3700-54335,Cliff ,49.04188,-88.77821,49,0,4,88,7,7,16-3700-54335,Cliff,,16-3700-54335 Cliff ,TRUE,3,
16-3108-53342,Cloud ,48.13648,-89.54093,48,1,3,89,5,4,16-3108-53342,Cloud,,16-3108-53342 Cloud ,TRUE,3,
15-6758-53944,Crayfish ,48.68673,-90.6148,48,6,8,90,6,1,15-6758-53944,Crayfish,,15-6758-53944 Crayfish ,TRUE,3,
16-3297-55263,Crevasse ,49.86587,-89.37235,49,8,6,89,3,7,16-3297-55263,Crevasse,,16-3297-55263 Crevasse ,TRUE,3,
16-3557-55322,Cry ,49.92643,-89.01587,49,9,2,89,0,1,16-3557-55322,Cry,,16-3557-55322 Cry ,TRUE,3,
15-7039-53810,Dakota ,48.55075,-90.23783,48,5,5,90,2,3,15-7039-53810,Dakota,,15-7039-53810 Dakota ,TRUE,3,
16-3712-53869,Deception ,48.62456,-88.74729,48,6,2,88,7,4,16-3712-53869,Deception,,16-3712-53869 Deception ,TRUE,3,
16-3103-54530,Lac des Iles,49.20226,-89.61011,49,2,0,89,6,1,16-3103-54530,Lac,des,16-3103-54530 Lac des Iles,FALSE,4, Iles
15-6827-54135,Lac des Mille Lacs,48.87653,-90.51282,48,8,7,90,5,1,15-6827-54135,Lac,des,15-6827-54135 Lac des Mille Lacs,FALSE,5, Mille Lacs
16-3551-54440,Disraeli ,49.13422,-88.982,49,1,3,88,9,8,16-3551-54440,Disraeli,,16-3551-54440 Disraeli ,TRUE,3,
16-3132-54041,Dog ,48.77812,-89.51281,48,7,7,89,5,1,16-3132-54041,Dog,,16-3132-54041 Dog ,TRUE,3,
16-3589-54402,Eileen ,49.1049,-88.94168,49,1,0,88,9,4,16-3589-54402,Eileen,,16-3589-54402 Eileen ,TRUE,3,
16-4433-55531,Elbow ,50.1298,-87.7934,50,1,2,87,7,9,16-4433-55531,Elbow,,16-4433-55531 Elbow ,TRUE,3,
16-3724-53943,Elbow ,48.6909,-88.73401,48,6,9,88,7,3,16-3724-53943,Elbow,,16-3724-53943 Elbow ,TRUE,3,
15-6577-53565,Elevation ,48.3436,-90.87116,48,3,4,90,8,7,15-6577-53565,Elevation,,15-6577-53565 Elevation ,TRUE,3,
15-6979-55108,Empire ,49.71999,-90.24726,49,7,1,90,2,4,15-6979-55108,Empire,,15-6979-55108 Empire ,TRUE,3,
15-6946-53876,Loch Erne,48.6134,-90.36049,48,6,1,90,3,6,15-6946-53876,Loch,Erne,15-6946-53876 Loch Erne,TRUE,3,
16-3820-54468,Eskwanonwatin ,49.16487,-88.61939,49,1,6,88,6,1,16-3820-54468,Eskwanonwatin,,16-3820-54468 Eskwanonwatin ,TRUE,3,
16-3800-54060,Fall ,48.79728,-88.63329,48,7,9,88,6,3,16-3800-54060,Fall,,16-3800-54060 Fall ,TRUE,3,
16-2930-53355,Fallingsnow ,48.14185,-89.7849,48,1,4,89,7,8,16-2930-53355,Fallingsnow,,16-2930-53355 Fallingsnow ,TRUE,3,
16-3647-54369,Forbes ,49.07171,-88.85291,49,0,7,88,8,5,16-3647-54369,Forbes,,16-3647-54369 Forbes ,TRUE,3,
15-6696-53978,Fork ,48.71272,-90.69343,48,7,1,90,6,9,15-6696-53978,Fork,,15-6696-53978 Fork ,TRUE,3,
16-4359-55570,Frank ,50.16218,-87.90603,50,1,6,87,9,0,16-4359-55570,Frank,,16-4359-55570 Frank ,TRUE,3,
16-3884-54562,Frazer ,49.24882,-88.52882,49,2,4,88,5,2,16-3884-54562,Frazer,,16-3884-54562 Frazer ,TRUE,3,
16-3319-54724,Gennis ,49.38988,-89.32933,49,3,8,89,3,2,16-3319-54724,Gennis,,16-3319-54724 Gennis ,TRUE,3,
15-6635-53388,Gneiss ,48.18027,-90.80286,48,1,8,90,8,0,15-6635-53388,Gneiss,,15-6635-53388 Gneiss ,TRUE,3,
15-6959-55251,NA,49.84691,-90.27474,49,8,4,90,2,7,15-6959-55251,"NA",NA,15-6959-55251 NA,FALSE,2,
15-6904-53837,Greenwater ,48.57454,-90.42999,48,5,7,90,4,2,15-6904-53837,Greenwater,,15-6904-53837 Greenwater ,TRUE,3,
16-3638-54070,Greenwich ,48.80501,-88.85841,48,8,0,88,8,5,16-3638-54070,Greenwich,,16-3638-54070 Greenwich ,TRUE,3,
15-6648-53638,Greenwood ,48.41068,-90.77609,48,4,1,90,7,7,15-6648-53638,Greenwood,,15-6648-53638 Greenwood ,TRUE,3,
15-7088-54764,Grew ,49.40645,-90.12211,49,4,0,90,1,2,15-7088-54764,Grew,,15-7088-54764 Grew ,TRUE,3,
15-6812-53794,Grouse ,48.54321,-90.54489,48,5,4,90,5,4,15-6812-53794,Grouse,,15-6812-53794 Grouse ,TRUE,3,
15-6725-53298,Gunflint ,48.10279,-90.69133,48,1,0,90,6,9,15-6725-53298,Gunflint,,15-6725-53298 Gunflint ,TRUE,3,
16-4013-54300,Hansi ,49.02274,-88.34887,49,0,2,88,3,4,16-4013-54300,Hansi,,16-4013-54300 Hansi ,TRUE,3,
15-6985-55358,Harmon ,49.94546,-90.21669,49,9,4,90,2,1,15-6985-55358,Harmon,,15-6985-55358 Harmon ,TRUE,3,
16-3199-53954,Hawkeye ,48.68599,-89.45228,48,6,8,89,4,5,16-3199-53954,Hawkeye,,16-3199-53954 Hawkeye ,TRUE,3,
15-6982-54104,Henderson ,48.81349,-90.29447,48,8,1,90,2,9,15-6982-54104,Henderson,,15-6982-54104 Henderson ,TRUE,3,
16-3752-53979,Hilma ,48.72363,-88.6958,48,7,2,88,6,9,16-3752-53979,Hilma,,16-3752-53979 Hilma ,TRUE,3,
16-2880-54647,Hine ,49.29861,-89.919,49,2,9,89,9,1,16-2880-54647,Hine,,16-2880-54647 Hine ,TRUE,3,
16-3069-55034,Holinshead ,49.65403,-89.68153,49,6,5,89,6,8,16-3069-55034,Holinshead,,16-3069-55034 Holinshead ,TRUE,3,
15-7111-54802,Holly ,49.43642,-90.08177,49,4,3,90,0,8,15-7111-54802,Holly,,15-7111-54802 Holly ,TRUE,3,
15-6539-53616,Home ,48.39187,-90.91955,48,3,9,90,9,1,15-6539-53616,Home,,15-6539-53616 Home ,TRUE,3,
15-6735-53727,Hood ,48.48629,-90.65282,48,4,8,90,6,5,15-6735-53727,Hood,,15-6735-53727 Hood ,TRUE,3,
16-3724-53935,Hunters s,48.68849,-88.73973,48,6,8,88,7,3,16-3724-53935,Hunters,s,16-3724-53935 Hunters s,TRUE,3,
15-6641-53950,Huronian ,48.68758,-90.77235,48,6,8,90,7,7,15-6641-53950,Huronian,,15-6641-53950 Huronian ,TRUE,3,
15-6814-53436,Icarus ,48.22011,-90.57186,48,2,2,90,5,7,15-6814-53436,Icarus,,15-6814-53436 Icarus ,TRUE,3,
16-3750-54094,Innes ,48.82849,-88.70686,48,8,2,88,7,0,16-3750-54094,Innes,,16-3750-54094 Innes ,TRUE,3,
15-6979-53586,Jacob ,48.35246,-90.32642,48,3,5,90,3,2,15-6979-53586,Jacob,,15-6979-53586 Jacob ,TRUE,3,
16-3207-54488,Jolly ,49.16785,-89.45932,49,1,6,89,4,5,16-3207-54488,Jolly,,16-3207-54488 Jolly ,TRUE,3,
15-6986-53540,Kamikau ,48.30997,-90.3213,48,3,0,90,3,2,15-6986-53540,Kamikau,,15-6986-53540 Kamikau ,TRUE,3,
15-6913-53983,Kashabowie ,48.71886,-90.39423,48,7,1,90,3,9,15-6913-53983,Kashabowie,,15-6913-53983 Kashabowie ,TRUE,3,
16-2863-55212,Kashishibog ,49.80782,-89.97097,49,8,0,89,9,7,16-2863-55212,Kashishibog,,16-2863-55212 Kashishibog ,TRUE,3,
15-7008-55644,Kawaweogama ,50.19687,-90.18618,50,1,9,90,1,8,15-7008-55644,Kawaweogama,,15-7008-55644 Kawaweogama ,TRUE,3,
15-7163-54881,Kearns ,49.50753,-90.01676,49,5,0,90,0,1,15-7163-54881,Kearns,,15-7163-54881 Kearns ,TRUE,3,
15-7067-53777,Kekekuab ,48.51593,-90.20803,48,5,1,90,2,0,15-7067-53777,Kekekuab,,15-7067-53777 Kekekuab ,TRUE,3,
15-6763-54017,NA,48.7435,-90.60175,48,7,4,90,6,0,15-6763-54017,"NA",NA,15-6763-54017 NA,FALSE,2,
15-7307-50900,Lac du Milieu,48.92549,-90.00708,48,9,2,90,0,0,15-7307-50900,Lac,du,15-7307-50900 Lac du Milieu,FALSE,4, Milieu
15-6767-55061,Little Metionga ,49.68166,-90.53998,49,6,8,90,5,3,15-6767-55061,Little,Metionga,15-6767-55061 Little Metionga ,FALSE,4, 
16-3657-54310,Little Moraine ,49.01989,-88.83585,49,0,1,88,8,3,16-3657-54310,Little,Moraine,16-3657-54310 Little Moraine ,FALSE,4, 
16-3608-54522,Little Sturge ,49.21193,-88.90847,49,2,1,88,9,0,16-3608-54522,Little,Sturge,16-3608-54522 Little Sturge ,FALSE,4, 
15-6510-53885,Little Trout ,48.64278,-90.9567,48,6,4,90,9,5,15-6510-53885,Little,Trout,15-6510-53885 Little Trout ,FALSE,4, 
16-7074-53606,Loch Lomond,48.37071,-84.19517,48,3,7,84,1,9,16-7074-53606,Loch,Lomond,16-7074-53606 Loch Lomond,TRUE,3,
15-7085-54809,Loganberry ,49.44536,-90.13101,49,4,4,90,1,3,15-7085-54809,Loganberry,,15-7085-54809 Loganberry ,TRUE,3,
16-3272-53473,Loch Lomond,48.25705,-89.32431,48,2,5,89,3,2,16-3272-53473,Loch,Lomond,16-3272-53473 Loch Lomond,TRUE,3,
16-3725-53994,Long ,48.73714,-88.73431,48,7,3,88,7,3,16-3725-53994,Long,,16-3725-53994 Long ,TRUE,3,
16-4080-53975,NA,48.72577,-88.25103,48,7,2,88,2,5,16-4080-53975,"NA",NA,16-4080-53975 NA,FALSE,2,
15-7089-53866,Lower Shebandowan ,48.61245,-90.17507,48,6,1,90,1,7,15-7089-53866,Lower,Shebandowan,15-7089-53866 Lower Shebandowan ,FALSE,4, 
16-3752-54002,MacIntosh ,48.74456,-88.69785,48,7,4,88,6,9,16-3752-54002,MacIntosh,,16-3752-54002 MacIntosh ,TRUE,3,
16-3699-53994,Mackenzie ,48.73581,-88.76982,48,7,3,88,7,6,16-3699-53994,Mackenzie,,16-3699-53994 Mackenzie ,TRUE,3,
16-3237-55525,Maggotte ,50.10119,-89.46517,50,1,0,89,4,6,16-3237-55525,Maggotte,,16-3237-55525 Maggotte ,TRUE,3,
15-6663-53296,Magnetic ,48.10664,-90.7573,48,1,0,90,7,5,15-6663-53296,Magnetic,,15-6663-53296 Magnetic ,TRUE,3,
16-3477-53867,Magone ,48.61432,-89.06171,48,6,1,89,0,6,16-3477-53867,Magone,,16-3477-53867 Magone ,TRUE,3,
16-3666-53602,Marie Louise ,48.38319,-88.80144,48,3,8,88,8,0,16-3666-53602,Marie,Louise,16-3666-53602 Marie Louise ,FALSE,4, 
16-2901-53647,Marks ,48.4031,-89.83696,48,4,0,89,8,3,16-2901-53647,Marks,,16-2901-53647 Marks ,TRUE,3,
16-3530-53926,NA,48.66914,-88.99708,48,6,6,88,9,9,16-3530-53926,"NA",NA,16-3530-53926 NA,FALSE,2,
15-6824-55113,Metionga ,49.72717,-90.47071,49,7,2,90,4,7,15-6824-55113,Metionga,,15-6824-55113 Metionga ,TRUE,3,
15-7026-53901,Middle Shebandowan ,48.64559,-90.26705,48,6,4,90,2,6,15-7026-53901,Middle,Shebandowan,15-7026-53901 Middle Shebandowan ,FALSE,4, 
16-3803-54067,Miner ,48.80311,-88.62951,48,8,0,88,6,2,16-3803-54067,Miner,,16-3803-54067 Miner ,TRUE,3,
15-7171-53313,Moose ,48.10404,-90.08082,48,1,0,90,0,8,15-7171-53313,Moose,,15-7171-53313 Moose ,TRUE,3,
16-3644-54282,Moraine ,48.98836,-88.85198,48,9,8,88,8,5,16-3644-54282,Moraine,,16-3644-54282 Moraine ,TRUE,3,
15-7072-53309,Mountain ,48.1093,-90.22469,48,1,0,90,2,2,15-7072-53309,Mountain,,15-7072-53309 Mountain ,TRUE,3,
15-6672-53552,Mowe ,48.33174,-90.74281,48,3,3,90,7,4,15-6672-53552,Mowe,,15-6672-53552 Mowe ,TRUE,3,
15-7156-54333,Muskeg ,49.01629,-90.04908,49,0,1,90,0,4,15-7156-54333,Muskeg,,15-7156-54333 Muskeg ,TRUE,3,
16-3593-54568,Muskrat ,49.25292,-88.94318,49,2,5,88,9,4,16-3593-54568,Muskrat,,16-3593-54568 Muskrat ,TRUE,3,
15-6681-53680,Myrt ,48.44354,-90.7278,48,4,4,90,7,2,15-6681-53680,Myrt,,15-6681-53680 Myrt ,TRUE,3,
16-3680-53921,Nalla ,48.6695,-88.79215,48,6,6,88,7,9,16-3680-53921,Nalla,,16-3680-53921 Nalla ,TRUE,3,
15-6828-53703,Nelson ,48.46221,-90.52889,48,4,6,90,5,2,15-6828-53703,Nelson,,15-6828-53703 Nelson ,TRUE,3,
16-3921-55210,Nipigon,49.82331,-88.51794,49,8,2,88,5,1,16-3921-55210,Nipigon,NA,16-3921-55210 Nipigon,FALSE,2,
16-3742-54014,Nolan ,48.75422,-88.71122,48,7,5,88,7,1,16-3742-54014,Nolan,,16-3742-54014 Nolan ,TRUE,3,
16-3807-54539,Nonwatinose ,49.22744,-88.63778,49,2,2,88,6,3,16-3807-54539,Nonwatinose,,16-3807-54539 Nonwatinose ,TRUE,3,
15-6844-53328,North ,48.12228,-90.52495,48,1,2,90,5,2,15-6844-53328,North,,15-6844-53328 North ,TRUE,3,
15-6723-53466,Northern Light ,48.24446,-90.6759,48,2,4,90,6,7,15-6723-53466,Northern,Light,15-6723-53466 Northern Light ,FALSE,4, 
16-3346-55390,Obonga ,49.97411,-89.3113,49,9,7,89,3,1,16-3346-55390,Obonga,,16-3346-55390 Obonga ,TRUE,3,
16-3081-53489,Oliver ,48.26566,-89.58774,48,2,6,89,5,8,16-3081-53489,Oliver,,16-3081-53489 Oliver ,TRUE,3,
16-4000-54670,Oskawe ,49.34929,-88.37581,49,3,4,88,3,7,16-4000-54670,Oskawe,,16-4000-54670 Oskawe ,TRUE,3,
15-6981-54703,Pakashkan ,49.39128,-90.27892,49,3,9,90,2,7,15-6981-54703,Pakashkan,,15-6981-54703 Pakashkan ,TRUE,3,
16-3488-53829,Penassen s,48.58443,-89.04505,48,5,8,89,0,4,16-3488-53829,Penassen,s,16-3488-53829 Penassen s,TRUE,3,
16-2870-53613,Pete ,48.37073,-89.87766,48,3,7,89,8,7,16-2870-53613,Pete,,16-2870-53613 Pete ,TRUE,3,
16-4521-55219,Pinel ,49.85723,-87.67222,49,8,5,87,6,7,16-4521-55219,Pinel,,16-4521-55219 Pinel ,TRUE,3,
16-3708-54345,Pringle ,49.05233,-88.76841,49,0,5,88,7,6,16-3708-54345,Pringle,,16-3708-54345 Pringle ,TRUE,3,
16-3964-54451,Purdom ,49.15261,-88.4217,49,1,5,88,4,2,16-3964-54451,Purdom,,16-3964-54451 Purdom ,TRUE,3,
16-3690-53967,Question Mark ,48.71159,-88.78007,48,7,1,88,7,8,16-3690-53967,Question,Mark,16-3690-53967 Question Mark ,FALSE,4, 
16-3610-55699,Randolph ,50.27741,-88.96094,50,2,7,88,9,6,16-3610-55699,Randolph,,16-3610-55699 Randolph ,TRUE,3,
15-6734-54596,Redfox ,49.269,-90.60274,49,2,6,90,6,0,15-6734-54596,Redfox,,15-6734-54596 Redfox ,TRUE,3,
15-6569-53648,Redfox ,48.4187,-90.88119,48,4,1,90,8,8,15-6569-53648,Redfox,,15-6569-53648 Redfox ,TRUE,3,
15-7080-54418,Ricestalk ,49.09563,-90.15218,49,0,9,90,1,5,15-7080-54418,Ricestalk,,15-7080-54418 Ricestalk ,TRUE,3,
16-3223-54503,Rinker ,49.18251,-89.43716,49,1,8,89,4,3,16-3223-54503,Rinker,,16-3223-54503 Rinker ,TRUE,3,
15-6923-53304,Rose ,48.10598,-90.41824,48,1,0,90,4,1,15-6923-53304,Rose,,15-6923-53304 Rose ,TRUE,3,
15-6528-53582,Ross ,48.36006,-90.93755,48,3,6,90,9,3,15-6528-53582,Ross,,15-6528-53582 Ross ,TRUE,3,
15-6659-53963,Rudge ,48.69703,-90.73502,48,6,9,90,7,3,15-6659-53963,Rudge,,15-6659-53963 Rudge ,TRUE,3,
15-6547-53441,Saganaga ,48.2464,-90.91191,48,2,4,90,9,1,15-6547-53441,Saganaga,,15-6547-53441 Saganaga ,TRUE,3,
15-7008-54035,Sanctuary ,48.75436,-90.26735,48,7,5,90,2,6,15-7008-54035,Sanctuary,,15-7008-54035 Sanctuary ,TRUE,3,
16-3076-55545,Sandison ,50.11625,-89.6922,50,1,1,89,6,9,16-3076-55545,Sandison,,16-3076-55545 Sandison ,TRUE,3,
15-7053-53459,Sandstone ,48.23175,-90.24029,48,2,3,90,2,4,15-7053-53459,Sandstone,,15-7053-53459 Sandstone ,TRUE,3,
15-7128-54128,Savanne ,48.83265,-90.09804,48,8,3,90,0,9,15-7128-54128,Savanne,,15-7128-54128 Savanne ,TRUE,3,
16-3240-55701,Shawanabis ,50.26074,-89.47701,50,2,6,89,4,7,16-3240-55701,Shawanabis,,16-3240-55701 Shawanabis ,TRUE,3,
15-6988-53913,Shebandowan s,48.64304,-90.30157,48,6,4,90,3,0,15-6988-53913,Shebandowan,s,15-6988-53913 Shebandowan s,TRUE,3,
15-6987-54642,Shell ,49.29448,-90.26136,49,2,9,90,2,6,15-6987-54642,Shell,,15-6987-54642 Shell ,TRUE,3,
16-3737-53877,Silver ,48.63108,-88.71542,48,6,3,88,7,1,16-3737-53877,Silver,,16-3737-53877 Silver ,TRUE,3,
16-3646-55478,Snowshoe ,50.07008,-88.89478,50,0,7,88,8,9,16-3646-55478,Snowshoe,,16-3646-55478 Snowshoe ,TRUE,3,
15-6824-53301,South ,48.10022,-90.53305,48,1,0,90,5,3,15-6824-53301,South,,15-6824-53301 South ,TRUE,3,
15-7031-55216,Sparkling ,49.81424,-90.17712,49,8,1,90,1,7,15-7031-55216,Sparkling,,15-7031-55216 Sparkling ,TRUE,3,
15-6804-53764,Squeers ,48.51628,-90.55746,48,5,1,90,5,5,15-6804-53764,Squeers,,15-6804-53764 Squeers ,TRUE,3,
15-6708-53937,Stetham ,48.67442,-90.68295,48,6,7,90,6,8,15-6708-53937,Stetham,,15-6708-53937 Stetham ,TRUE,3,
15-6885-53406,Sunbeam ,48.19223,-90.4631,48,1,9,90,4,6,15-6885-53406,Sunbeam,,15-6885-53406 Sunbeam ,TRUE,3,
15-6843-53443,Sunbow ,48.22431,-90.52344,48,2,2,90,5,2,15-6843-53443,Sunbow,,15-6843-53443 Sunbow ,TRUE,3,
16-2818-53430,Sunset ,48.20291,-89.93727,48,2,0,89,9,3,16-2818-53430,Sunset,,16-2818-53430 Sunset ,TRUE,3,
16-3763-53995,Sunset ,48.73803,-88.68164,48,7,3,88,6,8,16-3763-53995,Sunset,,16-3763-53995 Sunset ,TRUE,3,
15-6508-53878,Tilly ,48.62935,-90.9475,48,6,2,90,9,4,15-6508-53878,Tilly,,15-6508-53878 Tilly ,TRUE,3,
15-7029-53799,Tinto ,48.54084,-90.25014,48,5,4,90,2,5,15-7029-53799,Tinto,,15-7029-53799 Tinto ,TRUE,3,
15-6832-53585,Titmarsh ,48.35538,-90.52995,48,3,5,90,5,2,15-6832-53585,Titmarsh,,15-6832-53585 Titmarsh ,TRUE,3,
15-6642-53574,Trout ,48.34586,-90.79178,48,3,4,90,7,9,15-6642-53574,Trout,,15-6642-53574 Trout ,TRUE,3,
15-6587-53594,Twinhouse ,48.3689,-90.85668,48,3,6,90,8,5,15-6587-53594,Twinhouse,,15-6587-53594 Twinhouse ,TRUE,3,
16-3744-54268,Unknown ,48.98106,-88.72206,48,9,8,88,7,2,16-3744-54268,Unknown,,16-3744-54268 Unknown ,TRUE,3,
16-3723-53954,Upper Hunters ,48.69995,-88.73578,48,6,9,88,7,3,16-3723-53954,Upper,Hunters,16-3723-53954 Upper Hunters ,FALSE,4, 
15-7071-54348,Upper Kaogomok ,49.04034,-90.16612,49,0,4,90,1,6,15-7071-54348,Upper,Kaogomok,15-7071-54348 Upper Kaogomok ,FALSE,4, 
15-6867-53877,Upper Shebandowan ,48.63351,-90.44608,48,6,3,90,4,4,15-6867-53877,Upper,Shebandowan,15-6867-53877 Upper Shebandowan ,FALSE,4, 
15-7076-53374,Wabindon ,48.15543,-90.21026,48,1,5,90,2,1,15-7076-53374,Wabindon,,15-7076-53374 Wabindon ,TRUE,3,
16-3576-55491,Wabinosh ,50.08021,-88.98877,50,0,8,88,9,8,16-3576-55491,Wabinosh,,16-3576-55491 Wabinosh ,TRUE,3,
16-3483-54344,Walotka ,49.04481,-89.07437,49,0,4,89,0,7,16-3483-54344,Walotka,,16-3483-54344 Walotka ,TRUE,3,
15-7048-55476,Wapikaimaski ,50.06193,-90.1059,50,0,6,90,1,0,15-7048-55476,Wapikaimaski,,15-7048-55476 Wapikaimaski ,TRUE,3,
15-6815-53784,Watershed ,48.5347,-90.54017,48,5,3,90,5,4,15-6815-53784,Watershed,,15-6815-53784 Watershed ,TRUE,3,
16-3500-55543,Waweig ,50.12945,-89.09663,50,1,2,89,0,9,16-3500-55543,Waweig,,16-3500-55543 Waweig ,TRUE,3,
15-7012-54867,Weaver ,49.53029,-90.19699,49,5,3,90,1,9,15-7012-54867,Weaver,,15-7012-54867 Weaver ,TRUE,3,
16-4332-55499,Weewullee ,50.09338,-87.9311,50,0,9,87,9,3,16-4332-55499,Weewullee,,16-4332-55499 Weewullee ,TRUE,3,
15-6958-53562,Weikwabinonaw ,48.32507,-90.37651,48,3,2,90,3,7,15-6958-53562,Weikwabinonaw,,15-6958-53562 Weikwabinonaw ,TRUE,3,
16-2832-54685,NA,49.33108,-89.98319,49,3,3,89,9,8,16-2832-54685,"NA",NA,16-2832-54685 NA,FALSE,2,
16-2773-53446,Whitefish ,48.22119,-90.00085,48,2,2,90,0,0,16-2773-53446,Whitefish,,16-2773-53446 Whitefish ,TRUE,3,
15-6707-53610,Whitefish ,48.37969,-90.68675,48,3,7,90,6,8,15-6707-53610,Whitefish,,15-6707-53610 Whitefish ,TRUE,3,
16-3699-53936,Wideman ,48.68394,-88.76817,48,6,8,88,7,6,16-3699-53936,Wideman,,16-3699-53936 Wideman ,TRUE,3,
16-3738-54079,Wiggins ,48.81279,-88.71842,48,8,1,88,7,1,16-3738-54079,Wiggins,,16-3738-54079 Wiggins ,TRUE,3,
15-6508-53978,Windigoostigwan ,48.72305,-90.93205,48,7,2,90,9,3,15-6508-53978,Windigoostigwan,,15-6508-53978 Windigoostigwan ,TRUE,3,
15-6550-53632,Wye ,48.40446,-90.90487,48,4,0,90,9,0,15-6550-53632,Wye,,15-6550-53632 Wye ,TRUE,3,
15-6896-53457,Yellowhammer ,48.23741,-90.44997,48,2,3,90,4,4,15-6896-53457,Yellowhammer,,15-6896-53457 Yellowhammer ,TRUE,3,
16-4420-54651,Barbara ,49.34384,-87.80103,49,3,4,87,8,0,16-4420-54651,Barbara,,16-4420-54651 Barbara ,TRUE,3,
16-4457-54868,Bigamy ,49.53574,-87.75902,49,5,3,87,7,5,16-4457-54868,Bigamy,,16-4457-54868 Bigamy ,TRUE,3,
16-4450-54254,Buckaday ,48.98064,-87.75228,48,9,8,87,7,5,16-4450-54254,Buckaday,,16-4450-54254 Buckaday ,TRUE,3,
16-5188-55331,Burrows ,49.9523,-86.73837,49,9,5,86,7,3,16-5188-55331,Burrows,,16-5188-55331 Burrows ,TRUE,3,
16-5042-54260,Cairngorm ,48.99187,-86.93716,48,9,9,86,9,3,16-5042-54260,Cairngorm,,16-5042-54260 Cairngorm ,TRUE,3,
16-4995-54471,Catlonite ,49.17841,-87.00698,49,1,7,87,0,0,16-4995-54471,Catlonite,,16-4995-54471 Catlonite ,TRUE,3,
16-4881-55533,Cavell ,50.14754,-87.15817,50,1,4,87,1,5,16-4881-55533,Cavell,,16-4881-55533 Cavell ,TRUE,3,
16-5538-55350,Chipman ,49.98361,-86.23982,49,9,8,86,2,3,16-5538-55350,Chipman,,16-5538-55350 Chipman ,TRUE,3,
16-4636-55195,Dilla ,49.82976,-87.5004,49,8,2,87,5,0,16-4636-55195,Dilla,,16-4636-55195 Dilla ,TRUE,3,
16-5680-55298,Fernow ,49.91841,-86.05307,49,9,1,86,0,5,16-5680-55298,Fernow,,16-5680-55298 Fernow ,TRUE,3,
16-4869-54848,Gamsby ,49.51785,-87.18172,49,5,1,87,1,8,16-4869-54848,Gamsby,,16-4869-54848 Gamsby ,TRUE,3,
16-4979-55546,Jeno ,50.14644,-87.02873,50,1,4,87,0,2,16-4979-55546,Jeno,,16-4979-55546 Jeno ,TRUE,3,
16-5087-55041,Kenogamisis ,49.70602,-86.85844,49,7,0,86,8,5,16-5087-55041,Kenogamisis,,16-5087-55041 Kenogamisis ,TRUE,3,
16-4348-54546,Kilgour ,49.24343,-87.89394,49,2,4,87,8,9,16-4348-54546,Kilgour,,16-4348-54546 Kilgour ,TRUE,3,
16-5341-54366,Killala ,49.07862,-86.52877,49,0,7,86,5,2,16-5341-54366,Killala,,16-5341-54366 Killala ,TRUE,3,
16-5818-55170,Klotz ,49.80202,-85.86278,49,8,0,85,8,6,16-5818-55170,Klotz,,16-5818-55170 Klotz ,TRUE,3,
16-5079-54800,Long ,49.47507,-86.89059,49,4,7,86,8,9,16-5079-54800,Long,,16-5079-54800 Long ,TRUE,3,
16-4793-54217,Louise ,48.94242,-87.28084,48,9,4,87,2,8,16-4793-54217,Louise,,16-4793-54217 Louise ,TRUE,3,
16-5406-54956,McKay ,49.6134,-86.43808,49,6,1,86,4,3,16-5406-54956,McKay,,16-5406-54956 McKay ,TRUE,3,
16-4688-55390,Onaman ,50.00783,-87.44852,50,0,0,87,4,4,16-4688-55390,Onaman,,16-4688-55390 Onaman ,TRUE,3,
16-5657-55074,Pagwachuan ,49.71758,-86.08862,49,7,1,86,0,8,16-5657-55074,Pagwachuan,,16-5657-55074 Pagwachuan ,TRUE,3,
16-4548-54782,Parks ,49.45125,-87.64326,49,4,5,87,6,4,16-4548-54782,Parks,,16-4548-54782 Parks ,TRUE,3,
16-5774-55353,Shacabac ,49.96674,-85.92055,49,9,6,85,9,2,16-5774-55353,Shacabac,,16-5774-55353 Shacabac ,TRUE,3,
16-4747-54847,South Beatty ,49.52071,-87.3487,49,5,2,87,3,4,16-4747-54847,South,Beatty,16-4747-54847 South Beatty ,FALSE,4, 
16-5024-55448,Springwater ,50.05944,-86.96565,50,0,5,86,9,6,16-5024-55448,Springwater,,16-5024-55448 Springwater ,TRUE,3,
16-5935-55207,Upper Flynne ,49.82881,-85.70068,49,8,2,85,7,0,16-5935-55207,Upper,Flynne,16-5935-55207 Upper Flynne ,FALSE,4, 
16-4824-54701,Wig ,49.38507,-87.24311,49,3,8,87,2,4,16-4824-54701,Wig,,16-4824-54701 Wig ,TRUE,3,
16-4882-55089,Wildgoose ,49.72631,-87.17505,49,7,2,87,1,7,16-4882-55089,Wildgoose,,16-4882-55089 Wildgoose ,TRUE,3,
16-4802-54759,Wintering ,49.43486,-87.28556,49,4,3,87,2,8,16-4802-54759,Wintering,,16-4802-54759 Wintering ,TRUE,3,
16-5311-54861,Y ,49.52868,-86.57058,49,5,2,86,5,7,16-5311-54861,Y,,16-5311-54861 Y ,TRUE,3,
17-5718-50868,Big Caribou ,45.93283,-80.07311,45,9,3,80,0,7,17-5718-50868,Big,Caribou,17-5718-50868 Big Caribou ,FALSE,4, 
17-6007-50961,Commanda ,46.01084,-79.70668,46,0,1,79,7,0,17-6007-50961,Commanda,,17-6007-50961 Commanda ,TRUE,3,
18-3280-50833,Allumette ,45.891,-77.223,45,8,9,77,2,2,18-3280-50833,Allumette,,18-3280-50833 Allumette ,TRUE,3,
17-7120-51253,Holden ,46.245,-78.004,46,2,4,78,0,0,17-7120-51253,Holden,,17-7120-51253 Holden ,TRUE,3,
18-3577-50825,Lac Coulonge,45.8734,-76.814,45,8,7,76,8,1,18-3577-50825,Lac,Coulonge,18-3577-50825 Lac Coulonge,TRUE,3,
18-3854-50393,Lac des Chats,45.5,-76.47222,45,5,,76,4,7,18-3854-50393,Lac,des,18-3854-50393 Lac des Chats,FALSE,4, Chats
18-4334-50239,Lac Deschnes,45.36995,-75.85265,45,3,6,75,8,5,18-4334-50239,Lac,Deschnes,18-4334-50239 Lac Deschnes,TRUE,3,
18-5390-50495,Lac Dollard-des-Ormeaux,45.59411,-74.48757,45,5,9,74,4,8,18-5390-50495,Lac,Dollard-des-Ormeaux,18-5390-50495 Lac Dollard-des-Ormeaux,TRUE,3,
18-3662-50545,Lac du Rocher-Fendu,45.63544,-76.68752,45,6,3,76,6,8,18-3662-50545,Lac,du,18-3662-50545 Lac du Rocher-Fendu,FALSE,4, Rocher-Fendu
18-3485-50735,Lower Allumette ,45.78736,-76.94457,45,7,8,76,9,4,18-3485-50735,Lower,Allumette,18-3485-50735 Lower Allumette ,FALSE,4, 
17-6025-50535,Ahmic ,45.63437,-79.69545,45,6,3,79,6,9,17-6025-50535,Ahmic,,17-6025-50535 Ahmic ,TRUE,3,
17-7255-49721,Alder ,44.86839,-78.14583,44,8,6,78,1,4,17-7255-49721,Alder,,17-7255-49721 Alder ,TRUE,3,
17-6707-50264,Arbuckle ,45.37262,-78.81965,45,3,7,78,8,1,17-6707-50264,Arbuckle,,17-6707-50264 Arbuckle ,TRUE,3,
17-5846-50402,Armstrong ,45.51245,-79.91693,45,5,1,79,9,1,17-5846-50402,Armstrong,,17-5846-50402 Armstrong ,TRUE,3,
18-2779-50548,Aylen ,45.61836,-77.85586,45,6,1,77,8,5,18-2779-50548,Aylen,,18-2779-50548 Aylen ,TRUE,3,
18-3681-50211,Balmer ,45.33239,-76.68411,45,3,3,76,6,8,18-3681-50211,Balmer,,18-3681-50211 Balmer ,TRUE,3,
18-2642-49981,Baptiste ,45.11648,-78.00344,45,1,1,78,0,0,18-2642-49981,Baptiste,,18-2642-49981 Baptiste ,TRUE,3,
18-2782-50364,Bark ,45.4552,-77.84943,45,4,5,77,8,4,18-2782-50364,Bark,,18-2782-50364 Bark ,TRUE,3,
17-6391-50491,Beaver ,45.58197,-79.20919,45,5,8,79,2,0,17-6391-50491,Beaver,,17-6391-50491 Beaver ,TRUE,3,
17-6539-50341,Bella ,45.44431,-79.03118,45,4,4,79,0,3,17-6539-50341,Bella,,17-6539-50341 Bella ,TRUE,3,
17-6512-50304,Benson ,45.41326,-79.06773,45,4,1,79,0,6,17-6512-50304,Benson,,17-6512-50304 Benson ,TRUE,3,
17-6257-50660,Bernard,45.73885,-79.38526,45,7,3,79,3,8,17-6257-50660,Bernard,NA,17-6257-50660 Bernard,FALSE,2,
17-5971-50688,Big Deer ,45.7668,-79.7507,45,7,6,79,7,5,17-5971-50688,Big,Deer,17-5971-50688 Big Deer ,FALSE,4, 
17-6532-49909,Bigwind ,45.05711,-79.05464,45,0,5,79,0,5,17-6532-49909,Bigwind,,17-6532-49909 Bigwind ,TRUE,3,
18-3469-50088,Black Donald ,45.21682,-76.93969,45,2,1,76,9,3,18-3469-50088,Black,Donald,18-3469-50088 Black Donald ,FALSE,4, 
17-6417-50675,Bluesky ,45.74939,-79.17707,45,7,4,79,1,7,17-6417-50675,Bluesky,,17-6417-50675 Bluesky ,TRUE,3,
18-2851-50189,Buck ,45.29311,-77.74,45,2,9,77,7,4,18-2851-50189,Buck,,18-2851-50189 Buck ,TRUE,3,
17-6254-50307,Buck ,45.42025,-79.39479,45,4,2,79,3,9,17-6254-50307,Buck,,17-6254-50307 Buck ,TRUE,3,
18-2916-50515,Burns ,45.5871,-77.67143,45,5,8,77,6,7,18-2916-50515,Burns,,18-2916-50515 Burns ,TRUE,3,
18-3634-50151,Calabogie ,45.27732,-76.74264,45,2,7,76,7,4,18-3634-50151,Calabogie,,18-3634-50151 Calabogie ,TRUE,3,
17-7116-49585,Catchacoma ,44.75058,-78.32526,44,7,5,78,3,2,17-7116-49585,Catchacoma,,17-7116-49585 Catchacoma ,TRUE,3,
17-6111-50550,Cecebe,45.64268,-79.58059,45,6,4,79,5,8,17-6111-50550,Cecebe,NA,17-6111-50550 Cecebe,FALSE,2,
18-3287-50341,Clear,45.44131,-77.1955,45,4,4,77,1,9,18-3287-50341,Clear,NA,18-3287-50341 Clear,FALSE,2,
17-5828-50266,Cramadog ,45.38969,-79.94266,45,3,8,79,9,4,17-5828-50266,Cramadog,,17-5828-50266 Cramadog ,TRUE,3,
17-6554-50468,Cripple ,45.5596,-79.00745,45,5,5,79,0,0,17-6554-50468,Cripple,,17-6554-50468 Cripple ,TRUE,3,
17-6239-50430,Doe ,45.53377,-79.41413,45,5,3,79,4,1,17-6239-50430,Doe,,17-6239-50430 Doe ,TRUE,3,
18-3351-50535,Dor,45.61781,-77.11506,45,6,1,77,1,1,18-3351-50535,Dor,NA,18-3351-50535 Dor,FALSE,2,
17-6571-50360,Dotty ,45.46152,-78.99156,45,4,6,78,9,9,17-6571-50360,Dotty,,17-6571-50360 Dotty ,TRUE,3,
17-7042-49937,Drag ,45.07432,-78.41081,45,0,7,78,4,1,17-7042-49937,Drag,,17-7042-49937 Drag ,TRUE,3,
17-6523-50498,Dunstan ,45.58689,-79.04685,45,5,8,79,0,4,17-6523-50498,Dunstan,,17-6523-50498 Dunstan ,TRUE,3,
17-6973-50011,Eagle ,45.13784,-78.49157,45,1,3,78,4,9,17-6973-50011,Eagle,,17-6973-50011 Eagle ,TRUE,3,
17-6164-50763,Eagle ,45.83223,-79.50188,45,8,3,79,5,0,17-6164-50763,Eagle,,17-6164-50763 Eagle ,TRUE,3,
17-6520-50042,Echo ,45.17698,-79.06794,45,1,7,79,0,6,17-6520-50042,Echo,,17-6520-50042 Echo ,TRUE,3,
17-7269-49741,Eels ,44.89509,-78.13984,44,8,9,78,1,3,17-7269-49741,Eels,,17-7269-49741 Eels ,TRUE,3,
18-2699-49935,Faraday ,45.05977,-77.92222,45,0,5,77,9,2,18-2699-49935,Faraday,,18-2699-49935 Faraday ,TRUE,3,
17-6738-50244,Fletcher ,45.35355,-78.78435,45,3,5,78,7,8,17-6738-50244,Fletcher,,17-6738-50244 Fletcher ,TRUE,3,
18-2900-50140,Fosters ,45.24977,-77.67526,45,2,4,77,6,7,18-2900-50140,Fosters,,18-2900-50140 Fosters ,TRUE,3,
17-5384-50622,Giroux ,45.71367,-80.50404,45,7,1,80,5,0,17-5384-50622,Giroux,,17-5384-50622 Giroux ,TRUE,3,
18-3186-50482,Golden ,45.57388,-77.33611,45,5,7,77,3,3,18-3186-50482,Golden,,18-3186-50482 Golden ,TRUE,3,
17-6844-50137,Goodwin ,45.25505,-78.64918,45,2,5,78,6,4,17-6844-50137,Goodwin,,17-6844-50137 Goodwin ,TRUE,3,
17-6755-49685,Gull ,44.84876,-78.77936,44,8,4,78,7,7,17-6755-49685,Gull,,17-6755-49685 Gull ,TRUE,3,
17-5352-50862,Gurd ,45.92921,-80.54408,45,9,2,80,5,4,17-5352-50862,Gurd,,17-5352-50862 Gurd ,TRUE,3,
17-7045-50074,Haliburton ,45.1925,-78.40044,45,1,9,78,4,0,17-7045-50074,Haliburton,,17-7045-50074 Haliburton ,TRUE,3,
17-6801-50260,Hinterland ,45.37457,-78.68668,45,3,7,78,6,8,17-6801-50260,Hinterland,,17-6801-50260 Hinterland ,TRUE,3,
17-5930-50285,Isabella ,45.40315,-79.81337,45,4,0,79,8,1,17-5930-50285,Isabella,,17-5930-50285 Isabella ,TRUE,3,
17-7358-49530,Jack ,44.69486,-78.03569,44,6,9,78,0,3,17-7358-49530,Jack,,17-7358-49530 Jack ,TRUE,3,
18-3066-50616,Jacks s,45.6908,-77.48759,45,6,9,77,4,8,18-3066-50616,Jacks,s,18-3066-50616 Jacks s,TRUE,3,
17-5998-50031,Joseph,45.17434,-79.7239,45,1,7,79,7,2,17-5998-50031,Joseph,NA,17-5998-50031 Joseph,FALSE,2,
18-2891-50334,Kamaniskeg ,45.41755,-77.68981,45,4,1,77,6,8,18-2891-50334,Kamaniskeg,,18-2891-50334 Kamaniskeg ,TRUE,3,
17-6767-50182,Kawagama ,45.29874,-78.75251,45,2,9,78,7,5,17-6767-50182,Kawagama,,17-6767-50182 Kawagama ,TRUE,3,
18-3191-50636,Kelly ,45.7037,-77.32428,45,7,0,77,3,2,18-3191-50636,Kelly,,18-3191-50636 Kelly ,TRUE,3,
17-6858-50095,Kennisis ,45.21362,-78.63637,45,2,1,78,6,3,17-6858-50095,Kennisis,,17-6858-50095 Kennisis ,TRUE,3,
17-6818-50232,Kimball ,45.34172,-78.67605,45,3,4,78,6,7,17-6818-50232,Kimball,,17-6818-50232 Kimball ,TRUE,3,
17-6567-50131,of Bays,45.25269,-79.0313,45,2,5,79,0,3,17-6567-50131,of,Bays,17-6567-50131 of Bays,TRUE,3,
17-6339-50346,Langford ,45.454,-79.28835,45,4,5,79,2,8,17-6339-50346,Langford,,17-6339-50346 Langford ,TRUE,3,
17-7258-50190,Little Meach ,45.28978,-78.12084,45,2,8,78,1,2,17-7258-50190,Little,Meach,17-7258-50190 Little Meach ,FALSE,4, 
17-6412-50632,Long ,45.71027,-79.17508,45,7,1,79,1,7,17-6412-50632,Long,,17-6412-50632 Long ,TRUE,3,
17-5857-50363,Manitouwabing ,45.47417,-79.90332,45,4,7,79,9,0,17-5857-50363,Manitouwabing,,17-5857-50363 Manitouwabing ,TRUE,3,
17-6369-50115,Mary ,45.24434,-79.25842,45,2,4,79,2,5,17-6369-50115,Mary,,17-6369-50115 Mary ,TRUE,3,
17-5797-50167,McDonald ,45.29828,-79.98012,45,2,9,79,9,8,17-5797-50167,McDonald,,17-5797-50167 McDonald ,TRUE,3,
17-5833-50403,McKellar ,45.51374,-79.93303,45,5,1,79,9,3,17-5833-50403,McKellar,,17-5833-50403 McKellar ,TRUE,3,
17-7331-50275,McKenzie ,45.36459,-78.01951,45,3,6,78,0,1,17-7331-50275,McKenzie,,17-7331-50275 McKenzie ,TRUE,3,
17-7249-50200,Meach ,45.29978,-78.13084,45,2,9,78,1,3,17-7249-50200,Meach,,17-7249-50200 Meach ,TRUE,3,
18-3401-50475,Mink ,45.56477,-77.04829,45,5,6,77,0,4,18-3401-50475,Mink,,18-3401-50475 Mink ,TRUE,3,
17-7123-49536,Mississagua ,44.70569,-78.32072,44,7,0,78,3,2,17-7123-49536,Mississagua,,17-7123-49536 Mississagua ,TRUE,3,
17-6995-50027,Moose ,45.14983,-78.46416,45,1,4,78,4,6,17-6995-50027,Moose,,17-6995-50027 Moose ,TRUE,3,
17-6234-49731,Muldrew s,44.89904,-79.44424,44,8,9,79,4,4,17-6234-49731,Muldrew,s,17-6234-49731 Muldrew s,TRUE,3,
18-2810-50600,Murphys ,45.66067,-77.81168,45,6,6,77,8,1,18-2810-50600,Murphys,,18-2810-50600 Murphys ,TRUE,3,
17-6201-49898,Muskoka,45.02374,-79.47732,45,0,2,79,4,7,17-6201-49898,Muskoka,NA,17-6201-49898 Muskoka,FALSE,2,
18-3511-50603,Muskrat ,45.67461,-76.90849,45,6,7,76,9,0,18-3511-50603,Muskrat,,18-3511-50603 Muskrat ,TRUE,3,
17-6595-50395,Nelson ,45.4919,-78.9583,45,4,9,78,9,5,17-6595-50395,Nelson,,17-6595-50395 Nelson ,TRUE,3,
17-5742-50352,Nine Mile ,45.46238,-80.05162,45,4,6,80,0,5,17-5742-50352,Nine,Mile,17-5742-50352 Nine Mile ,FALSE,4, 
17-6403-50645,North ,45.72134,-79.19754,45,7,2,79,1,9,17-6403-50645,North,,17-6403-50645 North ,TRUE,3,
18-3652-50219,Norway ,45.33922,-76.71995,45,3,3,76,7,1,18-3652-50219,Norway,,18-3652-50219 Norway ,TRUE,3,
17-6628-50250,Oxtongue ,45.36592,-78.91921,45,3,6,78,9,1,17-6628-50250,Oxtongue,,17-6628-50250 Oxtongue ,TRUE,3,
17-7323-49829,Paudash ,44.96256,-78.04905,44,9,6,78,0,4,17-7323-49829,Paudash,,17-7323-49829 Paudash ,TRUE,3,
17-6165-50616,Pearceley ,45.70041,-79.50356,45,7,0,79,5,0,17-6165-50616,Pearceley,,17-6165-50616 Pearceley ,TRUE,3,
17-6488-50221,Peninsula ,45.34289,-79.09921,45,3,4,79,0,9,17-6488-50221,Peninsula,,17-6488-50221 Peninsula ,TRUE,3,
17-7080-50094,Percy ,45.20788,-78.36041,45,2,0,78,3,6,17-7080-50094,Percy,,17-7080-50094 Percy ,TRUE,3,
17-6436-50702,Peyton ,45.77203,-79.15232,45,7,7,79,1,5,17-6436-50702,Peyton,,17-6436-50702 Peyton ,TRUE,3,
17-6320-50600,Pickerel ,45.68198,-79.3074,45,6,8,79,3,0,17-6320-50600,Pickerel,,17-6320-50600 Pickerel ,TRUE,3,
17-6758-50257,Poorhouse ,45.36477,-78.7556,45,3,6,78,7,5,17-6758-50257,Poorhouse,,17-6758-50257 Poorhouse ,TRUE,3,
17-7175-50433,Rapid ,45.51247,-78.21316,45,5,1,78,2,1,17-7175-50433,Rapid,,17-7175-50433 Rapid ,TRUE,3,
18-3191-50532,Rattrays ,45.61116,-77.31996,45,6,1,77,3,1,18-3191-50532,Rattrays,,18-3191-50532 Rattrays ,TRUE,3,
17-6806-50080,Red Pine ,45.20439,-78.70184,45,2,0,78,7,0,17-6806-50080,Red,Pine,17-6806-50080 Red Pine ,FALSE,4, 
17-6934-50060,Redstone ,45.18369,-78.53568,45,1,8,78,5,3,17-6934-50060,Redstone,,17-6934-50060 Redstone ,TRUE,3,
17-6112-50030,Rosseau,45.1741,-79.59755,45,1,7,79,5,9,17-6112-50030,Rosseau,NA,17-6112-50030 Rosseau,FALSE,2,
18-3030-50572,Round ,45.64074,-77.52889,45,6,4,77,5,2,18-3030-50572,Round,,18-3030-50572 Round ,TRUE,3,
17-6247-50356,Round ,45.46467,-79.40602,45,4,6,79,4,0,17-6247-50356,Round,,17-6247-50356 Round ,TRUE,3,
18-2790-50077,Salmon Trout ,45.19005,-77.81305,45,1,9,77,8,1,18-2790-50077,Salmon,Trout,18-2790-50077 Salmon Trout ,FALSE,4, 
17-6216-50117,Skeleton ,45.25123,-79.45331,45,2,5,79,4,5,17-6216-50117,Skeleton,,17-6216-50117 Skeleton ,TRUE,3,
17-5585-50777,Smoky ,45.85335,-80.2396,45,8,5,80,2,3,17-5585-50777,Smoky,,17-5585-50777 Smoky ,TRUE,3,
17-6512-50588,South Branch ,45.6684,-79.05924,45,6,6,79,0,5,17-6512-50588,South,Branch,17-6512-50588 South Branch ,FALSE,4, 
17-6023-50734,Spring ,45.81025,-79.68167,45,8,1,79,6,8,17-6023-50734,Spring,,17-6023-50734 Spring ,TRUE,3,
17-5971-49992,Stewart ,45.14283,-79.76496,45,1,4,79,7,6,17-5971-49992,Stewart,,17-5971-49992 Stewart ,TRUE,3,
17-5827-49888,Tadenac ,45.04297,-79.93642,45,0,4,79,9,3,17-5827-49888,Tadenac,,17-5827-49888 Tadenac ,TRUE,3,
17-7329-49698,Tallan ,44.84589,-78.0525,44,8,4,78,0,5,17-7329-49698,Tallan,,17-7329-49698 Tallan ,TRUE,3,
18-2932-51151,Tee ,46.15836,-77.67588,46,1,5,77,6,7,18-2932-51151,Tee,,18-2932-51151 Tee ,TRUE,3,
17-6807-49881,Twelve Mile ,45.02509,-78.7047,45,0,2,78,7,0,17-6807-49881,Twelve,Mile,17-6807-49881 Twelve Mile ,FALSE,4, 
17-5717-50405,NA,45.51274,-80.08817,45,5,1,80,0,8,17-5717-50405,"NA",NA,17-5717-50405 NA,FALSE,2,
17-6518-49859,Wood ,45.01328,-79.0739,45,0,1,79,0,7,17-6518-49859,Wood,,17-6518-49859 Wood ,TRUE,3,
17-6187-49397,Bass ,44.60345,-79.50664,44,6,0,79,5,0,17-6187-49397,Bass,,17-6187-49397 Bass ,TRUE,3,
17-5535-48461,Belwood,43.7585,-80.33953,43,7,5,80,3,3,17-5535-48461,Belwood,NA,17-5535-48461 Belwood,FALSE,2,
17-4820-49523,Boat ,44.72592,-81.22706,44,7,2,81,2,2,17-4820-49523,Boat,,17-4820-49523 Boat ,TRUE,3,
17-4561-50068,Cameron ,45.217,-81.55793,45,2,1,81,5,5,17-4561-50068,Cameron,,17-4561-50068 Cameron ,TRUE,3,
17-4822-49331,Chesley ,44.55287,-81.22414,44,5,5,81,2,2,17-4822-49331,Chesley,,17-4822-49331 Chesley ,TRUE,3,
17-5215-48384,Conestogo ,43.69615,-80.73137,43,6,9,80,7,3,17-5215-48384,Conestogo,,17-5215-48384 Conestogo ,TRUE,3,
17-6286-49481,Couchiching,44.66428,-79.3763,44,6,6,79,3,7,17-6286-49481,Couchiching,NA,17-6286-49481 Couchiching,FALSE,2,
17-4583-50085,Cyprus ,45.23131,-81.53198,45,2,3,81,5,3,17-4583-50085,Cyprus,,17-4583-50085 Cyprus ,TRUE,3,
17-4857-47670,Fanshawe ,43.05847,-81.17886,43,0,5,81,1,7,17-4857-47670,Fanshawe,,17-4857-47670 Fanshawe ,TRUE,3,
17-5814-49627,Farlain ,44.81714,-79.97121,44,8,1,79,9,7,17-5814-49627,Farlain,,17-5814-49627 Farlain ,TRUE,3,
17-4736-50056,Gillies ,45.20467,-81.33557,45,2,0,81,3,3,17-4736-50056,Gillies,,17-4736-50056 Gillies ,TRUE,3,
17-6026-49666,Gloucester Pool,44.84489,-79.70973,44,8,4,79,7,0,17-6026-49666,Gloucester,Pool,17-6026-49666 Gloucester Pool,TRUE,3,
17-4839-49376,Gould ,44.59698,-81.19684,44,5,9,81,1,9,17-4839-49376,Gould,,17-4839-49376 Gould ,TRUE,3,
17-5605-48275,Guelph ,43.60141,-80.23903,43,6,0,80,2,3,17-5605-48275,Guelph,,17-5605-48275 Guelph ,TRUE,3,
17-5799-49262,Jacks ,44.48677,-79.9956,44,4,8,79,9,9,17-5799-49262,Jacks,,17-5799-49262 Jacks ,TRUE,3,
17-6058-49199,Little ,44.42642,-79.67346,44,4,2,79,6,7,17-6058-49199,Little,,17-6058-49199 Little ,TRUE,3,
17-6016-49633,Little ,44.81843,-79.7132,44,8,1,79,7,1,17-6016-49633,Little,,17-6016-49633 Little ,TRUE,3,
17-4829-49772,Little ,44.95967,-81.21941,44,9,5,81,2,1,17-4829-49772,Little,,17-4829-49772 Little ,TRUE,3,
17-6191-49604,Long ,44.79017,-79.48171,44,7,9,79,4,8,17-6191-49604,Long,,17-6191-49604 Long ,TRUE,3,
17-4689-49939,Miller ,45.09912,-81.39375,45,0,9,81,3,9,17-4689-49939,Miller,,17-4689-49939 Miller ,TRUE,3,
17-5239-49504,Mountain ,44.70923,-80.69675,44,7,0,80,6,9,17-5239-49504,Mountain,,17-5239-49504 Mountain ,TRUE,3,
17-6384-48765,Musselman ,44.0309,-79.2731,44,0,3,79,2,7,17-6384-48765,Musselman,,17-6384-48765 Musselman ,TRUE,3,
17-4665-48812,Silver ,44.08538,-81.41929,44,0,8,81,4,1,17-4665-48812,Silver,,17-4665-48812 Silver ,TRUE,3,
17-6327-49193,Simcoe,44.4236,-79.37123,44,4,2,79,3,7,17-6327-49193,Simcoe,NA,17-6327-49193 Simcoe,FALSE,2,
17-6275-49634,Sparrow ,44.81851,-79.39612,44,8,1,79,3,9,17-6275-49634,Sparrow,,17-6275-49634 Sparrow ,TRUE,3,
17-6328-49494,St. John,44.68701,-79.32512,44,6,8,79,3,2,17-6328-49494,St.,John,17-6328-49494 St. John,TRUE,3,
17-6065-49697,Tea ,44.87588,-79.64948,44,8,7,79,6,4,17-6065-49697,Tea,,17-6065-49697 Tea ,TRUE,3,
17-6712-49387,Balsam ,44.58044,-78.84168,44,5,8,78,8,4,17-6712-49387,Balsam,,17-6712-49387 Balsam ,TRUE,3,
18-2756-49309,Belmont ,44.49514,-77.82654,44,4,9,77,8,2,18-2756-49309,Belmont,,18-2756-49309 Belmont ,TRUE,3,
17-7074-49389,Big Bald ,44.57664,-78.3863,44,5,7,78,3,8,17-7074-49389,Big,Bald,17-7074-49389 Big Bald ,FALSE,4, 
17-7074-49293,Buckhorn ,44.4856,-78.39118,44,4,8,78,3,9,17-7074-49293,Buckhorn,,17-7074-49293 Buckhorn ,TRUE,3,
17-6778-49354,Cameron ,44.55177,-78.76076,44,5,5,78,7,6,17-6778-49354,Cameron,,17-6778-49354 Cameron ,TRUE,3,
17-6548-49368,Canal ,44.56744,-79.04366,44,5,6,79,0,4,17-6548-49368,Canal,,17-6548-49368 Canal ,TRUE,3,
17-7076-49181,Chemong ,44.38846,-78.39205,44,3,8,78,3,9,17-7076-49181,Chemong,,17-7076-49181 Chemong ,TRUE,3,
17-7230-49327,Clear ,44.51481,-78.19302,44,5,1,78,1,9,17-7230-49327,Clear,,17-7230-49327 Clear ,TRUE,3,
18-2756-49393,Cordova ,44.57529,-77.82487,44,5,7,77,8,2,18-2756-49393,Cordova,,18-2756-49393 Cordova ,TRUE,3,
18-2825-49286,Crowe ,44.4838,-77.73716,44,4,8,77,7,3,18-2825-49286,Crowe,,18-2825-49286 Crowe ,TRUE,3,
17-6500-49453,Dalrymple ,44.64052,-79.11093,44,6,4,79,1,1,17-6500-49453,Dalrymple,,17-6500-49453 Dalrymple ,TRUE,3,
17-7310-49342,White ,44.52571,-78.09305,44,5,2,78,0,9,17-7310-49342,White,,17-7310-49342 White ,TRUE,3,
17-6930-49241,Emily ,44.44638,-78.57542,44,4,4,78,5,7,17-6930-49241,Emily,,17-6930-49241 Emily ,TRUE,3,
17-6793-49499,Four Mile ,44.68172,-78.73724,44,6,8,78,7,3,17-6793-49499,Four,Mile,17-6793-49499 Four Mile ,FALSE,4, 
17-6651-49559,Head ,44.74018,-78.91265,44,7,4,78,9,1,17-6651-49559,Head,,17-6651-49559 Head ,TRUE,3,
17-7182-49263,Katchewanooka ,44.45749,-78.2587,44,4,5,78,2,5,17-7182-49263,Katchewanooka,,17-7182-49263 Katchewanooka ,TRUE,3,
17-7050-49386,Little Bald ,44.57455,-78.41518,44,5,7,78,4,1,17-7050-49386,Little,Bald,17-7050-49386 Little Bald ,FALSE,4, 
17-7146-49082,Little ,44.29649,-78.31027,44,2,9,78,3,1,17-7146-49082,Little,,17-7146-49082 Little ,TRUE,3,
17-7197-49373,Lovesick ,44.55817,-78.23036,44,5,5,78,2,3,17-7197-49373,Lovesick,,17-7197-49373 Lovesick ,TRUE,3,
17-7170-49371,Lower Buckhorn ,44.5498,-78.27953,44,5,4,78,2,7,17-7170-49371,Lower,Buckhorn,17-7170-49371 Lower Buckhorn ,FALSE,4, 
17-6627-49374,Mitchell ,44.57378,-78.9503,44,5,7,78,9,5,17-6627-49374,Mitchell,,17-6627-49374 Mitchell ,TRUE,3,
18-2687-49421,Oak ,44.59882,-77.9126,44,5,9,77,9,1,18-2687-49421,Oak,,18-2687-49421 Oak ,TRUE,3,
17-6992-49270,Pigeon ,44.47155,-78.49495,44,4,7,78,4,9,17-6992-49270,Pigeon,,17-6992-49270 Pigeon ,TRUE,3,
17-7257-48946,Rice ,44.17348,-78.18609,44,1,7,78,1,8,17-7257-48946,Rice,,17-7257-48946 Rice ,TRUE,3,
18-2714-49305,Round ,44.49475,-77.87492,44,4,9,77,8,7,18-2714-49305,Round,,18-2714-49305 Round ,TRUE,3,
18-2850-49215,Rylstone ,44.42303,-77.70175,44,4,2,77,7,0,18-2850-49215,Rylstone,,18-2850-49215 Rylstone ,TRUE,3,
17-7061-49353,Sandy ,44.54516,-78.40526,44,5,4,78,4,0,17-7061-49353,Sandy,,17-7061-49353 Sandy ,TRUE,3,
18-2710-49509,Sandy ,44.67764,-77.88973,44,6,7,77,8,8,18-2710-49509,Sandy,,18-2710-49509 Sandy ,TRUE,3,
17-6715-48930,Scugog,44.18343,-78.85724,44,1,8,78,8,5,17-6715-48930,Scugog,NA,17-6715-48930 Scugog,FALSE,2,
17-6749-49534,Shadow ,44.71937,-78.79364,44,7,1,78,7,9,17-6749-49534,Shadow,,17-6749-49534 Shadow ,TRUE,3,
17-6744-49500,Silver ,44.68489,-78.79907,44,6,8,78,7,9,17-6744-49500,Silver,,17-6744-49500 Silver ,TRUE,3,
17-7310-49388,Stony ,44.55642,-78.11352,44,5,5,78,1,1,17-7310-49388,Stony,,17-7310-49388 Stony ,TRUE,3,
17-6820-49260,Sturgeon ,44.47421,-78.68865,44,4,7,78,6,8,17-6820-49260,Sturgeon,,17-6820-49260 Sturgeon ,TRUE,3,
17-7055-49277,NA,44.47321,-78.41617,44,4,7,78,4,1,17-7055-49277,"NA",NA,17-7055-49277 NA,FALSE,2,
17-6459-49524,Young ,44.71255,-79.15754,44,7,1,79,1,5,17-6459-49524,Young,,17-6459-49524 Young ,TRUE,3,
18-3490-49540,Big Clear ,44.72582,-76.90691,44,7,2,76,9,0,18-3490-49540,Big,Clear,18-3490-49540 Big Clear ,FALSE,4, 
18-3453-49652,Big Gull ,44.82693,-76.96878,44,8,2,76,9,6,18-3453-49652,Big,Gull,18-3453-49652 Big Gull ,FALSE,4, 
18-4040-49580,Big Rideau ,44.75128,-76.21379,44,7,5,76,2,1,18-4040-49580,Big,Rideau,18-4040-49580 Big Rideau ,FALSE,4, 
18-3782-49339,Birch ,44.54788,-76.54165,44,5,4,76,5,4,18-3782-49339,Birch,,18-3782-49339 Birch ,TRUE,3,
18-3819-49343,Black ,44.5541,-76.48648,44,5,5,76,4,8,18-3819-49343,Black,,18-3819-49343 Black ,TRUE,3,
18-3741-49489,Bobs ,44.68123,-76.58765,44,6,8,76,5,8,18-3741-49489,Bobs,,18-3741-49489 Bobs ,TRUE,3,
18-3388-49903,Brule ,45.05076,-77.04841,45,0,5,77,0,4,18-3388-49903,Brule,,18-3388-49903 Brule ,TRUE,3,
18-3369-49845,Buckshot ,44.99564,-77.06938,44,9,9,77,0,6,18-3369-49845,Buckshot,,18-3369-49845 Buckshot ,TRUE,3,
18-3434-49499,Bull ,44.68776,-76.97467,44,6,8,76,9,7,18-3434-49499,Bull,,18-3434-49499 Bull ,TRUE,3,
18-3767-49466,Burridge ,44.66433,-76.55461,44,6,6,76,5,5,18-3767-49466,Burridge,,18-3767-49466 Burridge ,TRUE,3,
18-4196-49317,Charleston ,44.5346,-76.01579,44,5,3,76,0,1,18-4196-49317,Charleston,,18-4196-49317 Charleston ,TRUE,3,
18-3862-49620,Christie ,44.80311,-76.43918,44,8,0,76,4,3,18-3862-49620,Christie,,18-3862-49620 Christie ,TRUE,3,
18-3571-49746,Crotch ,44.91255,-76.80939,44,9,1,76,8,0,18-3571-49746,Crotch,,18-3571-49746 Crotch ,TRUE,3,
18-3065-49990,Crystal ,45.12017,-77.4598,45,1,2,77,4,5,18-3065-49990,Crystal,,18-3065-49990 Crystal ,TRUE,3,
18-3762-49801,Dalhousie ,44.9656,-76.56939,44,9,6,76,5,6,18-3762-49801,Dalhousie,,18-3762-49801 Dalhousie ,TRUE,3,
18-3938-49203,Dog ,44.4302,-76.33444,44,4,3,76,3,3,18-3938-49203,Dog,,18-3938-49203 Dog ,TRUE,3,
18-3651-49486,Eagle ,44.68298,-76.69865,44,6,8,76,6,9,18-3651-49486,Eagle,,18-3651-49486 Eagle ,TRUE,3,
18-3122-49855,Effingham ,44.9851,-77.36005,44,9,8,77,3,6,18-3122-49855,Effingham,,18-3122-49855 Effingham ,TRUE,3,
18-3632-49427,Elbow ,44.62754,-76.72439,44,6,2,76,7,2,18-3632-49427,Elbow,,18-3632-49427 Elbow ,TRUE,3,
18-3814-49569,Farren ,44.7584,-76.49769,44,7,5,76,4,9,18-3814-49569,Farren,,18-3814-49569 Farren ,TRUE,3,
18-3580-49390,Fourth Depot ,44.59153,-76.7891,44,5,9,76,7,8,18-3580-49390,Fourth,Depot,18-3580-49390 Fourth Depot ,FALSE,4, 
18-3587-49991,Govan ,45.13314,-76.79515,45,1,3,76,7,9,18-3587-49991,Govan,,18-3587-49991 Govan ,TRUE,3,
18-3420-49390,Gull ,44.58916,-76.99018,44,5,8,76,9,9,18-3420-49390,Gull,,18-3420-49390 Gull ,TRUE,3,
18-3661-49250,Hambly ,44.46818,-76.68347,44,4,6,76,6,8,18-3661-49250,Hambly,,18-3661-49250 Hambly ,TRUE,3,
18-3665-49300,Howes ,44.50864,-76.67736,44,5,0,76,6,7,18-3665-49300,Howes,,18-3665-49300 Howes ,TRUE,3,
18-3503-49630,Hungry ,44.80667,-76.89447,44,8,0,76,8,9,18-3503-49630,Hungry,,18-3503-49630 Hungry ,TRUE,3,
18-3389-49691,Kashwakamak ,44.8566,-77.0385,44,8,5,77,0,3,18-3389-49691,Kashwakamak,,18-3389-49691 Kashwakamak ,TRUE,3,
18-3444-49557,Kennebec ,44.74021,-76.96521,44,7,4,76,9,6,18-3444-49557,Kennebec,,18-3444-49557 Kennebec ,TRUE,3,
18-3264-50044,Leatherroot ,45.17317,-77.20911,45,1,7,77,2,0,18-3264-50044,Leatherroot,,18-3264-50044 Leatherroot ,TRUE,3,
18-3640-49528,Leggat ,44.71318,-76.72398,44,7,1,76,7,2,18-3640-49528,Leggat,,18-3640-49528 Leggat ,TRUE,3,
18-3702-49303,Little John ,44.51542,-76.62831,44,5,1,76,6,2,18-3702-49303,Little,John,18-3702-49303 Little John ,FALSE,4, 
18-3753-49228,Little Long ,44.45614,-76.56505,44,4,5,76,5,6,18-3753-49228,Little,Long,18-3753-49228 Little Long ,FALSE,4, 
18-3873-49226,Loughborough ,44.44735,-76.41145,44,4,4,76,4,1,18-3873-49226,Loughborough,,18-3873-49226 Loughborough ,TRUE,3,
18-3267-49749,NA,44.91805,-77.19745,44,9,1,77,1,9,18-3267-49749,"NA",NA,18-3267-49749 NA,FALSE,2,
18-4082-49908,Mississippi ,45.06538,-76.1853,45,0,6,76,1,8,18-4082-49908,Mississippi,,18-4082-49908 Mississippi ,TRUE,3,
18-3050-49285,Moira ,44.4871,-77.45373,44,4,8,77,4,5,18-3050-49285,Moira,,18-3050-49285 Moira ,TRUE,3,
18-3549-49862,Palmerston ,45.01754,-76.84758,45,0,1,76,8,4,18-3549-49862,Palmerston,,18-3549-49862 Palmerston ,TRUE,3,
18-3743-49398,Potspoon ,44.60304,-76.58312,44,6,0,76,5,8,18-3743-49398,Potspoon,,18-3743-49398 Potspoon ,TRUE,3,
18-3432-49661,Quebec ,44.83844,-76.98158,44,8,3,76,9,8,18-3432-49661,Quebec,,18-3432-49661 Quebec ,TRUE,3,
18-3998-49356,Sand ,44.56822,-76.26322,44,5,6,76,2,6,18-3998-49356,Sand,,18-3998-49356 Sand ,TRUE,3,
18-3668-49582,Sharbot ,44.76738,-76.69336,44,7,6,76,6,9,18-3668-49582,Sharbot,,18-3668-49582 Sharbot ,TRUE,3,
18-3380-49750,Shawenegog ,44.91015,-77.05502,44,9,1,77,0,5,18-3380-49750,Shawenegog,,18-3380-49750 Shawenegog ,TRUE,3,
18-3404-49395,Sheffield Long ,44.59529,-77.00966,44,5,9,77,0,0,18-3404-49395,Sheffield,Long,18-3404-49395 Sheffield Long ,FALSE,4, 
18-3220-49677,Skootamatta ,44.8375,-77.24743,44,8,3,77,2,4,18-3220-49677,Skootamatta,,18-3220-49677 Skootamatta ,TRUE,3,
18-4028-49206,South ,44.43422,-76.22132,44,4,3,76,2,2,18-4028-49206,South,,18-4028-49206 South ,TRUE,3,
18-3677-49397,St. Andrew s,44.60604,-76.6697,44,6,0,76,6,6,18-3677-49397,St.,Andrew,18-3677-49397 St. Andrew s,FALSE,4, s
18-3760-49200,Sydenham ,44.43074,-76.55674,44,4,3,76,5,5,18-3760-49200,Sydenham,,18-3760-49200 Sydenham ,TRUE,3,
18-3714-49331,Thirteen Island ,44.54076,-76.62158,44,5,4,76,6,2,18-3714-49331,Thirteen,Island,18-3714-49331 Thirteen Island ,FALSE,4, 
18-3941-49484,Upper Rideau ,44.68101,-76.33973,44,6,8,76,3,3,18-3941-49484,Upper,Rideau,18-3941-49484 Upper Rideau ,FALSE,4, 
18-3660-49270,Verona ,44.48517,-76.68599,44,4,8,76,6,8,18-3660-49270,Verona,,18-3660-49270 Verona ,TRUE,3,
18-3085-49890,Weslemkoon ,45.02704,-77.4237,45,0,2,77,4,2,18-3085-49890,Weslemkoon,,18-3085-49890 Weslemkoon ,TRUE,3,
18-3870-49481,Westport Sand ,44.67909,-76.42739,44,6,7,76,4,2,18-3870-49481,Westport,Sand,18-3870-49481 Westport Sand ,FALSE,4, 
18-3808-50183,White ,45.29792,-76.51851,45,2,9,76,5,1,18-3808-50183,White,,18-3808-50183 White ,TRUE,3,
18-4014-49297,Whitefish ,44.51719,-76.23477,44,5,1,76,2,3,18-4014-49297,Whitefish,,18-4014-49297 Whitefish ,TRUE,3,
